{"type": "FeatureCollection", "metadata": {"created_at": "2026-04-09", "model_version": "3.1", "description": "Regina lead service connection burden by census tract \u2014 dual-track 30-year model with NPV", "sources": ["DomesticWaterNetworkTrace/4 (live)", "CBMH Layer 8 (frozen 2016)", "SewerWaterCondition Lead+PolyB", "StatsCan 2016 Census", "City of Regina LSC Program (2020-2023)", "GTLO 2025 (Sept)", "CR21-90 council minutes (May 26, 2021)"]}, "features": [{"type": "Feature", "properties": {"ct_uid": "7050018.00", "ct_name": "0018.00", "pb_connections": 459, "children_0_14": 0.0, "children_0_4": 525.0, "replacements": 96, "unreplaced": 220, "renter_pct": 59.806295, "indigenous_pct": 44.674835, "low_income_pct": 40.3, "median_income": 0.0, "realized_qaly": 29.07, "prevented_qaly": 73.04, "atrisk_qaly": 67.21, "realized_npv": 5175480, "prevented_npv": 13002607, "atrisk_npv": 11965561, "total_burden_npv": 17141041, "total_earnings_loss": 7508347, "total_healthcare": 2356543, "total_education": 1504176, "total_tax_loss": 1128132, "delay_cost_npv": 824665, "delay_children": 21.4, "delay_qaly": 5.6, "replacement_rate": 43.790849673202615}, "geometry": {"type": "Polygon", "coordinates": [[[-104.62635535121058, 50.45013884521026], [-104.63113875267558, 50.449277752947445], [-104.63114878561652, 50.449795697768], [-104.63115260442484, 50.4511178071029], [-104.63114680652791, 50.45186420652954], [-104.63114880445808, 50.45342908591896], [-104.63115431440981, 50.45452630733995], [-104.6311498910412, 50.455092809909864], [-104.6311604950516, 50.45554259490785], [-104.6311655027826, 50.456711701501376], [-104.63113918633641, 50.458276488580566], [-104.63116929376024, 50.45984138844837], [-104.63117150440257, 50.46137030998787], [-104.63116781580224, 50.46184689103522], [-104.6311592104981, 50.46295309207945], [-104.6311613084205, 50.46449100453459], [-104.63116041027277, 50.464607894603326], [-104.63116281360676, 50.46611878961712], [-104.63116458070908, 50.46769260294154], [-104.63116459822876, 50.46950929467962], [-104.63117014326177, 50.4695505306548], [-104.63117258568806, 50.46956868785114], [-104.6265995386419, 50.46954064526155], [-104.62556226056593, 50.46953423780853], [-104.62541216788014, 50.469533343559455], [-104.6245106347358, 50.46952775751588], [-104.62399474718498, 50.469524042349974], [-104.62217905536251, 50.46951104860508], [-104.62208654533113, 50.46951034782294], [-104.62112838462816, 50.469509732239466], [-104.61828974836853, 50.46950784580857], [-104.61822646064104, 50.46950775250358], [-104.61821477128186, 50.46950774003753], [-104.61802933765036, 50.46950775504377], [-104.61801752933007, 50.469507757982626], [-104.61802628360198, 50.46842369747438], [-104.61801811629147, 50.46768618890529], [-104.61801368544097, 50.466481093657556], [-104.61800827817349, 50.46541079232512], [-104.61801489347243, 50.46459250054347], [-104.61801559411, 50.46450249446271], [-104.61801391483613, 50.46296459198925], [-104.61801251909444, 50.46138180900897], [-104.61801079236596, 50.45984390254618], [-104.61800942002223, 50.45827910532914], [-104.6180217119117, 50.45674129376179], [-104.61801699073489, 50.4555811052556], [-104.61802079699564, 50.455113499068965], [-104.61800608835495, 50.45343161097498], [-104.61798608504311, 50.45211565151406], [-104.61798025831702, 50.451732940210064], [-104.61797857871039, 50.45162145414071], [-104.61799015801954, 50.451619451178885], [-104.61819005745356, 50.45158487298131], [-104.6182018349229, 50.45158284428296], [-104.61831954511655, 50.45156235477137], [-104.61850926068739, 50.45152975593413], [-104.62019092431588, 50.451238138611], [-104.62412693091859, 50.450532751684555], [-104.62449594746859, 50.45046664126478], [-104.62635535121058, 50.45013884521026]]]}}, {"type": "Feature", "properties": {"ct_uid": "7050009.01", "ct_name": "0009.01", "pb_connections": 344, "children_0_14": 0.0, "children_0_4": 285.0, "replacements": 58, "unreplaced": 208, "renter_pct": 34.501348, "indigenous_pct": 17.619603, "low_income_pct": 18.1, "median_income": 0.0, "realized_qaly": 17.5, "prevented_qaly": 30.77, "atrisk_qaly": 47.07, "realized_npv": 3116070, "prevented_npv": 5478209, "atrisk_npv": 8380078, "total_burden_npv": 11496148, "total_earnings_loss": 4986512, "total_healthcare": 1565049, "total_education": 998967, "total_tax_loss": 749226, "delay_cost_npv": 577422, "delay_children": 15.0, "delay_qaly": 3.92, "replacement_rate": 33.13953488372093}, "geometry": {"type": "Polygon", "coordinates": [[[-104.57216930009888, 50.444026899085856], [-104.57216898464144, 50.44248909792622], [-104.5721754349651, 50.441780931560935], [-104.57241007370585, 50.441904724260176], [-104.57276391892208, 50.44209388363307], [-104.57394697682048, 50.44273356429294], [-104.57408311628238, 50.442630991890994], [-104.57422498466342, 50.4425146103514], [-104.57504759110208, 50.4418610895755], [-104.5759264864036, 50.441216799918784], [-104.57656268824218, 50.44094028866386], [-104.57678831139292, 50.4409141109701], [-104.57787290067675, 50.44088208702247], [-104.57930941621686, 50.44087829745817], [-104.58074577630401, 50.440883491717415], [-104.58216819954, 50.440879587126034], [-104.58363270458192, 50.44088489206226], [-104.58506921164503, 50.44088099411696], [-104.58650568683424, 50.44087710589121], [-104.58791399363108, 50.440873102007856], [-104.58939270491625, 50.44086939560603], [-104.590829202836, 50.44086538927813], [-104.59227961638284, 50.44087049470256], [-104.59371609049956, 50.44086650248542], [-104.59515259648454, 50.440862590780824], [-104.59514860908858, 50.441321204579125], [-104.59515349662779, 50.442400393950074], [-104.59515429808009, 50.443965304547156], [-104.59511757588295, 50.445347135820356], [-104.59511269149475, 50.445529998220735], [-104.59513140524473, 50.446645196823816], [-104.59511320138651, 50.447121812707245], [-104.59511238502272, 50.44722070147176], [-104.59512259592331, 50.44767050359885], [-104.59514090754558, 50.44883068808109], [-104.59515601520972, 50.45035960463533], [-104.5951290204274, 50.451879410130225], [-104.59512732302791, 50.45188316078676], [-104.59472208977354, 50.45174167815369], [-104.59378534164377, 50.4514601209104], [-104.59364559337148, 50.451413317633126], [-104.5931009559556, 50.45120047716612], [-104.59083757256617, 50.45039612247824], [-104.58942514435299, 50.45000326357947], [-104.58864170063343, 50.449808880355135], [-104.587507481488, 50.44961873526481], [-104.58508998702105, 50.44909125550961], [-104.58386687179627, 50.44887244886876], [-104.58219548228806, 50.44869386586199], [-104.57929384735156, 50.4482202808472], [-104.57235150641864, 50.44724730610822], [-104.57216840875772, 50.44724660443713], [-104.57215552168383, 50.44711160722216], [-104.57215938525478, 50.44668001458843], [-104.57215519355114, 50.44559170778732], [-104.57216930009888, 50.444026899085856]]]}}, {"type": "Feature", "properties": {"ct_uid": "7050014.00", "ct_name": "0014.00", "pb_connections": 287, "children_0_14": 0.0, "children_0_4": 105.0, "replacements": 44, "unreplaced": 213, "renter_pct": 72.222222, "indigenous_pct": 23.666667, "low_income_pct": 38.0, "median_income": 0.0, "realized_qaly": 13.17, "prevented_qaly": 13.92, "atrisk_qaly": 40.1, "realized_npv": 2345139, "prevented_npv": 2478680, "atrisk_npv": 7138413, "total_burden_npv": 9483552, "total_earnings_loss": 4085612, "total_healthcare": 1282296, "total_education": 818487, "total_tax_loss": 613865, "delay_cost_npv": 492028, "delay_children": 12.8, "delay_qaly": 3.34, "replacement_rate": 21.602787456445995}, "geometry": {"type": "Polygon", "coordinates": [[[-104.59512259592331, 50.44767050359885], [-104.59511238502272, 50.44722070147176], [-104.5962390895096, 50.447224700525965], [-104.5977039921107, 50.44722071285462], [-104.59911240688487, 50.447216591253024], [-104.60059131617608, 50.44722170786875], [-104.60204188670413, 50.44722670681773], [-104.60347848216442, 50.4472315986556], [-104.60491519623149, 50.44722749544753], [-104.60633781568004, 50.447223301344046], [-104.60632470036992, 50.44879710629269], [-104.60632541385712, 50.45040688709299], [-104.60634009893552, 50.45203478671503], [-104.60633909803104, 50.45215170208798], [-104.60635190501671, 50.45231360005425], [-104.60642619627161, 50.453545902379474], [-104.60642252901222, 50.45359784059764], [-104.60641835393754, 50.45365674852486], [-104.60641795967577, 50.45366251772707], [-104.60634362920516, 50.45367433893297], [-104.60444483768994, 50.45401325728242], [-104.60118283409771, 50.45458743890773], [-104.59533415422884, 50.45565295681945], [-104.59524884584803, 50.45566856196843], [-104.59523799392092, 50.455670520530894], [-104.59502403124505, 50.45570924052025], [-104.5950124576783, 50.455711266148896], [-104.5950120051152, 50.45568320938691], [-104.5950170951097, 50.45565454033578], [-104.59515999743549, 50.45484730489151], [-104.5951159027463, 50.45341718842923], [-104.5951290204274, 50.451879410130225], [-104.59515601520972, 50.45035960463533], [-104.59514090754558, 50.44883068808109], [-104.59512259592331, 50.44767050359885]]]}}, {"type": "Feature", "properties": {"ct_uid": "7050012.00", "ct_name": "0012.00", "pb_connections": 407, "children_0_14": 0.0, "children_0_4": 360.0, "replacements": 51, "unreplaced": 180, "renter_pct": 52.823315, "indigenous_pct": 9.065421, "low_income_pct": 17.7, "median_income": 0.0, "realized_qaly": 15.5, "prevented_qaly": 42.79, "atrisk_qaly": 33.93, "realized_npv": 2760256, "prevented_npv": 7617407, "atrisk_npv": 6040911, "total_burden_npv": 8801167, "total_earnings_loss": 3867815, "total_healthcare": 1213939, "total_education": 774855, "total_tax_loss": 581141, "delay_cost_npv": 416155, "delay_children": 10.8, "delay_qaly": 2.83, "replacement_rate": 46.928746928746925}, "geometry": {"type": "Polygon", "coordinates": [[[-104.61796932075983, 50.45101230273249], [-104.6179869210162, 50.450380167956595], [-104.61798908997852, 50.45030191283215], [-104.61799046364663, 50.45013271695947], [-104.61800139116873, 50.44877299523209], [-104.6180096834123, 50.44773879453106], [-104.61801379132781, 50.44723519223359], [-104.61801459156307, 50.44713629814067], [-104.61801841705503, 50.44665969061928], [-104.61801351410328, 50.445517510309465], [-104.61802591217487, 50.44397959252874], [-104.61802428139457, 50.44242379274682], [-104.61801901239168, 50.44133558958562], [-104.61800851408334, 50.44089489498701], [-104.61800979985134, 50.44072400305547], [-104.61801190887851, 50.440472187394136], [-104.6180108832674, 50.438844391104986], [-104.6180224043013, 50.437414499346595], [-104.61801610883936, 50.43645211169349], [-104.61801794263472, 50.436220572242426], [-104.61801928861853, 50.43604740905886], [-104.61802030453367, 50.435920928477245], [-104.61802332083039, 50.43554813134866], [-104.61817607975063, 50.43602761362528], [-104.61818559873716, 50.43603172729053], [-104.6182445880206, 50.43605724623176], [-104.61890024895342, 50.436381025382374], [-104.6195896730607, 50.43637625841584], [-104.62097679264201, 50.436250353473326], [-104.62138146056456, 50.436146939099594], [-104.62331066900313, 50.43559344428275], [-104.62414239366993, 50.43553983825176], [-104.62580466913552, 50.43548764549809], [-104.62624683477442, 50.43549894541086], [-104.62625119622614, 50.4354990377602], [-104.62672319220795, 50.43561763553923], [-104.62711775733672, 50.435771242326204], [-104.6275634812333, 50.43613915579369], [-104.62773727597109, 50.436387338857486], [-104.62780766558238, 50.43668226033271], [-104.62846000108408, 50.43869405315548], [-104.62864467960526, 50.43886804311889], [-104.6293152854453, 50.43927805660377], [-104.62977008328045, 50.43944404849656], [-104.62999909471351, 50.439504053612175], [-104.63068438970117, 50.43955603963675], [-104.63115467381151, 50.439556740662916], [-104.63115469196319, 50.43955718628079], [-104.63115728491161, 50.43965121425908], [-104.63116190366522, 50.440865290691235], [-104.6304376976635, 50.440862998842796], [-104.62968329330049, 50.44086059244472], [-104.62899320334158, 50.440858391216516], [-104.62826099615768, 50.44085609508637], [-104.62824320134449, 50.441323693155205], [-104.62824867885334, 50.44242089008559], [-104.62825951711164, 50.44283470394592], [-104.62825568133286, 50.443329294493566], [-104.62826470946301, 50.44396780821276], [-104.62827390671613, 50.44459739449556], [-104.6282843034378, 50.445074091463525], [-104.62826689143535, 50.44548770411623], [-104.62822970971756, 50.446647798087156], [-104.62825409733523, 50.447124499809334], [-104.62825351827495, 50.44719641043939], [-104.62826381037912, 50.44768211126367], [-104.62827052021471, 50.44862640879817], [-104.62826897995791, 50.448815289820566], [-104.6283077956549, 50.44926511353024], [-104.629746303532, 50.449026894506], [-104.63118481804122, 50.44878859914284], [-104.63113891096172, 50.449256097078965], [-104.63113875267558, 50.449277752947445], [-104.62635535121058, 50.45013884521026], [-104.62449594746859, 50.45046664126478], [-104.62412693091859, 50.450532751684555], [-104.62019092431588, 50.451238138611], [-104.61850926068739, 50.45152975593413], [-104.61831954511655, 50.45156235477137], [-104.6182018349229, 50.45158284428296], [-104.61819005745356, 50.45158487298131], [-104.61799015801954, 50.451619451178885], [-104.61797857871039, 50.45162145414071], [-104.61797834781251, 50.4516064637493], [-104.61797829548276, 50.45160383538983], [-104.61796932075983, 50.45101230273249]]]}}, {"type": "Feature", "properties": {"ct_uid": "7050004.00", "ct_name": "0004.00", "pb_connections": 237, "children_0_14": 0.0, "children_0_4": 1020.0, "replacements": 52, "unreplaced": 86, "renter_pct": 26.641414, "indigenous_pct": 5.155155, "low_income_pct": 10.4, "median_income": 0.0, "realized_qaly": 15.75, "prevented_qaly": 52.53, "atrisk_qaly": 29.91, "realized_npv": 2803385, "prevented_npv": 9352018, "atrisk_npv": 5324744, "total_burden_npv": 8128129, "total_earnings_loss": 3608444, "total_healthcare": 1132533, "total_education": 722894, "total_tax_loss": 542170, "delay_cost_npv": 367067, "delay_children": 9.5, "delay_qaly": 2.49, "replacement_rate": 53.58649789029536}, "geometry": {"type": "Polygon", "coordinates": [[[-104.63523784042337, 50.44868053981901], [-104.63348323522094, 50.448900456380215], [-104.63226894766227, 50.44908264932484], [-104.63116066393188, 50.44927385295874], [-104.63115054427541, 50.449275641670724], [-104.63113875267558, 50.449277752947445], [-104.63113891096172, 50.449256097078965], [-104.63118481804122, 50.44878859914284], [-104.629746303532, 50.449026894506], [-104.6283077956549, 50.44926511353024], [-104.62826897995791, 50.448815289820566], [-104.62827052021471, 50.44862640879817], [-104.62826381037912, 50.44768211126367], [-104.62825351827495, 50.44719641043939], [-104.62825409733523, 50.447124499809334], [-104.62822970971756, 50.446647798087156], [-104.62826689143535, 50.44548770411623], [-104.6282843034378, 50.445074091463525], [-104.62827390671613, 50.44459739449556], [-104.62826470946301, 50.44396780821276], [-104.62825568133286, 50.443329294493566], [-104.62825951711164, 50.44283470394592], [-104.62824867885334, 50.44242089008559], [-104.62824320134449, 50.441323693155205], [-104.62826099615768, 50.44085609508637], [-104.62899320334158, 50.440858391216516], [-104.62968329330049, 50.44086059244472], [-104.6304376976635, 50.440862998842796], [-104.63116190366522, 50.440865290691235], [-104.63115728491161, 50.43965121425908], [-104.63115469196319, 50.43955718628079], [-104.63115467381151, 50.439556740662916], [-104.63170116450777, 50.43955755269626], [-104.63263869395745, 50.43934733879821], [-104.63295738427885, 50.43924313620875], [-104.63332327839714, 50.43921665011124], [-104.63365567754154, 50.439229957886766], [-104.63385467015394, 50.43928365710073], [-104.6342210758426, 50.43955885532156], [-104.63455118979124, 50.43968205467758], [-104.63477908594227, 50.43979705941789], [-104.63500389682692, 50.439839048444085], [-104.63580706826154, 50.44014473630966], [-104.636426265959, 50.440459256019764], [-104.63674239679743, 50.440583845946165], [-104.63751657277687, 50.440828361023605], [-104.6384642626936, 50.44101935407086], [-104.63913456614732, 50.441008856836454], [-104.63995359574588, 50.440901545089886], [-104.64051346627527, 50.44072804246133], [-104.64090435633989, 50.440507040233314], [-104.64090982948015, 50.44050582798003], [-104.64217838220915, 50.440219885293914], [-104.64226276528733, 50.440200849642615], [-104.64276469019465, 50.43990505395756], [-104.64325567961545, 50.439683436495024], [-104.64380336984726, 50.439639147913425], [-104.64397246088737, 50.43963808286227], [-104.64409201572514, 50.43963734564379], [-104.64420366475429, 50.43963666135137], [-104.64444105006508, 50.43966497814131], [-104.6447787560627, 50.439749607865195], [-104.64506614452048, 50.43993188205387], [-104.64533215603825, 50.440226721730404], [-104.64545885208966, 50.440564109533234], [-104.6454727088565, 50.441086992520034], [-104.64532796400078, 50.441471884985006], [-104.64437663551838, 50.44208368373067], [-104.64438203841647, 50.44240021709331], [-104.64448018026673, 50.442887738557175], [-104.64466531842788, 50.44316872506325], [-104.64509609100573, 50.44338113797154], [-104.64568728232122, 50.443377463609075], [-104.64606100781688, 50.443231247555964], [-104.64657611055377, 50.44274937699166], [-104.64707353838376, 50.442391843180644], [-104.64768234444261, 50.44226384881436], [-104.64838619423587, 50.44233705325306], [-104.6486278608943, 50.44259231350871], [-104.64879845736489, 50.442887388819294], [-104.64886977274995, 50.44317097626886], [-104.64888200496529, 50.44338901387172], [-104.64884327619329, 50.44368689053167], [-104.64887710560065, 50.443822821707904], [-104.64898394053996, 50.44388824799159], [-104.64925966146895, 50.443943879826264], [-104.64989843224811, 50.44390961501344], [-104.65068888020325, 50.44375185866741], [-104.65148679805591, 50.44361752685175], [-104.65216835892147, 50.44368749482464], [-104.6526544112309, 50.44392320597448], [-104.6531061460961, 50.4442609957263], [-104.6532726886338, 50.44448336039968], [-104.65333979485327, 50.44466376955448], [-104.65335816815633, 50.444990854722946], [-104.65329419079201, 50.445492999218125], [-104.65299305657594, 50.44600236399653], [-104.65286306068671, 50.44607417422816], [-104.652041830193, 50.44631524822698], [-104.65176426976895, 50.446583222422305], [-104.65148630555048, 50.44673534376454], [-104.65114033627216, 50.4468719868889], [-104.65083640356941, 50.44702745808989], [-104.6507904344644, 50.44713613937303], [-104.65066375162866, 50.44714824521811], [-104.65062225690271, 50.4471528527499], [-104.64657574316784, 50.44756483583072], [-104.64368504352213, 50.447832146682764], [-104.64337895512617, 50.44786045306005], [-104.64316474598394, 50.44788023899436], [-104.64315248220005, 50.44788138542891], [-104.6429997510434, 50.44789554988553], [-104.64299166519905, 50.447896337596376], [-104.64297868807469, 50.447897576749924], [-104.64278404796865, 50.44791634613273], [-104.64277091231357, 50.4479176058679], [-104.64250066135108, 50.44794375379407], [-104.64249753796844, 50.44794405443661], [-104.64188445138636, 50.44800325395743], [-104.6382761353589, 50.44835965301343], [-104.63523784042337, 50.44868053981901]]]}}, {"type": "Feature", "properties": {"ct_uid": "7050019.00", "ct_name": "0019.00", "pb_connections": 204, "children_0_14": 0.0, "children_0_4": 310.0, "replacements": 35, "unreplaced": 114, "renter_pct": 41.242938, "indigenous_pct": 27.561837, "low_income_pct": 27.1, "median_income": 0.0, "realized_qaly": 10.69, "prevented_qaly": 21.6, "atrisk_qaly": 27.38, "realized_npv": 1903067, "prevented_npv": 3845907, "atrisk_npv": 4873652, "total_burden_npv": 6776720, "total_earnings_loss": 2948656, "total_healthcare": 925455, "total_education": 590716, "total_tax_loss": 443037, "delay_cost_npv": 335728, "delay_children": 8.7, "delay_qaly": 2.28, "replacement_rate": 37.254901960784316}, "geometry": {"type": "Polygon", "coordinates": [[[-104.63226894766227, 50.44908264932484], [-104.63348323522094, 50.448900456380215], [-104.63523784042337, 50.44868053981901], [-104.6382761353589, 50.44835965301343], [-104.64188445138636, 50.44800325395743], [-104.64249753796844, 50.44794405443661], [-104.64250066135108, 50.44794375379407], [-104.64277091231357, 50.4479176058679], [-104.6426213007203, 50.44886919825916], [-104.64262849883964, 50.449777611549735], [-104.64279170382692, 50.4505515044404], [-104.64315848143984, 50.45234230160895], [-104.64325018404712, 50.453259902375834], [-104.64326389767675, 50.45519359910569], [-104.64336670500866, 50.45837748616244], [-104.64352967933935, 50.462928692182864], [-104.64352618859222, 50.46452864000604], [-104.643523896887, 50.465572694703745], [-104.64342221953112, 50.466114693993724], [-104.64337718619932, 50.46635471024244], [-104.64306260346174, 50.46696530866424], [-104.64200842224076, 50.46848190487093], [-104.64180751530377, 50.46896690468281], [-104.64167107644352, 50.469533240158], [-104.64164165220551, 50.46965537139127], [-104.64144805358895, 50.4696351432077], [-104.64132975199254, 50.46962273631629], [-104.64103334363355, 50.469590248592205], [-104.64103015186834, 50.46958995171218], [-104.64076896455782, 50.46956664430673], [-104.64047556315631, 50.46954124916879], [-104.64032227469923, 50.46953644396838], [-104.64009383817977, 50.469530754423666], [-104.63980644453117, 50.46953195963768], [-104.63958564515099, 50.46953273518157], [-104.63866736189449, 50.46954144447767], [-104.63842334159526, 50.46954204502162], [-104.63698805763238, 50.46954555334202], [-104.63453735350552, 50.469552748953205], [-104.63118325956725, 50.46956875157432], [-104.63117258568806, 50.46956868785114], [-104.63117014326177, 50.4695505306548], [-104.63116459822876, 50.46950929467962], [-104.63116458070908, 50.46769260294154], [-104.63116281360676, 50.46611878961712], [-104.63116041027277, 50.464607894603326], [-104.6311613084205, 50.46449100453459], [-104.6311592104981, 50.46295309207945], [-104.63116781580224, 50.46184689103522], [-104.63117150440257, 50.46137030998787], [-104.63116929376024, 50.45984138844837], [-104.63113918633641, 50.458276488580566], [-104.6311655027826, 50.456711701501376], [-104.6311604950516, 50.45554259490785], [-104.6311498910412, 50.455092809909864], [-104.63115431440981, 50.45452630733995], [-104.63114880445808, 50.45342908591896], [-104.63114680652791, 50.45186420652954], [-104.63115260442484, 50.4511178071029], [-104.63114878561652, 50.449795697768], [-104.63113875267558, 50.449277752947445], [-104.63115054427541, 50.449275641670724], [-104.63116066393188, 50.44927385295874], [-104.63226894766227, 50.44908264932484]]]}}, {"type": "Feature", "properties": {"ct_uid": "7050010.00", "ct_name": "0010.00", "pb_connections": 185, "children_0_14": 0.0, "children_0_4": 200.0, "replacements": 25, "unreplaced": 101, "renter_pct": 69.435216, "indigenous_pct": 17.708333, "low_income_pct": 24.0, "median_income": 0.0, "realized_qaly": 7.45, "prevented_qaly": 15.65, "atrisk_qaly": 18.81, "realized_npv": 1326217, "prevented_npv": 2785609, "atrisk_npv": 3348311, "total_burden_npv": 4674528, "total_earnings_loss": 2037474, "total_healthcare": 639474, "total_education": 408175, "total_tax_loss": 306131, "delay_cost_npv": 230781, "delay_children": 6.0, "delay_qaly": 1.57, "replacement_rate": 38.37837837837838}, "geometry": {"type": "Polygon", "coordinates": [[[-104.59514860908858, 50.441321204579125], [-104.59515259648454, 50.440862590780824], [-104.59623679936323, 50.44087531304716], [-104.59771549292724, 50.440880391190916], [-104.5991237832012, 50.44087630986142], [-104.60058848847424, 50.44086329068965], [-104.6020389192373, 50.44086830460949], [-104.60347540034104, 50.44086419694654], [-104.60489771100936, 50.44086909885833], [-104.60634820567222, 50.44087398913679], [-104.60634438430709, 50.44133259825623], [-104.60634941234531, 50.44242089809496], [-104.60635048604082, 50.44398569756463], [-104.60633788211719, 50.445514492534876], [-104.60632850467742, 50.44664770482259], [-104.60633869756678, 50.44710640332773], [-104.60633781568004, 50.447223301344046], [-104.60491519623149, 50.44722749544753], [-104.60347848216442, 50.4472315986556], [-104.60204188670413, 50.44722670681773], [-104.60059131617608, 50.44722170786875], [-104.59911240688487, 50.447216591253024], [-104.5977039921107, 50.44722071285462], [-104.5962390895096, 50.447224700525965], [-104.59511238502272, 50.44722070147176], [-104.59511320138651, 50.447121812707245], [-104.59513140524473, 50.446645196823816], [-104.59511269149475, 50.445529998220735], [-104.59511757588295, 50.445347135820356], [-104.59515429808009, 50.443965304547156], [-104.59515349662779, 50.442400393950074], [-104.59514860908858, 50.441321204579125]]]}}, {"type": "Feature", "properties": {"ct_uid": "7050008.01", "ct_name": "0008.01", "pb_connections": 137, "children_0_14": 0.0, "children_0_4": 360.0, "replacements": 22, "unreplaced": 87, "renter_pct": 27.290837, "indigenous_pct": 9.437387, "low_income_pct": 8.9, "median_income": 0.0, "realized_qaly": 6.69, "prevented_qaly": 10.66, "atrisk_qaly": 18.52, "realized_npv": 1191439, "prevented_npv": 1897376, "atrisk_npv": 3297156, "total_burden_npv": 4488595, "total_earnings_loss": 1943747, "total_healthcare": 610057, "total_education": 389398, "total_tax_loss": 292049, "delay_cost_npv": 227338, "delay_children": 5.9, "delay_qaly": 1.54, "replacement_rate": 30.656934306569344}, "geometry": {"type": "Polygon", "coordinates": [[[-104.57678831139292, 50.4409141109701], [-104.57656268824218, 50.44094028866386], [-104.5759264864036, 50.441216799918784], [-104.57504759110208, 50.4418610895755], [-104.57422498466342, 50.4425146103514], [-104.57408311628238, 50.442630991890994], [-104.57394697682048, 50.44273356429294], [-104.57276391892208, 50.44209388363307], [-104.57241007370585, 50.441904724260176], [-104.5721754349651, 50.441780931560935], [-104.57007709147462, 50.44068270233005], [-104.56929435797197, 50.44027178620089], [-104.5686146409519, 50.43994205537195], [-104.56476898877386, 50.43802791857041], [-104.56446757783434, 50.43787132796455], [-104.56347631687156, 50.43737393791653], [-104.56319783793981, 50.43723514241212], [-104.56327548835499, 50.437140908946134], [-104.56337500104965, 50.437033391420464], [-104.56667320538688, 50.43361019581441], [-104.56833475704556, 50.43187330358555], [-104.57228790496053, 50.42774030681817], [-104.57249493127307, 50.427465568450664], [-104.57347049588375, 50.426170811349365], [-104.57472678937802, 50.424223797485695], [-104.5752335794675, 50.42345399734953], [-104.57524057806623, 50.42344329146078], [-104.57539876026635, 50.42319854908443], [-104.5753989493215, 50.423198234826856], [-104.57571558112882, 50.423286837837104], [-104.57573118704829, 50.423284291916204], [-104.57593256651651, 50.42325141478647], [-104.57589392675101, 50.423317113751274], [-104.57586069767656, 50.42337360311029], [-104.57581419214095, 50.42345338701863], [-104.57632103549086, 50.423606559196855], [-104.57656273173566, 50.42394736609432], [-104.57717096359666, 50.42414922431298], [-104.5776312631054, 50.4240652700707], [-104.5779745335941, 50.42361220535369], [-104.57877469561936, 50.42315489323471], [-104.58077864979981, 50.42315173244701], [-104.58395744232116, 50.42233768550229], [-104.58720231887698, 50.42155155988188], [-104.59013418606712, 50.42230634396499], [-104.59206758800119, 50.4238857816489], [-104.59302109471075, 50.425445748984494], [-104.59136291275918, 50.42653888039589], [-104.58897587852317, 50.427140833291574], [-104.58679251925403, 50.42910703934153], [-104.58631771972074, 50.43067869033064], [-104.58620570936449, 50.431049481805964], [-104.58791627756786, 50.43192594946432], [-104.591932285929, 50.4310398825458], [-104.59465512011104, 50.43086465087628], [-104.59520818783466, 50.43268769524595], [-104.59520931512351, 50.4342075891839], [-104.59575930264995, 50.43411059543388], [-104.59612678955011, 50.4339409934916], [-104.59638410583483, 50.43372377223027], [-104.59640189685315, 50.433708741063626], [-104.59637997151927, 50.43406145810293], [-104.59635656080172, 50.43443768605857], [-104.59501896065721, 50.434601016110534], [-104.59510709324177, 50.43463900149324], [-104.59514868540627, 50.434710997629786], [-104.59515052075065, 50.43615000003116], [-104.59514579753215, 50.43670761319225], [-104.5951511127721, 50.43773279522872], [-104.59515179515903, 50.43929769657112], [-104.59515721577131, 50.44031399451954], [-104.59515652004893, 50.44040390690311], [-104.59515259648454, 50.440862590780824], [-104.59371609049956, 50.44086650248542], [-104.59227961638284, 50.44087049470256], [-104.590829202836, 50.44086538927813], [-104.58939270491625, 50.44086939560603], [-104.58791399363108, 50.440873102007856], [-104.58650568683424, 50.44087710589121], [-104.58506921164503, 50.44088099411696], [-104.58363270458192, 50.44088489206226], [-104.58216819954, 50.440879587126034], [-104.58074577630401, 50.440883491717415], [-104.57930941621686, 50.44087829745817], [-104.57787290067675, 50.44088208702247], [-104.57678831139292, 50.4409141109701]]]}}, {"type": "Feature", "properties": {"ct_uid": "7050005.00", "ct_name": "0005.00", "pb_connections": 140, "children_0_14": 0.0, "children_0_4": 230.0, "replacements": 21, "unreplaced": 96, "renter_pct": 16.944444, "indigenous_pct": 7.542579, "low_income_pct": 7.1, "median_income": 0.0, "realized_qaly": 6.27, "prevented_qaly": 8.33, "atrisk_qaly": 18.18, "realized_npv": 1115963, "prevented_npv": 1483488, "atrisk_npv": 3236700, "total_burden_npv": 4352663, "total_earnings_loss": 1879334, "total_healthcare": 589841, "total_education": 376494, "total_tax_loss": 282371, "delay_cost_npv": 223096, "delay_children": 5.8, "delay_qaly": 1.52, "replacement_rate": 26.42857142857143}, "geometry": {"type": "Polygon", "coordinates": [[[-104.63674239679743, 50.440583845946165], [-104.636426265959, 50.440459256019764], [-104.63580706826154, 50.44014473630966], [-104.63500389682692, 50.439839048444085], [-104.63477908594227, 50.43979705941789], [-104.63455118979124, 50.43968205467758], [-104.6342210758426, 50.43955885532156], [-104.63385467015394, 50.43928365710073], [-104.63365567754154, 50.439229957886766], [-104.63332327839714, 50.43921665011124], [-104.63295738427885, 50.43924313620875], [-104.63263869395745, 50.43934733879821], [-104.63170116450777, 50.43955755269626], [-104.63115467381151, 50.439556740662916], [-104.63068438970117, 50.43955603963675], [-104.62999909471351, 50.439504053612175], [-104.62977008328045, 50.43944404849656], [-104.6293152854453, 50.43927805660377], [-104.62864467960526, 50.43886804311889], [-104.62846000108408, 50.43869405315548], [-104.62780766558238, 50.43668226033271], [-104.62773727597109, 50.436387338857486], [-104.6275634812333, 50.43613915579369], [-104.62711775733672, 50.435771242326204], [-104.62672319220795, 50.43561763553923], [-104.62625119622614, 50.4354990377602], [-104.62624683477442, 50.43549894541086], [-104.62580466913552, 50.43548764549809], [-104.62414239366993, 50.43553983825176], [-104.62331066900313, 50.43559344428275], [-104.62138146056456, 50.436146939099594], [-104.62097679264201, 50.436250353473326], [-104.6195896730607, 50.43637625841584], [-104.61890024895342, 50.436381025382374], [-104.6182445880206, 50.43605724623176], [-104.61818559873716, 50.43603172729053], [-104.61817607975063, 50.43602761362528], [-104.61802332083039, 50.43554813134866], [-104.61802579905154, 50.435238091242645], [-104.61802660643761, 50.435139094791325], [-104.61802861584381, 50.43489630845716], [-104.61802538898445, 50.43354729389114], [-104.61802731103175, 50.43330449384111], [-104.61802951525627, 50.433034701476416], [-104.61802631655112, 50.43167670649809], [-104.61801169476202, 50.429994809480036], [-104.61801155642557, 50.429765375492835], [-104.61801058567377, 50.42837601410484], [-104.61801111494258, 50.4283131020366], [-104.6181796941232, 50.428358595274545], [-104.61901040836108, 50.42836129701747], [-104.6196156800837, 50.42836329955214], [-104.62105182063164, 50.428359004202726], [-104.62247379835014, 50.428363588886405], [-104.62393799539302, 50.428359403112246], [-104.62537401359995, 50.42836399389853], [-104.62681010588881, 50.428359595338854], [-104.62824620592195, 50.42835520137106], [-104.62965410650473, 50.42835070870579], [-104.63099340028046, 50.42813010384503], [-104.63141698098661, 50.42796059638292], [-104.63191130818166, 50.42776429111803], [-104.6332400802633, 50.42706699324852], [-104.63403080593055, 50.42676369417804], [-104.63475098812691, 50.42648721204985], [-104.63525889814778, 50.42634490558523], [-104.63686410496796, 50.42631388971486], [-104.64090459558884, 50.42630850120484], [-104.64090638790621, 50.426573782607626], [-104.64185778279102, 50.42663756691905], [-104.64195440551401, 50.426576777543374], [-104.64209899335566, 50.42656967254795], [-104.64220279004003, 50.426567503764446], [-104.64259658952919, 50.42783359086547], [-104.64426671009838, 50.432290503532585], [-104.64456818277135, 50.43339760595504], [-104.64482437992994, 50.43491819278081], [-104.64487580475155, 50.435565910794686], [-104.64485079706374, 50.437031800110994], [-104.64448068687243, 50.439440911988804], [-104.64447498547376, 50.43947427801883], [-104.64446849337152, 50.43951241129916], [-104.64444105006508, 50.43966497814131], [-104.64420366475429, 50.43963666135137], [-104.64409201572514, 50.43963734564379], [-104.64397246088737, 50.43963808286227], [-104.64380336984726, 50.439639147913425], [-104.64325567961545, 50.439683436495024], [-104.64276469019465, 50.43990505395756], [-104.64226276528733, 50.440200849642615], [-104.64217838220915, 50.440219885293914], [-104.64090982948015, 50.44050582798003], [-104.64090435633989, 50.440507040233314], [-104.64051346627527, 50.44072804246133], [-104.63995359574588, 50.440901545089886], [-104.63913456614732, 50.441008856836454], [-104.6384642626936, 50.44101935407086], [-104.63751657277687, 50.440828361023605], [-104.63674239679743, 50.440583845946165]]]}}, {"type": "Feature", "properties": {"ct_uid": "7050017.00", "ct_name": "0017.00", "pb_connections": 112, "children_0_14": 0.0, "children_0_4": 150.0, "replacements": 18, "unreplaced": 36, "renter_pct": 34.437086, "indigenous_pct": 24.376731, "low_income_pct": 16.4, "median_income": 0.0, "realized_qaly": 5.51, "prevented_qaly": 20.24, "atrisk_qaly": 9.59, "realized_npv": 981185, "prevented_npv": 3604085, "atrisk_npv": 1706708, "total_burden_npv": 2687893, "total_earnings_loss": 1201245, "total_healthcare": 377018, "total_education": 240650, "total_tax_loss": 180488, "delay_cost_npv": 117589, "delay_children": 3.1, "delay_qaly": 0.8, "replacement_rate": 57.14285714285714}, "geometry": {"type": "Polygon", "coordinates": [[[-104.59820573689363, 50.469512441016555], [-104.59800275629104, 50.469528657023695], [-104.59782410856768, 50.46955271054154], [-104.59514426788057, 50.4695417255995], [-104.59513548640928, 50.467617811069864], [-104.5951350048774, 50.467491704904965], [-104.59512906393738, 50.46593089291498], [-104.59512679630112, 50.46534250936493], [-104.595127783646, 50.46521660927122], [-104.59385951496402, 50.46523910599064], [-104.5908936854111, 50.46551244199723], [-104.590475302029, 50.465550987637016], [-104.58979890867053, 50.46555759715552], [-104.58793628628496, 50.465559141646054], [-104.58653054735028, 50.46556027896781], [-104.58507201739987, 50.4655614270245], [-104.58358518369096, 50.465562604629724], [-104.58059800611976, 50.46556980219871], [-104.57906218301315, 50.46557329459896], [-104.57680779437453, 50.46557411235507], [-104.57501840457219, 50.46556760848954], [-104.5723834153636, 50.46558489821635], [-104.57218611878652, 50.46558420260847], [-104.57218502063215, 50.465710107747014], [-104.57045190991195, 50.465712690389395], [-104.56877461923321, 50.46577840886423], [-104.56781580519213, 50.46584680505215], [-104.56759021193857, 50.46586400996303], [-104.5674351765411, 50.46587239015648], [-104.56709681753027, 50.46589809976622], [-104.56739199850993, 50.46626858434367], [-104.56699553210608, 50.46627105018753], [-104.56489945235458, 50.46628394915202], [-104.56487884537216, 50.46628405462137], [-104.56486701438048, 50.466284107008356], [-104.56349801913716, 50.466291263525555], [-104.56174193265375, 50.46629304855183], [-104.56087073404255, 50.46629064813376], [-104.55880304097107, 50.46628866131488], [-104.55800663336399, 50.46627995438637], [-104.55711142362513, 50.46628225386788], [-104.55664756497711, 50.46628017603641], [-104.55588173335464, 50.46627675415357], [-104.5537001275267, 50.46628996777858], [-104.55145353590972, 50.46629684145652], [-104.54925053176294, 50.46629635627455], [-104.54922522684937, 50.466296353070916], [-104.54921272922867, 50.466296384189995], [-104.54922089803655, 50.466208754285525], [-104.54939024673725, 50.46394349725317], [-104.54940256771941, 50.4637783732905], [-104.55727199303895, 50.46238043542728], [-104.56337981783952, 50.461294955674994], [-104.56368866515615, 50.46124176455064], [-104.56369751431714, 50.461240252858225], [-104.56399126354171, 50.461189695585375], [-104.56399963685072, 50.461188245318894], [-104.56427994501598, 50.46113994995399], [-104.56907682682616, 50.46030606554805], [-104.56991204707556, 50.46016083921556], [-104.57173362400468, 50.459844350116335], [-104.57218222720121, 50.459765427891526], [-104.57219403293459, 50.45976334883078], [-104.57237984032204, 50.4597306403602], [-104.5723916460353, 50.45972856127631], [-104.57239524566711, 50.45972793797004], [-104.57399574224212, 50.45943894787195], [-104.5756296342289, 50.45914194975124], [-104.57818485111387, 50.45869483661659], [-104.5797712186212, 50.45841065393317], [-104.58176795517443, 50.458055949496334], [-104.58669705374494, 50.45718455785308], [-104.58884485518652, 50.456805143389246], [-104.5901983245863, 50.45655755905996], [-104.59041625002307, 50.4565176524799], [-104.59068293867274, 50.45646974710311], [-104.59296055649207, 50.45607024302799], [-104.59339904326875, 50.45599355291411], [-104.59500174821973, 50.45571315353524], [-104.5950124576783, 50.455711266148896], [-104.59502403124505, 50.45570924052025], [-104.59523799392092, 50.455670520530894], [-104.59524884584803, 50.45566856196843], [-104.59533415422884, 50.45565295681945], [-104.60118283409771, 50.45458743890773], [-104.60444483768994, 50.45401325728242], [-104.60634362920516, 50.45367433893297], [-104.60641795967577, 50.45366251772707], [-104.60643033352882, 50.45366054501538], [-104.60652394195513, 50.4536456189961], [-104.60653572924984, 50.453643748646556], [-104.6066243596922, 50.4536296521923], [-104.61020233302585, 50.45300173888032], [-104.61439035431319, 50.45226673642117], [-104.6147359403924, 50.45220605005047], [-104.61605112914569, 50.451975243853404], [-104.6168853584978, 50.45181785426162], [-104.61768654340916, 50.45167193791851], [-104.61789662798785, 50.45163564372263], [-104.61797857871039, 50.45162145414071], [-104.61798025831702, 50.451732940210064], [-104.61798608504311, 50.45211565151406], [-104.61800608835495, 50.45343161097498], [-104.61802079699564, 50.455113499068965], [-104.61801699073489, 50.4555811052556], [-104.6180217119117, 50.45674129376179], [-104.61800942002223, 50.45827910532914], [-104.61801079236596, 50.45984390254618], [-104.61801251909444, 50.46138180900897], [-104.61801391483613, 50.46296459198925], [-104.61801559411, 50.46450249446271], [-104.61801489347243, 50.46459250054347], [-104.61800827817349, 50.46541079232512], [-104.61801368544097, 50.466481093657556], [-104.61801811629147, 50.46768618890529], [-104.61802628360198, 50.46842369747438], [-104.61801752933007, 50.469507757982626], [-104.6180157516993, 50.469507751345176], [-104.61666759049591, 50.46950538664233], [-104.60974314521026, 50.469492951508194], [-104.60654485585101, 50.4694870356721], [-104.60653308719128, 50.469487032112106], [-104.6065175253447, 50.46948704569428], [-104.60636162601962, 50.46948824550463], [-104.60634988956149, 50.469488343159014], [-104.60590305406058, 50.46949184691324], [-104.60585386337401, 50.46949244909843], [-104.60492632345266, 50.469503179145455], [-104.60440045165934, 50.4695092470426], [-104.60323012556387, 50.46950384802786], [-104.60199035204691, 50.4695050586627], [-104.60154633543097, 50.469505463478846], [-104.60121945499608, 50.4695088518909], [-104.60113676057254, 50.46950965372623], [-104.60055313770467, 50.46950794950595], [-104.60036314648194, 50.46950736241171], [-104.59977124015643, 50.469505962174736], [-104.59890705760021, 50.469491250082264], [-104.59863163630465, 50.46949376385908], [-104.5984105304823, 50.46950075943054], [-104.59820573689363, 50.469512441016555]]]}}, {"type": "Feature", "properties": {"ct_uid": "7050020.00", "ct_name": "0020.00", "pb_connections": 55, "children_0_14": 0.0, "children_0_4": 255.0, "replacements": 11, "unreplaced": 37, "renter_pct": 31.632653, "indigenous_pct": 16.341829, "low_income_pct": 12.5, "median_income": 0.0, "realized_qaly": 3.36, "prevented_qaly": 4.68, "atrisk_qaly": 9.61, "realized_npv": 598415, "prevented_npv": 832427, "atrisk_npv": 1711359, "total_burden_npv": 2309774, "total_earnings_loss": 997889, "total_healthcare": 313194, "total_education": 199911, "total_tax_loss": 149933, "delay_cost_npv": 118032, "delay_children": 3.1, "delay_qaly": 0.8, "replacement_rate": 27.27272727272727}, "geometry": {"type": "Polygon", "coordinates": [[[-104.64336670500866, 50.45837748616244], [-104.64326389767675, 50.45519359910569], [-104.64350331850534, 50.45520329804225], [-104.64381611956509, 50.45520582896868], [-104.64390521804945, 50.455206527195365], [-104.64530630582072, 50.45521778839956], [-104.64672920701227, 50.45520410877906], [-104.64733652014962, 50.455198403239756], [-104.64818020614904, 50.45519049705434], [-104.64833521034387, 50.45519100131815], [-104.64963109907862, 50.455194904344324], [-104.65105389340516, 50.45519920310711], [-104.65250490205202, 50.455194487553015], [-104.6539418058642, 50.455189793799036], [-104.65537861836825, 50.45519410455509], [-104.65678730400555, 50.45518929904773], [-104.65826639948342, 50.455193600284204], [-104.65970329450998, 50.45518879813253], [-104.66040770329995, 50.45519090497094], [-104.66112610583204, 50.45519300366368], [-104.66231759186864, 50.45523990387753], [-104.66238411319047, 50.4561446227942], [-104.66394891589249, 50.457827095419866], [-104.66394880865003, 50.45842080336267], [-104.66395211457737, 50.4599317071651], [-104.6639556943658, 50.461424608085835], [-104.66395538497582, 50.4614605982756], [-104.6639617941387, 50.4625397918554], [-104.66395901446296, 50.46294448657304], [-104.66326857892787, 50.462942492216165], [-104.66111308921082, 50.46292719614144], [-104.65968998878768, 50.46293211184306], [-104.65680168075252, 50.46293260161609], [-104.65606908127799, 50.462930403386814], [-104.6553647058421, 50.462928402171784], [-104.65464609098623, 50.462935206276775], [-104.65427417460205, 50.46293564758803], [-104.65250450536294, 50.46293778765737], [-104.65177192218434, 50.46293560844493], [-104.65103919666612, 50.46293349507923], [-104.65019388676933, 50.46293088943758], [-104.64958810632379, 50.46292909786829], [-104.64816498831446, 50.46293379836629], [-104.6471083893566, 50.46293059699572], [-104.6466856831606, 50.462929311434756], [-104.64409330312999, 50.46293038654041], [-104.64375521151076, 50.46292939646099], [-104.64352967933935, 50.462928692182864], [-104.64336670500866, 50.45837748616244]]]}}, {"type": "Feature", "properties": {"ct_uid": "7050022.01", "ct_name": "0022.01", "pb_connections": 56, "children_0_14": 0.0, "children_0_4": 70.0, "replacements": 6, "unreplaced": 46, "renter_pct": 46.099291, "indigenous_pct": 12.757202, "low_income_pct": 19.4, "median_income": 0.0, "realized_qaly": 1.97, "prevented_qaly": 1.38, "atrisk_qaly": 6.32, "realized_npv": 350423, "prevented_npv": 246473, "atrisk_npv": 1125404, "total_burden_npv": 1475828, "total_earnings_loss": 634105, "total_healthcare": 199018, "total_education": 127033, "total_tax_loss": 95275, "delay_cost_npv": 77684, "delay_children": 2.0, "delay_qaly": 0.53, "replacement_rate": 14.285714285714285}, "geometry": {"type": "Polygon", "coordinates": [[[-104.70977580617824, 50.47696249615009], [-104.70974920059606, 50.46980369253606], [-104.70973790889776, 50.469531542186836], [-104.7097369010846, 50.46950689467311], [-104.70973726316147, 50.46944260602881], [-104.70890727253514, 50.46943254765347], [-104.69624688116663, 50.46945723116676], [-104.6904931604901, 50.469462542345894], [-104.68811475395593, 50.46945585385255], [-104.687666467674, 50.469456329605876], [-104.68737795824725, 50.469456631630464], [-104.68733650659868, 50.466687905010644], [-104.68686298459367, 50.46239466485256], [-104.68686189338604, 50.462373325195536], [-104.68686198228635, 50.46172229167159], [-104.68686349736795, 50.461488507769246], [-104.68686673273557, 50.46100739201979], [-104.68855452511015, 50.46099886380383], [-104.6884947382549, 50.45625562179948], [-104.68685559652442, 50.45628937851182], [-104.68685678318808, 50.456101398676765], [-104.68685739839987, 50.456020505723], [-104.68685948548499, 50.45569679837788], [-104.68686268568962, 50.45522009827848], [-104.6846791198034, 50.455241209584344], [-104.68169261783349, 50.45525110826595], [-104.67960771580921, 50.45525428755034], [-104.67835401058151, 50.45525088882506], [-104.6769311874032, 50.45524690402107], [-104.6754660898649, 50.45525180854927], [-104.67401518464328, 50.45525679240995], [-104.67276139245742, 50.45525330833685], [-104.67259237786615, 50.45525279624798], [-104.6711555930513, 50.45524870327202], [-104.66971870536682, 50.45525369589525], [-104.66823959033547, 50.45524951407127], [-104.66683079237585, 50.45525439061681], [-104.6660841786638, 50.455252290686644], [-104.66442199040924, 50.45525650208595], [-104.66395710427044, 50.455255205151126], [-104.66260480727614, 50.45525118901014], [-104.66231759186864, 50.45523990387753], [-104.66112610583204, 50.45519300366368], [-104.66040770329995, 50.45519090497094], [-104.65970329450998, 50.45518879813253], [-104.65826639948342, 50.455193600284204], [-104.65678730400555, 50.45518929904773], [-104.65537861836825, 50.45519410455509], [-104.6539418058642, 50.455189793799036], [-104.65250490205202, 50.455194487553015], [-104.65105389340516, 50.45519920310711], [-104.64963109907862, 50.455194904344324], [-104.64833521034387, 50.45519100131815], [-104.64818020614904, 50.45519049705434], [-104.64733652014962, 50.455198403239756], [-104.64672920701227, 50.45520410877906], [-104.64530630582072, 50.45521778839956], [-104.64390521804945, 50.455206527195365], [-104.64381611956509, 50.45520582896868], [-104.64350331850534, 50.45520329804225], [-104.64326389767675, 50.45519359910569], [-104.64325018404712, 50.453259902375834], [-104.64315848143984, 50.45234230160895], [-104.64279170382692, 50.4505515044404], [-104.64262849883964, 50.449777611549735], [-104.6426213007203, 50.44886919825916], [-104.64277091231357, 50.4479176058679], [-104.64278404796865, 50.44791634613273], [-104.64297868807469, 50.447897576749924], [-104.64299166519905, 50.447896337596376], [-104.6429997510434, 50.44789554988553], [-104.64315248220005, 50.44788138542891], [-104.64316474598394, 50.44788023899436], [-104.64337895512617, 50.44786045306005], [-104.64368504352213, 50.447832146682764], [-104.64657574316784, 50.44756483583072], [-104.65062225690271, 50.4471528527499], [-104.65066375162866, 50.44714824521811], [-104.6507904344644, 50.44713613937303], [-104.65095314548849, 50.44712053217635], [-104.66388269209098, 50.4458715874833], [-104.66389454227047, 50.445870439505], [-104.66389916378095, 50.44587004846371], [-104.68684044647192, 50.44357763994025], [-104.68685505337746, 50.443576208437264], [-104.69794666695692, 50.442466227103175], [-104.69795690051726, 50.442596387843125], [-104.69803935630533, 50.443644399636554], [-104.70395605913923, 50.44339404958222], [-104.70396501922733, 50.443864898671784], [-104.7057806801821, 50.443772512901226], [-104.705700644551, 50.4445499701309], [-104.70729506873705, 50.44448686555571], [-104.70731292786945, 50.44528105712852], [-104.70968075650272, 50.445209250850496], [-104.70969054122466, 50.45076498470433], [-104.70969819540086, 50.45511739016288], [-104.7191787090144, 50.455113687136894], [-104.72111578449412, 50.45511058926348], [-104.7217173166737, 50.45510961349339], [-104.72171699127227, 50.455107441772476], [-104.72167667595964, 50.45499662364158], [-104.72161368094866, 50.454890143116195], [-104.72154606389486, 50.45476462866305], [-104.72141928610841, 50.45461893743538], [-104.72128786265735, 50.454454136304584], [-104.7211993673276, 50.45432634465026], [-104.72113479418738, 50.45421854189287], [-104.7210814676234, 50.454084541938634], [-104.72103168117488, 50.45394754838234], [-104.72099596915676, 50.45381722824572], [-104.72098325406489, 50.45359092691628], [-104.72096097233461, 50.453119829788065], [-104.72095516348706, 50.452356035689206], [-104.7209428751751, 50.451784334445605], [-104.72093206692715, 50.45119704640107], [-104.7209371813636, 50.45052493223788], [-104.72093587991326, 50.449955435017486], [-104.72093777572209, 50.44930622977441], [-104.72094178920895, 50.44868614022644], [-104.72093417281823, 50.44782743505852], [-104.7209295848146, 50.44752713769448], [-104.7209351682616, 50.44710003731038], [-104.72093686702596, 50.44658582594869], [-104.72093035091882, 50.445663139869154], [-104.72093228561835, 50.445159443979506], [-104.72093326280716, 50.44471104480678], [-104.72092427905747, 50.44429502744986], [-104.72092507844029, 50.443903325789044], [-104.72092249066114, 50.44366574356474], [-104.7209279584606, 50.443200337184216], [-104.72092945897603, 50.44295143961526], [-104.72093117009649, 50.44276353671301], [-104.72092037057892, 50.442576137367276], [-104.72087315693344, 50.442400935926884], [-104.72083287836718, 50.44226072866954], [-104.72079669253026, 50.4421702005454], [-104.72080931508576, 50.44190875145598], [-104.72088753523471, 50.440286965072005], [-104.72089515371285, 50.44012918385555], [-104.72149296066982, 50.4400649313125], [-104.73260999425565, 50.43898967691023], [-104.7326216820409, 50.43898854153426], [-104.7326836868065, 50.43898252940391], [-104.75547670059017, 50.43669711804195], [-104.7554885769603, 50.43669592871333], [-104.75554276956848, 50.43669053116435], [-104.77839806661909, 50.43439802357916], [-104.77838588882697, 50.45507959878592], [-104.77840288004904, 50.46952299930579], [-104.77840289993038, 50.469537023765525], [-104.77837770388518, 50.46953703783614], [-104.75911107978143, 50.46950273462151], [-104.7585057055544, 50.46950164397071], [-104.75613077533696, 50.46949714937033], [-104.75587808806407, 50.4694966433309], [-104.75556840527844, 50.46949604366981], [-104.75548859514977, 50.46949604214314], [-104.75544748770263, 50.46949602764912], [-104.75547214192741, 50.47452185460731], [-104.75546419246204, 50.47479680469353], [-104.75555864568493, 50.484136882681966], [-104.73274941562235, 50.48421209732387], [-104.7210786137428, 50.48421688413401], [-104.70980178706088, 50.48422020225627], [-104.70979710572561, 50.48269128609517], [-104.7097944775744, 50.48114289186453], [-104.70978801344904, 50.47727729240217], [-104.70977580617824, 50.47696249615009]]]}}, {"type": "Feature", "properties": {"ct_uid": "7050003.00", "ct_name": "0003.00", "pb_connections": 15, "children_0_14": 0.0, "children_0_4": 320.0, "replacements": 2, "unreplaced": 10, "renter_pct": 38.074398, "indigenous_pct": 6.049496, "low_income_pct": 10.8, "median_income": 0.0, "realized_qaly": 0.73, "prevented_qaly": 1.04, "atrisk_qaly": 2.12, "realized_npv": 129387, "prevented_npv": 186017, "atrisk_npv": 376685, "total_burden_npv": 506072, "total_earnings_loss": 219316, "total_healthcare": 68834, "total_education": 43936, "total_tax_loss": 32952, "delay_cost_npv": 25896, "delay_children": 0.7, "delay_qaly": 0.18, "replacement_rate": 26.666666666666668}, "geometry": {"type": "Polygon", "coordinates": [[[-104.62105182063164, 50.428359004202726], [-104.6196156800837, 50.42836329955214], [-104.61901040836108, 50.42836129701747], [-104.6181796941232, 50.428358595274545], [-104.61801111494258, 50.4283131020366], [-104.61799598987149, 50.42669421174969], [-104.61799589206122, 50.426492916075134], [-104.61799521521743, 50.42503939819691], [-104.6179798890497, 50.42344750716669], [-104.61798018379348, 50.42341160794208], [-104.61797370049752, 50.42246720784722], [-104.61796761145173, 50.421477887604105], [-104.61796068389079, 50.420587592665456], [-104.61795428914344, 50.41962519408299], [-104.61796141408345, 50.418752894493956], [-104.61788889852662, 50.415505987906805], [-104.61817042065466, 50.41550690271026], [-104.61897311438139, 50.41546459601254], [-104.62029621236171, 50.415459886017366], [-104.62104229022157, 50.41544441242735], [-104.62247801371954, 50.41544009155024], [-104.62391361488658, 50.415444698049754], [-104.62534931459028, 50.41544039151093], [-104.62677079314935, 50.41544489447176], [-104.62688341962428, 50.415445306107245], [-104.62824870876644, 50.41544971103696], [-104.62969849891266, 50.41544530248246], [-104.63110589544665, 50.415449808335545], [-104.63252747833216, 50.41545429470683], [-104.63392129595091, 50.41546869435273], [-104.63438729698015, 50.415473510556495], [-104.63497338410356, 50.41551691289945], [-104.63566410540315, 50.41559440025451], [-104.63642721507419, 50.415714906691306], [-104.6370203202005, 50.415825499700055], [-104.63785330651558, 50.41598020288428], [-104.6386623091382, 50.416130403980624], [-104.63986109992211, 50.41635290505151], [-104.64090801435648, 50.41654160518449], [-104.64091035951223, 50.41553250702053], [-104.64305998886549, 50.415557947387995], [-104.64342593213026, 50.41551531754943], [-104.64308670817132, 50.416944088857356], [-104.64266136754102, 50.41872145903533], [-104.64201131095756, 50.42143750830012], [-104.64186329993862, 50.422390292303724], [-104.64179701959573, 50.42372109876979], [-104.64187270542612, 50.424872493654604], [-104.64214301618517, 50.42637529807058], [-104.64220279004003, 50.426567503764446], [-104.64209899335566, 50.42656967254795], [-104.64195440551401, 50.426576777543374], [-104.64185778279102, 50.42663756691905], [-104.64090638790621, 50.426573782607626], [-104.64090459558884, 50.42630850120484], [-104.63686410496796, 50.42631388971486], [-104.63525889814778, 50.42634490558523], [-104.63475098812691, 50.42648721204985], [-104.63403080593055, 50.42676369417804], [-104.6332400802633, 50.42706699324852], [-104.63191130818166, 50.42776429111803], [-104.63141698098661, 50.42796059638292], [-104.63099340028046, 50.42813010384503], [-104.62965410650473, 50.42835070870579], [-104.62824620592195, 50.42835520137106], [-104.62681010588881, 50.428359595338854], [-104.62537401359995, 50.42836399389853], [-104.62393799539302, 50.428359403112246], [-104.62247379835014, 50.428363588886405], [-104.62105182063164, 50.428359004202726]]]}}, {"type": "Feature", "properties": {"ct_uid": "7050015.00", "ct_name": "0015.00", "pb_connections": 9, "children_0_14": 0.0, "children_0_4": 145.0, "replacements": 2, "unreplaced": 9, "renter_pct": 32.183908, "indigenous_pct": 17.865429, "low_income_pct": 17.4, "median_income": 0.0, "realized_qaly": 0.61, "prevented_qaly": 0.0, "atrisk_qaly": 2.19, "realized_npv": 107822, "prevented_npv": 0, "atrisk_npv": 390636, "total_burden_npv": 498459, "total_earnings_loss": 213879, "total_healthcare": 67127, "total_education": 42847, "total_tax_loss": 32135, "delay_cost_npv": 26981, "delay_children": 0.7, "delay_qaly": 0.18, "replacement_rate": 0.0}, "geometry": {"type": "Polygon", "coordinates": [[[-104.56339985971991, 50.458673016152275], [-104.56340267999683, 50.45545199997474], [-104.56339948779929, 50.45520920096073], [-104.56339832607999, 50.455119190824995], [-104.56339440680114, 50.454822395217995], [-104.56339401579604, 50.45340228300924], [-104.56339370933613, 50.45233511044011], [-104.5633935840237, 50.451835799334546], [-104.56339320363976, 50.450361689138205], [-104.56339441615711, 50.44870690594274], [-104.56339530176139, 50.448607991643954], [-104.56339721597735, 50.448401107780505], [-104.56339148968262, 50.447483801040384], [-104.56339409776565, 50.44720500772647], [-104.5635750843737, 50.447210002863606], [-104.56370298266953, 50.44720931487091], [-104.56504201272725, 50.44720220310779], [-104.56623908874307, 50.447215602047876], [-104.5687601144483, 50.44723399631119], [-104.56984439175744, 50.4472469910884], [-104.57216840875772, 50.44724660443713], [-104.57235150641864, 50.44724730610822], [-104.57929384735156, 50.4482202808472], [-104.58219548228806, 50.44869386586199], [-104.58386687179627, 50.44887244886876], [-104.58508998702105, 50.44909125550961], [-104.587507481488, 50.44961873526481], [-104.58864170063343, 50.449808880355135], [-104.58942514435299, 50.45000326357947], [-104.59083757256617, 50.45039612247824], [-104.5931009559556, 50.45120047716612], [-104.59364559337148, 50.451413317633126], [-104.59378534164377, 50.4514601209104], [-104.59472208977354, 50.45174167815369], [-104.59512732302791, 50.45188316078676], [-104.5951290204274, 50.451879410130225], [-104.5951159027463, 50.45341718842923], [-104.59515999743549, 50.45484730489151], [-104.5950170951097, 50.45565454033578], [-104.5950120051152, 50.45568320938691], [-104.5950124576783, 50.455711266148896], [-104.59500174821973, 50.45571315353524], [-104.59339904326875, 50.45599355291411], [-104.59296055649207, 50.45607024302799], [-104.59068293867274, 50.45646974710311], [-104.59041625002307, 50.4565176524799], [-104.5901983245863, 50.45655755905996], [-104.58884485518652, 50.456805143389246], [-104.58669705374494, 50.45718455785308], [-104.58176795517443, 50.458055949496334], [-104.5797712186212, 50.45841065393317], [-104.57818485111387, 50.45869483661659], [-104.5756296342289, 50.45914194975124], [-104.57399574224212, 50.45943894787195], [-104.57239524566711, 50.45972793797004], [-104.5723916460353, 50.45972856127631], [-104.57237984032204, 50.4597306403602], [-104.57219403293459, 50.45976334883078], [-104.57218222720121, 50.459765427891526], [-104.57173362400468, 50.459844350116335], [-104.56991204707556, 50.46016083921556], [-104.56907682682616, 50.46030606554805], [-104.56427994501598, 50.46113994995399], [-104.56399963685072, 50.461188245318894], [-104.56399126354171, 50.461189695585375], [-104.56369751431714, 50.461240252858225], [-104.56368866515615, 50.46124176455064], [-104.56350970094508, 50.46066849550559], [-104.56340479378318, 50.45981380884061], [-104.56339971112732, 50.45884250270574], [-104.56339985971991, 50.458673016152275]]]}}, {"type": "Feature", "properties": {"ct_uid": "7050011.00", "ct_name": "0011.00", "pb_connections": 67, "children_0_14": 0.0, "children_0_4": 60.0, "replacements": 2, "unreplaced": 60, "renter_pct": 82.562278, "indigenous_pct": 8.194444, "low_income_pct": 27.4, "median_income": 0.0, "realized_qaly": 0.51, "prevented_qaly": 0.21, "atrisk_qaly": 1.72, "realized_npv": 91649, "prevented_npv": 37203, "atrisk_npv": 306928, "total_burden_npv": 398578, "total_earnings_loss": 170374, "total_healthcare": 53473, "total_education": 34132, "total_tax_loss": 25599, "delay_cost_npv": 21155, "delay_children": 0.6, "delay_qaly": 0.14, "replacement_rate": 8.955223880597014}, "geometry": {"type": "Polygon", "coordinates": [[[-104.60328111725138, 50.429848491477735], [-104.60427144395405, 50.429660468987485], [-104.6079712424385, 50.4295832760883], [-104.61022131843863, 50.43035283846479], [-104.6101868549846, 50.43162614489929], [-104.60983389463237, 50.433099336845345], [-104.60989170129731, 50.43448268270158], [-104.61103104193586, 50.43554273283743], [-104.61223252650525, 50.43585134425526], [-104.61377681906362, 50.43624798244671], [-104.61586625892508, 50.43633068175176], [-104.61801794263472, 50.436220572242426], [-104.61801610883936, 50.43645211169349], [-104.6180224043013, 50.437414499346595], [-104.6180108832674, 50.438844391104986], [-104.61801190887851, 50.440472187394136], [-104.61800979985134, 50.44072400305547], [-104.61800851408334, 50.44089489498701], [-104.61801901239168, 50.44133558958562], [-104.61802428139457, 50.44242379274682], [-104.61802591217487, 50.44397959252874], [-104.61801351410328, 50.445517510309465], [-104.61801841705503, 50.44665969061928], [-104.61801459156307, 50.44713629814067], [-104.61801379132781, 50.44723519223359], [-104.61657719402349, 50.447230510019416], [-104.61516871680065, 50.44723480777394], [-104.61371797781433, 50.447229995233336], [-104.61226729490481, 50.44722520703804], [-104.6108589208266, 50.447229509494385], [-104.60940821412976, 50.447224603741766], [-104.60792930554074, 50.447228708615405], [-104.60650678788447, 50.44722390050375], [-104.60633781568004, 50.447223301344046], [-104.60633869756678, 50.44710640332773], [-104.60632850467742, 50.44664770482259], [-104.60633788211719, 50.445514492534876], [-104.60635048604082, 50.44398569756463], [-104.60634941234531, 50.44242089809496], [-104.60634438430709, 50.44133259825623], [-104.60634820567222, 50.44087398913679], [-104.60634950986895, 50.440712086534134], [-104.60633971660964, 50.43901850601101], [-104.60633208248869, 50.43771720651903], [-104.60633120432927, 50.436125407058746], [-104.60627691560195, 50.43589140438436], [-104.60616599131325, 50.43567520585902], [-104.60548188970384, 50.43497140465644], [-104.6050921800489, 50.43442149241537], [-104.60485808544465, 50.43379109321675], [-104.6048460913177, 50.433539304680174], [-104.60478259746459, 50.432702690934924], [-104.6046734017403, 50.43228860348814], [-104.60443790412525, 50.4318291046408], [-104.6033266407521, 50.43010133017657], [-104.60328431308, 50.43003549278067], [-104.60317530508405, 50.4298685857142], [-104.60328111725138, 50.429848491477735]]]}}, {"type": "Feature", "properties": {"ct_uid": "7050013.00", "ct_name": "0013.00", "pb_connections": 41, "children_0_14": 0.0, "children_0_4": 5.0, "replacements": 1, "unreplaced": 40, "renter_pct": 78.571429, "indigenous_pct": 5.813953, "low_income_pct": 36.4, "median_income": 0.0, "realized_qaly": 0.21, "prevented_qaly": 0.03, "atrisk_qaly": 0.78, "realized_npv": 37738, "prevented_npv": 4650, "atrisk_npv": 139513, "total_burden_npv": 177251, "total_earnings_loss": 77635, "total_healthcare": 24366, "total_education": 15553, "total_tax_loss": 11665, "delay_cost_npv": 9760, "delay_children": 0.3, "delay_qaly": 0.07, "replacement_rate": 2.4390243902439024}, "geometry": {"type": "Polygon", "coordinates": [[[-104.60632470036992, 50.44879710629269], [-104.60633781568004, 50.447223301344046], [-104.60650678788447, 50.44722390050375], [-104.60792930554074, 50.447228708615405], [-104.60940821412976, 50.447224603741766], [-104.6108589208266, 50.447229509494385], [-104.61226729490481, 50.44722520703804], [-104.61371797781433, 50.447229995233336], [-104.61516871680065, 50.44723480777394], [-104.61657719402349, 50.447230510019416], [-104.61801379132781, 50.44723519223359], [-104.6180096834123, 50.44773879453106], [-104.61800139116873, 50.44877299523209], [-104.61799046364663, 50.45013271695947], [-104.61798908997852, 50.45030191283215], [-104.6179869210162, 50.450380167956595], [-104.61796932075983, 50.45101230273249], [-104.61797829548276, 50.45160383538983], [-104.61797834781251, 50.4516064637493], [-104.61797857871039, 50.45162145414071], [-104.61789662798785, 50.45163564372263], [-104.61768654340916, 50.45167193791851], [-104.6168853584978, 50.45181785426162], [-104.61605112914569, 50.451975243853404], [-104.6147359403924, 50.45220605005047], [-104.61439035431319, 50.45226673642117], [-104.61020233302585, 50.45300173888032], [-104.6066243596922, 50.4536296521923], [-104.60653572924984, 50.453643748646556], [-104.60652394195513, 50.4536456189961], [-104.60643033352882, 50.45366054501538], [-104.60641795967577, 50.45366251772707], [-104.60641835393754, 50.45365674852486], [-104.60642252901222, 50.45359784059764], [-104.60642619627161, 50.453545902379474], [-104.60635190501671, 50.45231360005425], [-104.60633909803104, 50.45215170208798], [-104.60634009893552, 50.45203478671503], [-104.60632541385712, 50.45040688709299], [-104.60632470036992, 50.44879710629269]]]}}, {"type": "Feature", "properties": {"ct_uid": "7050027.00", "ct_name": "0027.00", "pb_connections": 3, "children_0_14": 0.0, "children_0_4": 265.0, "replacements": 1, "unreplaced": 3, "renter_pct": 32.890365, "indigenous_pct": 21.399177, "low_income_pct": 16.1, "median_income": 0.0, "realized_qaly": 0.21, "prevented_qaly": 0.0, "atrisk_qaly": 0.78, "realized_npv": 37738, "prevented_npv": 0, "atrisk_npv": 139513, "total_burden_npv": 177251, "total_earnings_loss": 76257, "total_healthcare": 23934, "total_education": 15277, "total_tax_loss": 11458, "delay_cost_npv": 9620, "delay_children": 0.3, "delay_qaly": 0.07, "replacement_rate": 0.0}, "geometry": {"type": "Polygon", "coordinates": [[[-104.53779589360026, 50.49908103220413], [-104.53803618254946, 50.48423126092856], [-104.53559571297984, 50.48415009298013], [-104.52637731261157, 50.484140005475446], [-104.52633800953528, 50.46832050398186], [-104.52634199429339, 50.46786917081032], [-104.52635383639152, 50.46786706670332], [-104.52637541874562, 50.46786326079564], [-104.5266716338015, 50.4678123490554], [-104.54940256771941, 50.4637783732905], [-104.54939024673725, 50.46394349725317], [-104.54922089803655, 50.466208754285525], [-104.54921272922867, 50.466296384189995], [-104.54922522684937, 50.466296353070916], [-104.54925053176294, 50.46629635627455], [-104.55145353590972, 50.46629684145652], [-104.5537001275267, 50.46628996777858], [-104.55588173335464, 50.46627675415357], [-104.55664756497711, 50.46628017603641], [-104.55711142362513, 50.46628225386788], [-104.55800663336399, 50.46627995438637], [-104.55880304097107, 50.46628866131488], [-104.56087073404255, 50.46629064813376], [-104.56174193265375, 50.46629304855183], [-104.56349801913716, 50.466291263525555], [-104.56486701438048, 50.466284107008356], [-104.56487884537216, 50.46628405462137], [-104.56489945235458, 50.46628394915202], [-104.56699553210608, 50.46627105018753], [-104.56739199850993, 50.46626858434367], [-104.56709681753027, 50.46589809976622], [-104.5674351765411, 50.46587239015648], [-104.56759021193857, 50.46586400996303], [-104.56781580519213, 50.46584680505215], [-104.56877461923321, 50.46577840886423], [-104.57045190991195, 50.465712690389395], [-104.57218502063215, 50.465710107747014], [-104.57218611878652, 50.46558420260847], [-104.5723834153636, 50.46558489821635], [-104.57501840457219, 50.46556760848954], [-104.57680779437453, 50.46557411235507], [-104.57906218301315, 50.46557329459896], [-104.58059800611976, 50.46556980219871], [-104.58358518369096, 50.465562604629724], [-104.58507201739987, 50.4655614270245], [-104.58653054735028, 50.46556027896781], [-104.58793628628496, 50.465559141646054], [-104.58979890867053, 50.46555759715552], [-104.590475302029, 50.465550987637016], [-104.5908936854111, 50.46551244199723], [-104.59385951496402, 50.46523910599064], [-104.595127783646, 50.46521660927122], [-104.59512679630112, 50.46534250936493], [-104.59512906393738, 50.46593089291498], [-104.5951350048774, 50.467491704904965], [-104.59513548640928, 50.467617811069864], [-104.59514426788057, 50.4695417255995], [-104.59782410856768, 50.46955271054154], [-104.59800275629104, 50.469528657023695], [-104.59820573689363, 50.469512441016555], [-104.5984105304823, 50.46950075943054], [-104.59863163630465, 50.46949376385908], [-104.59890705760021, 50.469491250082264], [-104.59977124015643, 50.469505962174736], [-104.60036314648194, 50.46950736241171], [-104.60055313770467, 50.46950794950595], [-104.60113676057254, 50.46950965372623], [-104.60121945499608, 50.4695088518909], [-104.60154633543097, 50.469505463478846], [-104.60199035204691, 50.4695050586627], [-104.60323012556387, 50.46950384802786], [-104.60440045165934, 50.4695092470426], [-104.60492632345266, 50.469503179145455], [-104.60585386337401, 50.46949244909843], [-104.60590305406058, 50.46949184691324], [-104.60634988956149, 50.469488343159014], [-104.60634999078029, 50.46950891103244], [-104.60633878603606, 50.470866892828916], [-104.60633988207852, 50.47242269525974], [-104.60632712024163, 50.4739696021029], [-104.60634260133774, 50.47548950954821], [-104.60634380858707, 50.47704529547531], [-104.60634271604063, 50.47887100417573], [-104.606341490202, 50.48071460874712], [-104.60634518565944, 50.48197370511928], [-104.6063464002979, 50.48352059030553], [-104.60633930496188, 50.484374910819135], [-104.60643018543949, 50.485310493694136], [-104.60651341524532, 50.485481710731385], [-104.6065215943832, 50.486183210909026], [-104.60651890548229, 50.48651590451982], [-104.60653118325806, 50.48673181079426], [-104.6045295934465, 50.48672500098307], [-104.60354329692088, 50.48666769522298], [-104.60257158592974, 50.48655649647474], [-104.60105170004422, 50.48625449452536], [-104.60016579140706, 50.48599961027908], [-104.59932259252842, 50.48570000423739], [-104.59852212097478, 50.48534650479333], [-104.59779240053703, 50.48496618711008], [-104.59538111647804, 50.48341998972219], [-104.59497519178795, 50.48308580057121], [-104.59458238456416, 50.482868604210445], [-104.59443859491061, 50.48320090938807], [-104.59435209781284, 50.483425398194875], [-104.59415071758866, 50.48389241092772], [-104.59397800737176, 50.4843144984494], [-104.5947532147587, 50.48431719679158], [-104.59497842228906, 50.484353908143014], [-104.59504939340788, 50.484430343050725], [-104.5951459972469, 50.484534398671904], [-104.5951449949124, 50.48465129628738], [-104.59513338356919, 50.49426510741785], [-104.5951321956098, 50.49440000583384], [-104.59512248859575, 50.49553403683287], [-104.59512151362712, 50.49564998646429], [-104.59512885000632, 50.49892015382999], [-104.57164047714502, 50.49907714407958], [-104.55676515723277, 50.49932381146842], [-104.55651843686081, 50.49934506358233], [-104.54958539156392, 50.499942409449616], [-104.54360570580357, 50.49994630535151], [-104.53981608151696, 50.49994869272807], [-104.53779589360026, 50.49908103220413]]]}}, {"type": "Feature", "properties": {"ct_uid": "7050100.14", "ct_name": "0100.14", "pb_connections": 1, "children_0_14": 0.0, "children_0_4": 95.0, "replacements": 0, "unreplaced": 1, "renter_pct": 10.784314, "indigenous_pct": 4.285714, "low_income_pct": 5.7, "median_income": 0.0, "realized_qaly": 0.09, "prevented_qaly": 0.0, "atrisk_qaly": 0.29, "realized_npv": 16173, "prevented_npv": 0, "atrisk_npv": 51155, "total_burden_npv": 67328, "total_earnings_loss": 27476, "total_healthcare": 8623, "total_education": 5504, "total_tax_loss": 4128, "delay_cost_npv": 3466, "delay_children": 0.1, "delay_qaly": 0.02, "replacement_rate": 0.0}, "geometry": {"type": "MultiPolygon", "coordinates": [[[[-104.68563950008549, 50.57166180733085], [-104.66392029415226, 50.57169111385484], [-104.64114198356108, 50.571704106463926], [-104.63922149134554, 50.57169818950908], [-104.62244487792921, 50.57164505528485], [-104.61818090907964, 50.571631107436424], [-104.61758777664625, 50.57162909260702], [-104.59513411138998, 50.571661209280855], [-104.59343950913832, 50.57166430068978], [-104.57261029325144, 50.571686564833854], [-104.57217211796404, 50.57168699558897], [-104.57044920661018, 50.57168970901774], [-104.54949258333782, 50.57170040494528], [-104.54736021634916, 50.5717010927417], [-104.52624819249847, 50.5717160990652], [-104.52431351018426, 50.57171720338684], [-104.50328609319716, 50.57173741263435], [-104.50123850104815, 50.5717376042278], [-104.49999551120776, 50.571759402994275], [-104.48122879467036, 50.57166829622546], [-104.48123001938502, 50.57165159126625], [-104.48129548960667, 50.570742310557655], [-104.48068340998161, 50.569894188427355], [-104.4805885915928, 50.56952511155042], [-104.48057058828829, 50.562177503789755], [-104.48060201495758, 50.54261729147136], [-104.4806018923088, 50.54256524343516], [-104.48055960149668, 50.518209305890316], [-104.4805698838645, 50.51341589415466], [-104.48053690729247, 50.51257040056653], [-104.48053950202394, 50.50975549818072], [-104.48055439605538, 50.509683590568585], [-104.48062050378662, 50.504944386574735], [-104.48062299987762, 50.504719609748996], [-104.48062526478503, 50.50331894387645], [-104.48059597977634, 50.50002187197199], [-104.48059405098635, 50.499868005177646], [-104.48053570309322, 50.48439410032885], [-104.48053538382281, 50.47541870023151], [-104.48055061395127, 50.47017558529962], [-104.48054608917788, 50.45514759133733], [-104.48053831502656, 50.448141704595905], [-104.48054251621495, 50.44781400060688], [-104.48054614397645, 50.44753441401589], [-104.4805769023471, 50.447186893432075], [-104.48046266677203, 50.44257793680843], [-104.48021845697215, 50.433594388109604], [-104.48020269177574, 50.43301436083473], [-104.48051319158353, 50.42599079898551], [-104.48049050342878, 50.398461612375144], [-104.48049012864458, 50.39845989605334], [-104.480523760895, 50.39724718553506], [-104.4805237427761, 50.39723454699362], [-104.480521859634, 50.39688795525927], [-104.48048540652073, 50.396844865829316], [-104.4804949787578, 50.3967861994024], [-104.48048788994832, 50.39675919476655], [-104.48048269678662, 50.39673939946668], [-104.48048683177878, 50.396053787939344], [-104.48048706359005, 50.3960110164045], [-104.48048919573137, 50.396006397243106], [-104.480507186423, 50.39050240703144], [-104.48050979273202, 50.390259610179484], [-104.48049521590666, 50.385160188318025], [-104.48056310981003, 50.38280418720191], [-104.48048751477499, 50.37813620239846], [-104.48047442271817, 50.367748605863916], [-104.48035648448725, 50.33862689927787], [-104.48030760853045, 50.32894060107716], [-104.48018239055479, 50.30950479167247], [-104.49682418985348, 50.309524090933486], [-104.49999792048304, 50.3095468100316], [-104.50317170579801, 50.3095514119581], [-104.52610531638186, 50.30955720371158], [-104.54908111186096, 50.30955858780128], [-104.5830552715621, 50.309561538042196], [-104.58360089835499, 50.30956149844983], [-104.59493429635661, 50.309556506470976], [-104.614539518897, 50.30956020469366], [-104.61798050262732, 50.30952658825331], [-104.64089991406875, 50.30954569977329], [-104.6637351987695, 50.30954200996277], [-104.68672501099513, 50.309534293773105], [-104.69850781314177, 50.30952948743988], [-104.73256419218379, 50.30950489532542], [-104.75549771242208, 50.309510386447855], [-104.77836100183862, 50.30950228930922], [-104.78406281155648, 50.30951301079304], [-104.80129439580395, 50.30952571120679], [-104.82424199891595, 50.30952670087003], [-104.87008099567933, 50.30950600194922], [-104.89301449595503, 50.30949339325352], [-104.89302611224542, 50.316832206950174], [-104.89290699406226, 50.33861440033506], [-104.8935773179952, 50.34181498357914], [-104.89354761201416, 50.34283776278532], [-104.89324564623745, 50.353235582395754], [-104.89292058587044, 50.36442316171257], [-104.89299620466143, 50.36769950571377], [-104.89298971785563, 50.38935580277224], [-104.89298800335335, 50.39632569188658], [-104.89300160144623, 50.396541597083775], [-104.8930008897109, 50.39686530439187], [-104.89298326764708, 50.397708532689585], [-104.8930053290933, 50.39942839391484], [-104.89301671623906, 50.40109382996733], [-104.8930174256864, 50.40120024587608], [-104.89302067515715, 50.40167377036624], [-104.8930104952622, 50.40511237284072], [-104.89302971963662, 50.40907848965312], [-104.89301706778437, 50.41470185951969], [-104.89328131236826, 50.422796855224426], [-104.89327515130623, 50.42288900031041], [-104.89306740520661, 50.4259913897928], [-104.89306121777975, 50.43260527468681], [-104.89297965306395, 50.45004334275554], [-104.89297971488678, 50.450230700950584], [-104.89296828619433, 50.45505258997638], [-104.89294961628684, 50.46957679347153], [-104.89294398705717, 50.47205889287432], [-104.89297300049945, 50.48417289208171], [-104.89297232006014, 50.484275064351905], [-104.89286658501791, 50.500063999478265], [-104.89286675805639, 50.500139843140175], [-104.8928931162339, 50.51327509584565], [-104.89282497858466, 50.54130370902595], [-104.89377749565493, 50.5423904268723], [-104.89281923082774, 50.54247600243439], [-104.89291772166108, 50.55118535258472], [-104.8929621104482, 50.55135250299429], [-104.89297440703771, 50.55216188689306], [-104.89295951030952, 50.57122748853213], [-104.89300121819697, 50.57151529930837], [-104.89308570806716, 50.571623306658296], [-104.87041986538404, 50.57162720420227], [-104.87036410265638, 50.57162720615184], [-104.8700675029674, 50.57162679358922], [-104.84449538324893, 50.572185517708746], [-104.84079745797591, 50.57226008900087], [-104.83901183728156, 50.572241797451525], [-104.83474690805191, 50.571839071271015], [-104.83468995592094, 50.57183322148811], [-104.83453083058039, 50.57181684457133], [-104.83287805210897, 50.571646626607354], [-104.83256265079322, 50.57164509571962], [-104.8242290080119, 50.57161170616515], [-104.81941350811388, 50.5716132946499], [-104.81278897781347, 50.571602903723466], [-104.80205830090101, 50.5715851002148], [-104.80128054389456, 50.571583758470844], [-104.8011262146396, 50.57158350299872], [-104.77833418909907, 50.571560288837574], [-104.77819290060314, 50.57156010849776], [-104.7780516985959, 50.57155981111883], [-104.76654025023825, 50.5715649401321], [-104.75551370280581, 50.571568594798585], [-104.75497708446187, 50.571567490986176], [-104.7437360827642, 50.57159729583967], [-104.74341131423306, 50.57160559603913], [-104.73259410904583, 50.5716261915436], [-104.7146310005918, 50.571646195546194], [-104.71211771547742, 50.57164029799684], [-104.7118173562028, 50.57163956320768], [-104.71149628796802, 50.57163881149577], [-104.70926510197802, 50.571642208519116], [-104.70877088928773, 50.57164099803832], [-104.70815094188644, 50.57164177655502], [-104.68955121225736, 50.5716633005844], [-104.68676930133704, 50.571664911327325], [-104.68563950008549, 50.57166180733085]], [[-104.68687219708127, 50.52148375522909], [-104.6868842238286, 50.514970949252806], [-104.68905079829948, 50.514956531001765], [-104.68933998036009, 50.51336988679974], [-104.70975021531878, 50.513358291530096], [-104.72100163266327, 50.51334604187565], [-104.7210786137428, 50.48421688413401], [-104.73274941562235, 50.48421209732387], [-104.75555864568493, 50.484136882681966], [-104.75546419246204, 50.47479680469353], [-104.75547214192741, 50.47452185460731], [-104.75544748770263, 50.46949602764912], [-104.75548859514977, 50.46949604214314], [-104.75556840527844, 50.46949604366981], [-104.75587808806407, 50.4694966433309], [-104.75613077533696, 50.46949714937033], [-104.7585057055544, 50.46950164397071], [-104.75911107978143, 50.46950273462151], [-104.77837770388518, 50.46953703783614], [-104.77840289993038, 50.469537023765525], [-104.77840288004904, 50.46952299930579], [-104.77838588882697, 50.45507959878592], [-104.77839806661909, 50.43439802357916], [-104.75554276956848, 50.43669053116435], [-104.7554885769603, 50.43669592871333], [-104.75547670059017, 50.43669711804195], [-104.7326836868065, 50.43898252940391], [-104.7326216820409, 50.43898854153426], [-104.73260999425565, 50.43898967691023], [-104.72149296066982, 50.4400649313125], [-104.72089515371285, 50.44012918385555], [-104.72088753523471, 50.440286965072005], [-104.72080931508576, 50.44190875145598], [-104.72079669253026, 50.4421702005454], [-104.72083287836718, 50.44226072866954], [-104.72087315693344, 50.442400935926884], [-104.72092037057892, 50.442576137367276], [-104.72093117009649, 50.44276353671301], [-104.72092945897603, 50.44295143961526], [-104.7209279584606, 50.443200337184216], [-104.72092249066114, 50.44366574356474], [-104.72092507844029, 50.443903325789044], [-104.72092427905747, 50.44429502744986], [-104.72093326280716, 50.44471104480678], [-104.72093228561835, 50.445159443979506], [-104.72093035091882, 50.445663139869154], [-104.72093686702596, 50.44658582594869], [-104.7209351682616, 50.44710003731038], [-104.7209295848146, 50.44752713769448], [-104.72093417281823, 50.44782743505852], [-104.72094178920895, 50.44868614022644], [-104.72093777572209, 50.44930622977441], [-104.72093587991326, 50.449955435017486], [-104.7209371813636, 50.45052493223788], [-104.72093206692715, 50.45119704640107], [-104.7209428751751, 50.451784334445605], [-104.72095516348706, 50.452356035689206], [-104.72096097233461, 50.453119829788065], [-104.72098325406489, 50.45359092691628], [-104.72099596915676, 50.45381722824572], [-104.72103168117488, 50.45394754838234], [-104.7210814676234, 50.454084541938634], [-104.72113479418738, 50.45421854189287], [-104.7211993673276, 50.45432634465026], [-104.72128786265735, 50.454454136304584], [-104.72141928610841, 50.45461893743538], [-104.72154606389486, 50.45476462866305], [-104.72161368094866, 50.454890143116195], [-104.72167667595964, 50.45499662364158], [-104.72171699127227, 50.455107441772476], [-104.7217173166737, 50.45510961349339], [-104.72111578449412, 50.45511058926348], [-104.7191787090144, 50.455113687136894], [-104.70969819540086, 50.45511739016288], [-104.70969054122466, 50.45076498470433], [-104.70968075650272, 50.445209250850496], [-104.70731292786945, 50.44528105712852], [-104.70729506873705, 50.44448686555571], [-104.705700644551, 50.4445499701309], [-104.7057806801821, 50.443772512901226], [-104.70396501922733, 50.443864898671784], [-104.70395605913923, 50.44339404958222], [-104.69803935630533, 50.443644399636554], [-104.69795690051726, 50.442596387843125], [-104.69794666695692, 50.442466227103175], [-104.68685505337746, 50.443576208437264], [-104.68685531794732, 50.44353769330035], [-104.68685751650571, 50.44319590436214], [-104.6868567156009, 50.4430023673267], [-104.68678811661252, 50.42597339111626], [-104.6867546974012, 50.396879507799746], [-104.68085950774775, 50.396890507928326], [-104.6678343235324, 50.39688158747541], [-104.66383530598016, 50.396878510844154], [-104.65967526796233, 50.39687396662688], [-104.65117142203286, 50.39686420723922], [-104.64952979445572, 50.3969226113276], [-104.6491186910738, 50.39693709451049], [-104.64839739330608, 50.39697549786031], [-104.64795859842972, 50.39702480550672], [-104.64740851682956, 50.3971192970534], [-104.6467680884759, 50.39729300115298], [-104.64617740604827, 50.39751908822938], [-104.64580697930364, 50.39771041223183], [-104.64537785514527, 50.397804717113466], [-104.64492872952978, 50.397880755091826], [-104.64452703271623, 50.39791675892448], [-104.64423577533032, 50.39792573869292], [-104.64384649989735, 50.39794159959608], [-104.64323820503851, 50.39793880031169], [-104.64301030455636, 50.397927199222465], [-104.64270860318945, 50.39789769436323], [-104.64230920699173, 50.39783078750729], [-104.64121180302315, 50.39763391185968], [-104.64101466726228, 50.398329400512345], [-104.64080187309587, 50.398264922798795], [-104.6407649783373, 50.39823049055275], [-104.64009199552565, 50.39792269886586], [-104.6391529124634, 50.397452097672314], [-104.6385209862625, 50.397288300137234], [-104.63797270459112, 50.397232606426414], [-104.63695968791535, 50.39722940991794], [-104.63401919455909, 50.39721120914393], [-104.63390650612034, 50.397237905955144], [-104.62939517469094, 50.39734393664672], [-104.62549776599506, 50.39761508123376], [-104.62115344411373, 50.39744804378142], [-104.61992296274315, 50.397440677695585], [-104.618313876438, 50.39742377427148], [-104.6182458967124, 50.397421275155786], [-104.61795093803967, 50.397410503252175], [-104.61787271373213, 50.39742076897892], [-104.61626305151914, 50.39742224458516], [-104.61476174422371, 50.397387492882096], [-104.61330979585719, 50.397407644257406], [-104.60778877354026, 50.39740603111387], [-104.60777387349329, 50.39712840968097], [-104.60780016094742, 50.39685498026785], [-104.60656304066194, 50.39685503139658], [-104.60573269905868, 50.396656829934734], [-104.60513595044164, 50.39651435725996], [-104.59434773292028, 50.396897634360215], [-104.58072072419479, 50.39690135380416], [-104.57217161509108, 50.396892287736364], [-104.57217232102484, 50.406191602950926], [-104.57225448834787, 50.406430551120515], [-104.57230167270353, 50.408789481157974], [-104.57221659305051, 50.40908761019209], [-104.57215519575938, 50.409653991110055], [-104.57215429438706, 50.411308799260425], [-104.57196209112357, 50.41274186195918], [-104.57196192491625, 50.412744070025965], [-104.57194578148216, 50.412939577305266], [-104.5719096314602, 50.41372348920258], [-104.57190649722435, 50.41379128323741], [-104.57190211019409, 50.41388687447526], [-104.57189169493763, 50.41411230614604], [-104.57184450608794, 50.41513595985089], [-104.5708823309071, 50.41439938284818], [-104.57060372810089, 50.41418615059575], [-104.56982112932573, 50.41392429905152], [-104.5697310651072, 50.41389416609328], [-104.56848704285125, 50.41379132743086], [-104.56737149582905, 50.41331345253218], [-104.56655053655253, 50.41288554435841], [-104.56575375498561, 50.41276241043308], [-104.5641657704644, 50.41257770660978], [-104.56406794437446, 50.41256261415044], [-104.56271082614327, 50.412978939652774], [-104.56158396014257, 50.41332449262323], [-104.5597486579745, 50.41482348492858], [-104.55968314679545, 50.41486008564578], [-104.55928536241892, 50.414821343808306], [-104.55891686326093, 50.41459454520336], [-104.558460250511, 50.41415953526959], [-104.55749025853825, 50.41322063944259], [-104.55700777250166, 50.41314697239807], [-104.55698541950201, 50.413133396218335], [-104.55694802780243, 50.41313964998845], [-104.55533084725852, 50.41333620466268], [-104.55527681438102, 50.41334523983281], [-104.55509369763405, 50.413415496613325], [-104.55507105337655, 50.413424191010236], [-104.55439126101582, 50.41368486933745], [-104.55433181693918, 50.41377257753544], [-104.55431368469111, 50.413799313218234], [-104.55416190587754, 50.41426964450145], [-104.5541732606263, 50.414652414204106], [-104.55387321750804, 50.41491071237829], [-104.5527456145798, 50.415434481389475], [-104.55190358312089, 50.4163329871773], [-104.55143957955997, 50.41669174217896], [-104.55121816422051, 50.416777841556254], [-104.55104879092964, 50.41683543446332], [-104.55095575964297, 50.41686704698521], [-104.55071093794022, 50.41690782860764], [-104.55034564545487, 50.41685436918712], [-104.55017097310193, 50.416739704837205], [-104.55007595306618, 50.416575109565485], [-104.55025572489882, 50.415981683175765], [-104.55013889210154, 50.41586869174146], [-104.54979950504652, 50.41584418270114], [-104.5497557299135, 50.415812534028575], [-104.54925310122131, 50.41606978726456], [-104.54925293714231, 50.41246969856352], [-104.54826689930533, 50.41215734135254], [-104.54790824010051, 50.41215325766763], [-104.54629077936097, 50.412134697281274], [-104.54594353213913, 50.41213071382552], [-104.54584817355844, 50.412129642302105], [-104.54302086109988, 50.412180565955516], [-104.54228183890724, 50.41214307647914], [-104.5416849411732, 50.41211284470676], [-104.54165969244058, 50.41211238887922], [-104.54165633226465, 50.41211232201763], [-104.54132369321403, 50.412106542722725], [-104.5384045898492, 50.41205562246431], [-104.53748926845311, 50.412039631675725], [-104.53690050501591, 50.412028578862454], [-104.53429321405106, 50.41197961911941], [-104.53428371208985, 50.411979422200886], [-104.53386776686204, 50.41197414215637], [-104.53036695090222, 50.41192960204536], [-104.52686016512979, 50.41206253184969], [-104.52627991535392, 50.41206388442609], [-104.5262962097302, 50.41002790020737], [-104.52634191098097, 50.404311793997884], [-104.52622616515474, 50.40420673798713], [-104.52614357549419, 50.40415985893278], [-104.52610798537053, 50.4041907336883], [-104.52587366127129, 50.40416765482385], [-104.52560038547668, 50.404221345300286], [-104.52518117763476, 50.404444560086546], [-104.52448628348453, 50.405014243937664], [-104.5242005680871, 50.40519714789721], [-104.52356919514997, 50.405733245221775], [-104.52389577524224, 50.4057840552701], [-104.52396307995205, 50.405887244941475], [-104.52394636278775, 50.40599844515897], [-104.52377806110374, 50.40613355390295], [-104.52357386693727, 50.40611664678749], [-104.52323097314807, 50.40587555416001], [-104.52306767374354, 50.40609235394388], [-104.5230691713038, 50.40622014450522], [-104.52322487034758, 50.40651583738992], [-104.52320818285044, 50.40662713896125], [-104.52310766968375, 50.40674655657583], [-104.52290076565438, 50.40683954299267], [-104.5228015649647, 50.40690395216115], [-104.5226641878448, 50.407109140098996], [-104.52254330095795, 50.40720305179191], [-104.52218766069745, 50.40739274634386], [-104.52199736327458, 50.407374439569395], [-104.52182417586917, 50.40694334810803], [-104.521731887092, 50.406915757202334], [-104.52160385941448, 50.40691884736591], [-104.5215523692127, 50.40712495060002], [-104.52134137535546, 50.40720015426485], [-104.52115668594475, 50.407144748735284], [-104.52088786158676, 50.40691475418974], [-104.5206327853308, 50.40698504769102], [-104.52034489378505, 50.40715905207052], [-104.52023748521223, 50.407370435628145], [-104.52023639439115, 50.407608157253634], [-104.52015618417549, 50.40775303284947], [-104.51976697940208, 50.4079824414636], [-104.51938468962439, 50.408119849498455], [-104.51906936116653, 50.408177645115046], [-104.51844819708477, 50.40857565813704], [-104.5180205006974, 50.40876305364411], [-104.5176214619674, 50.40901165562171], [-104.51717639569826, 50.40924645587538], [-104.5164735752928, 50.409844244680194], [-104.51625909853792, 50.40996545071085], [-104.51549827863542, 50.41055963786179], [-104.51449089388535, 50.411442638317894], [-104.51418468880483, 50.411600040311825], [-104.51324317548995, 50.41197404501637], [-104.51303147935994, 50.412168054504946], [-104.51319739853149, 50.41232574618976], [-104.51327940037952, 50.4124915557661], [-104.51330128252908, 50.41264474572236], [-104.51313642409433, 50.412887695081636], [-104.51056318892898, 50.4116595074108], [-104.50999067091249, 50.41169024451995], [-104.50341492417807, 50.41204325020372], [-104.50341600022517, 50.4114314037846], [-104.50363430165876, 50.410739804295304], [-104.50386321113601, 50.41039010649153], [-104.50420481688849, 50.41002280033877], [-104.50498539914683, 50.40938759210624], [-104.50505648928612, 50.40931589129641], [-104.50526968446212, 50.4091189978941], [-104.50000479693163, 50.40658730125628], [-104.49873061679199, 50.40597929017755], [-104.4987157710649, 50.405972192188834], [-104.49871398277, 50.40597344935406], [-104.49860649505884, 50.40604906165694], [-104.49846326467339, 50.406149893034474], [-104.49846151596996, 50.40615114510194], [-104.49452489195014, 50.40892294885772], [-104.49400740105405, 50.40936265235361], [-104.49364258388698, 50.4097690566512], [-104.49315771687824, 50.41048855628109], [-104.49292712270534, 50.410993561475664], [-104.49282149735328, 50.41134776050989], [-104.49271688025078, 50.41178634690003], [-104.49266821072936, 50.416223464386974], [-104.49267198536336, 50.41677804987193], [-104.49268271478077, 50.41835455210486], [-104.49267140676311, 50.42023056837202], [-104.49265760610314, 50.421071346566194], [-104.49256279358066, 50.42187794706821], [-104.4924378975865, 50.42255235094806], [-104.49236889559121, 50.423047346076686], [-104.49237687432378, 50.42599818856331], [-104.49237688773327, 50.42600595675435], [-104.49241150509572, 50.438770546024955], [-104.49240969750815, 50.4391517577819], [-104.4924085238608, 50.43938124983523], [-104.49239260414147, 50.44680296417256], [-104.49239262702818, 50.44684376273685], [-104.49239288288007, 50.44707452583435], [-104.49634620416664, 50.446909349870424], [-104.49831100863749, 50.44690568090552], [-104.49841943650905, 50.446905471430156], [-104.49928531016309, 50.446810400471406], [-104.49993122459406, 50.44668706244258], [-104.5012766808831, 50.446285863232546], [-104.50339907804968, 50.44557556172098], [-104.50340457807083, 50.4475220927732], [-104.50340151466462, 50.447818802537405], [-104.50339890595558, 50.4494106986444], [-104.50339511955445, 50.44977040724293], [-104.50339359762927, 50.4512633130816], [-104.50339978745431, 50.45201879309253], [-104.5033962066654, 50.455049512017155], [-104.50341625619372, 50.47194395803685], [-104.50342802132697, 50.47194186681964], [-104.52634199429339, 50.46786917081032], [-104.52633800953528, 50.46832050398186], [-104.52637731261157, 50.484140005475446], [-104.53559571297984, 50.48415009298013], [-104.53803618254946, 50.48423126092856], [-104.53779589360026, 50.49908103220413], [-104.53981608151696, 50.49994869272807], [-104.54360570580357, 50.49994630535151], [-104.54958539156392, 50.499942409449616], [-104.55651843686081, 50.49934506358233], [-104.55676515723277, 50.49932381146842], [-104.57164047714502, 50.49907714407958], [-104.59512885000632, 50.49892015382999], [-104.59513028242576, 50.49957119708057], [-104.59512609253706, 50.500065794606975], [-104.59511871846362, 50.5061532357381], [-104.61165215073432, 50.50604796037005], [-104.61192453997674, 50.506047310993196], [-104.61568774363792, 50.506043491897266], [-104.61652972555575, 50.50604337992194], [-104.61743668329125, 50.50612811596602], [-104.61766559668645, 50.506149504647944], [-104.6176684097697, 50.50520018305628], [-104.6176717478479, 50.50405652545735], [-104.61767324367673, 50.50354602495535], [-104.61767368822196, 50.503397609067015], [-104.61759749509214, 50.50236310005841], [-104.6174179386375, 50.50182649061547], [-104.61730829573361, 50.50149881125858], [-104.61700209637226, 50.50100320581728], [-104.61657453254232, 50.50044505236668], [-104.61630450194379, 50.50009251132533], [-104.61627651323236, 50.500065486689984], [-104.61594097718461, 50.49970459325784], [-104.61536828303012, 50.49903721255549], [-104.61519708508672, 50.49873596224269], [-104.61613132865406, 50.49859439407339], [-104.61813380967297, 50.498635905831726], [-104.61847588002625, 50.499064865292844], [-104.6185790741154, 50.49914739853183], [-104.62059971729256, 50.50076310017333], [-104.62162378225926, 50.50141399283414], [-104.62819598191129, 50.504843604204865], [-104.63060116767363, 50.506088287152714], [-104.63427509588684, 50.507989312399644], [-104.6352898993512, 50.508409410362155], [-104.63582441680906, 50.50859100326396], [-104.63640179530749, 50.5087006884697], [-104.63726191102234, 50.50872130323641], [-104.63805240077988, 50.50862490240388], [-104.63977699589054, 50.508090600957566], [-104.64008757955021, 50.508046593281996], [-104.64024090253727, 50.50805144023203], [-104.64072198831572, 50.50806661218414], [-104.64080641370819, 50.50810280722896], [-104.64093300414854, 50.508148209920186], [-104.64103430453301, 50.507797697270995], [-104.64091518313577, 50.50862479120427], [-104.6409125850213, 50.5089664973384], [-104.64100880471695, 50.50929948732507], [-104.64165121940924, 50.51013790101301], [-104.64227698751053, 50.51087399130543], [-104.6432943805673, 50.512046770987595], [-104.64335611217685, 50.51211788565903], [-104.64391661267919, 50.51270790912783], [-104.64467421576485, 50.51324078775811], [-104.64472243792116, 50.513271270967586], [-104.64474920608764, 50.51326473751027], [-104.64497413981381, 50.51325738184554], [-104.64797727236218, 50.5145111814851], [-104.65004535660802, 50.51576507570329], [-104.65215016631235, 50.516940949221755], [-104.65454319955212, 50.51796547121064], [-104.65652169573288, 50.519124200927855], [-104.65846430265125, 50.52040965298767], [-104.65998771575909, 50.52165140876767], [-104.66414995046081, 50.52162278707122], [-104.68687219708127, 50.52148375522909]]]]}}, {"type": "Feature", "properties": {"ct_uid": "7050002.01", "ct_name": "0002.01", "pb_connections": 1, "children_0_14": 0.0, "children_0_4": 160.0, "replacements": 0, "unreplaced": 1, "renter_pct": 38.386308, "indigenous_pct": 3.125, "low_income_pct": 8.3, "median_income": 0.0, "realized_qaly": 0.03, "prevented_qaly": 0.0, "atrisk_qaly": 0.13, "realized_npv": 5391, "prevented_npv": 0, "atrisk_npv": 23252, "total_burden_npv": 28643, "total_earnings_loss": 11891, "total_healthcare": 3732, "total_education": 2382, "total_tax_loss": 1787, "delay_cost_npv": 1500, "delay_children": 0.0, "delay_qaly": 0.01, "replacement_rate": 0.0}, "geometry": {"type": "Polygon", "coordinates": [[[-104.6179365062279, 50.4028319086927], [-104.61793830251128, 50.40061299094996], [-104.61795093803967, 50.397410503252175], [-104.6182458967124, 50.397421275155786], [-104.618313876438, 50.39742377427148], [-104.61992296274315, 50.397440677695585], [-104.62115344411373, 50.39744804378142], [-104.62549776599506, 50.39761508123376], [-104.62939517469094, 50.39734393664672], [-104.63390650612034, 50.397237905955144], [-104.63401919455909, 50.39721120914393], [-104.63695968791535, 50.39722940991794], [-104.63797270459112, 50.397232606426414], [-104.6385209862625, 50.397288300137234], [-104.6391529124634, 50.397452097672314], [-104.64009199552565, 50.39792269886586], [-104.6407649783373, 50.39823049055275], [-104.64080187309587, 50.398264922798795], [-104.64101466726228, 50.398329400512345], [-104.64121180302315, 50.39763391185968], [-104.64230920699173, 50.39783078750729], [-104.64270860318945, 50.39789769436323], [-104.64301030455636, 50.397927199222465], [-104.64323820503851, 50.39793880031169], [-104.64384649989735, 50.39794159959608], [-104.64399410052448, 50.39919981193709], [-104.64406271775543, 50.400797806606676], [-104.64408001247921, 50.40202029363896], [-104.64408779076527, 50.405388107693405], [-104.64408838580165, 50.40551601015904], [-104.64374960980099, 50.405514091122164], [-104.6409350985624, 50.40551579879139], [-104.63692451738811, 50.4055122970685], [-104.6338568083674, 50.405511691989304], [-104.63267481872423, 50.40550800028694], [-104.62967748065505, 50.40548950099502], [-104.62880518545947, 50.40547770411609], [-104.62855210361181, 50.405449892681176], [-104.62725839399785, 50.40532889067061], [-104.62554309822328, 50.40513450043227], [-104.62114221153858, 50.404679611077725], [-104.62003506224144, 50.404624790583185], [-104.61997470579337, 50.404621801427105], [-104.61898972127436, 50.404618603825774], [-104.61855338800588, 50.40462610902026], [-104.61855031413846, 50.40462616572037], [-104.61820148443448, 50.40463400309568], [-104.61793418027557, 50.40463309605098], [-104.61793519469775, 50.40449819789242], [-104.61793597014052, 50.40350393657161], [-104.6179365062279, 50.4028319086927]]]}}]}