{"type": "FeatureCollection", "features": [{"type": "Feature", "geometry": {"type": "Polygon", "coordinates": [[[-104.642881202, 50.447919243], [-104.643553085, 50.447846456], [-104.65097134, 50.447215583], [-104.652483847, 50.445971441], [-104.652855613, 50.445646393], [-104.65322538, 50.445015331], [-104.653199169, 50.444694491], [-104.652867351, 50.444151324], [-104.652427597, 50.443834481], [-104.651702119, 50.443570743], [-104.650798207, 50.443487304], [-104.649184559, 50.443491118], [-104.648872403, 50.443465367], [-104.648673281, 50.443410265], [-104.648446715, 50.443234785], [-104.648310579, 50.442819219], [-104.648249568, 50.442526269], [-104.648036605, 50.442285421], [-104.647635441, 50.442254172], [-104.647042775, 50.442393572], [-104.64630289, 50.442723866], [-104.645751317, 50.443000122], [-104.645526174, 50.443102302], [-104.645233362, 50.443192484], [-104.645132636, 50.443201051], [-104.644732081, 50.44301157], [-104.644596119, 50.442775322], [-104.644495329, 50.44245909], [-104.644551019, 50.442033452], [-104.64474874, 50.441682474], [-104.645011103, 50.441286769], [-104.645145494, 50.440923273], [-104.645095813, 50.440555665], [-104.644847699, 50.440151943], [-104.644566133, 50.43989487], [-104.644259027, 50.439774419], [-104.643872849, 50.439622953], [-104.643614866, 50.439518741], [-104.63956964, 50.440922722], [-104.638093299, 50.440963093], [-104.637131128, 50.440753239], [-104.63335521, 50.439167525], [-104.631208279, 50.439517044], [-104.629447449, 50.439388923], [-104.628903289, 50.439066926], [-104.628537324, 50.43883741], [-104.627986769, 50.43717689], [-104.627700516, 50.436357033], [-104.627008177, 50.435653316], [-104.625874907, 50.435492141], [-104.62280774, 50.435639725], [-104.620556237, 50.436291754], [-104.61807812, 50.436302586], [-104.618102235, 50.440777588], [-104.618079871, 50.447231581], [-104.618107308, 50.451611702], [-104.631109305, 50.449260218], [-104.642881202, 50.447919243]]]}, "properties": {"name": "Cathedral", "replaced": 25, "renter_pct": 30.4, "indigenous_pct": 10.3, "lead_share_pct": 6.3, "replacement_rate_pct": 8.3, "median_after_tax_income": 71889, "total_water_connections": 4406, "current_lead_connections": 277, "baseline_lead_connections": 604, "estimated_children_affected": 392}}, {"type": "Feature", "geometry": {"type": "Polygon", "coordinates": [[[-104.618115249, 50.469758003], [-104.631172629, 50.469733474], [-104.63548369, 50.469717982], [-104.635520732, 50.469717979], [-104.638270837, 50.469742738], [-104.641741675, 50.469689679], [-104.641744412, 50.46967734], [-104.641765407, 50.469593309], [-104.641788696, 50.469509525], [-104.641814299, 50.469422444], [-104.641842129, 50.469342799], [-104.641977719, 50.468954369], [-104.642005004, 50.468875869], [-104.642026248, 50.468820295], [-104.642049008, 50.468764966], [-104.642073278, 50.468709899], [-104.64209905, 50.46865511], [-104.642126316, 50.468600617], [-104.642155067, 50.468546436], [-104.642185296, 50.468492584], [-104.642216993, 50.468439076], [-104.642250148, 50.46838593], [-104.642284751, 50.468333161], [-104.643062396, 50.467175701], [-104.643096227, 50.467112993], [-104.643451892, 50.466453738], [-104.643462796, 50.466438542], [-104.643471262, 50.466426111], [-104.643479385, 50.466413587], [-104.643487165, 50.466400975], [-104.643494599, 50.466388278], [-104.643501685, 50.466375499], [-104.643508421, 50.466362645], [-104.643514803, 50.466349716], [-104.643520832, 50.466336719], [-104.643526504, 50.466323657], [-104.643531818, 50.466310534], [-104.643536772, 50.466297353], [-104.643541365, 50.466284119], [-104.643545596, 50.466270836], [-104.643549462, 50.466257508], [-104.643552964, 50.466244138], [-104.643556099, 50.466230732], [-104.643558868, 50.466217293], [-104.643561269, 50.466203825], [-104.643563301, 50.466190333], [-104.643564964, 50.46617682], [-104.643566257, 50.46616329], [-104.643567347, 50.466147297], [-104.64356754, 50.466136197], [-104.643567776, 50.466122643], [-104.643567912, 50.466114798], [-104.643567115, 50.462937449], [-104.643448036, 50.45838643], [-104.643447906, 50.45519957], [-104.643394253, 50.453459635], [-104.643377143, 50.453076752], [-104.643350662, 50.452610904], [-104.643255693, 50.451947062], [-104.643090938, 50.451257473], [-104.642983975, 50.450861632], [-104.642887571, 50.450556762], [-104.64280338, 50.450122439], [-104.642743226, 50.449662903], [-104.642737763, 50.449161806], [-104.642759808, 50.448865911], [-104.642789138, 50.448472241], [-104.642866963, 50.448018027], [-104.642881202, 50.447919243], [-104.631109305, 50.449260218], [-104.618107308, 50.451611702], [-104.618107799, 50.45204629], [-104.618109374, 50.453440275], [-104.618102853, 50.454068238], [-104.618103967, 50.458296702], [-104.618108609, 50.462945947], [-104.618155757, 50.462900386], [-104.618114256, 50.469129476], [-104.618115249, 50.469758003]]]}, "properties": {"name": "North Central", "replaced": 20, "renter_pct": 30.4, "indigenous_pct": 10.3, "lead_share_pct": 3.4, "replacement_rate_pct": 7.7, "median_after_tax_income": 71889, "total_water_connections": 7134, "current_lead_connections": 240, "baseline_lead_connections": 520, "estimated_children_affected": 339}}, {"type": "Feature", "geometry": {"type": "Polygon", "coordinates": [[[-104.583746395, 50.447181679], [-104.585080563, 50.447180958], [-104.58651725, 50.447180179], [-104.587953945, 50.447180964], [-104.589390607, 50.447181731], [-104.590841337, 50.447182372], [-104.592292066, 50.447182996], [-104.593742831, 50.447179106], [-104.595193597, 50.447175198], [-104.595179662, 50.445511374], [-104.595178735, 50.443973503], [-104.595163956, 50.442408603], [-104.59516908, 50.440862635], [-104.59524666, 50.43932416], [-104.59523218, 50.437723286], [-104.595226555, 50.436733993], [-104.595259467, 50.434530725], [-104.595216438, 50.434107886], [-104.592320266, 50.434097719], [-104.590855977, 50.434083567], [-104.589433767, 50.434087514], [-104.588025715, 50.434082501], [-104.58654727, 50.434077238], [-104.585987933, 50.433760106], [-104.585878444, 50.433698179], [-104.585778825, 50.433648377], [-104.585677999, 50.43360098], [-104.585457796, 50.433502162], [-104.58519305, 50.433397346], [-104.584974661, 50.433320899], [-104.584822311, 50.433279631], [-104.584750896, 50.433266423], [-104.584643584, 50.433252368], [-104.584502479, 50.4332381], [-104.584355287, 50.433227768], [-104.58421105, 50.433217446], [-104.58404844, 50.433214972], [-104.583626045, 50.433212374], [-104.583628099, 50.434579379], [-104.583620107, 50.435487684], [-104.58362849, 50.43613524], [-104.583614482, 50.437727022], [-104.582178103, 50.437730851], [-104.58075595, 50.437745516], [-104.579720957, 50.437746404], [-104.579285239, 50.437792725], [-104.578790462, 50.437930167], [-104.575584162, 50.439211718], [-104.572328242, 50.440512938], [-104.572313726, 50.441558361], [-104.568776003, 50.439860727], [-104.565494703, 50.438160487], [-104.564648884, 50.437712585], [-104.563522482, 50.437163548], [-104.563010271, 50.437719161], [-104.562578526, 50.438346007], [-104.562325633, 50.438843898], [-104.562141645, 50.439353972], [-104.562027964, 50.439872345], [-104.561985458, 50.440395072], [-104.56195463, 50.440682716], [-104.562039744, 50.441173869], [-104.562319733, 50.442233919], [-104.562569132, 50.442867177], [-104.562717351, 50.443111549], [-104.562989487, 50.443725804], [-104.563226158, 50.444421197], [-104.563405621, 50.444942469], [-104.563524707, 50.445838361], [-104.563542149, 50.446459047], [-104.563559183, 50.447124062], [-104.572257398, 50.44718659], [-104.58220744, 50.44718257], [-104.583746395, 50.447181679]]]}, "properties": {"name": "Al Ritchie", "replaced": 2, "renter_pct": 30.4, "indigenous_pct": 10.3, "lead_share_pct": 4.8, "replacement_rate_pct": 0.9, "median_after_tax_income": 71889, "total_water_connections": 4381, "current_lead_connections": 210, "baseline_lead_connections": 424, "estimated_children_affected": 297}}, {"type": "Feature", "geometry": {"type": "Polygon", "coordinates": [[[-104.606433103, 50.447231015], [-104.60643315, 50.447177374], [-104.606444048, 50.44078551], [-104.604923266, 50.44076949], [-104.603486796, 50.440773587], [-104.602036242, 50.440772992], [-104.600571683, 50.440772594], [-104.599149356, 50.440767682], [-104.59771287, 50.440771694], [-104.596262302, 50.440775724], [-104.59516908, 50.440862635], [-104.595163956, 50.44240861], [-104.595178735, 50.443973503], [-104.595179662, 50.445511374], [-104.595193597, 50.447175198], [-104.593742831, 50.447179106], [-104.592292066, 50.447182996], [-104.590841337, 50.447182372], [-104.589390607, 50.447181731], [-104.587953945, 50.447180964], [-104.58651725, 50.447180179], [-104.585080534, 50.447180958], [-104.583746395, 50.447181679], [-104.584026039, 50.447315697], [-104.584148015, 50.447369081], [-104.584275796, 50.447416607], [-104.584408695, 50.447458018], [-104.584545994, 50.447493091], [-104.584686953, 50.447521636], [-104.584830813, 50.4475435], [-104.584976798, 50.447558565], [-104.58508613, 50.447567684], [-104.586088321, 50.447651266], [-104.5861915, 50.447678025], [-104.586290553, 50.447709041], [-104.586409208, 50.44775389], [-104.586477303, 50.447783911], [-104.595195145, 50.451932732], [-104.595203297, 50.455609862], [-104.606427481, 50.453664336], [-104.606433103, 50.447231015]]]}, "properties": {"name": "Heritage", "replaced": 7, "renter_pct": 30.4, "indigenous_pct": 10.3, "lead_share_pct": 5.2, "replacement_rate_pct": 3.8, "median_after_tax_income": 71889, "total_water_connections": 3380, "current_lead_connections": 177, "baseline_lead_connections": 368, "estimated_children_affected": 250}}, {"type": "Feature", "geometry": {"type": "Polygon", "coordinates": [[[-104.618321533, 50.436030836], [-104.618339331, 50.436026607], [-104.618363719, 50.436030431], [-104.618397066, 50.436039854], [-104.618420596, 50.436050629], [-104.618430097, 50.436052959], [-104.618435337, 50.436052624], [-104.618452919, 50.436050346], [-104.618492799, 50.436042287], [-104.618512356, 50.436039563], [-104.618536641, 50.436039741], [-104.618579409, 50.436040657], [-104.618635519, 50.436040669], [-104.618747915, 50.436035416], [-104.618833027, 50.436032551], [-104.618873165, 50.436029977], [-104.618903333, 50.436028315], [-104.618929581, 50.4360293], [-104.618973657, 50.436031973], [-104.619014183, 50.436032081], [-104.619043949, 50.436032422], [-104.619073472, 50.43603514], [-104.619114226, 50.436039436], [-104.619154789, 50.436041579], [-104.619184867, 50.436041895], [-104.619221703, 50.436038704], [-104.619255672, 50.436035976], [-104.619295789, 50.436036109], [-104.619326718, 50.436036539], [-104.619396996, 50.43603803], [-104.619536784, 50.436042459], [-104.619560486, 50.436041464], [-104.619607216, 50.436037789], [-104.619678223, 50.43603597], [-104.619719559, 50.436031873], [-104.619748568, 50.436029756], [-104.619776585, 50.436031161], [-104.61981845, 50.436033791], [-104.619888669, 50.436035825], [-104.619927956, 50.436039592], [-104.619959399, 50.436042134], [-104.619985111, 50.436040089], [-104.620016262, 50.436037121], [-104.62006349, 50.436036575], [-104.620085818, 50.436037124], [-104.620155777, 50.436040767], [-104.62022678, 50.436044818], [-104.620250232, 50.436045597], [-104.620297088, 50.436045918], [-104.620333219, 50.436045651], [-104.620367549, 50.436045013], [-104.620437728, 50.436042316], [-104.620494499, 50.436042124], [-104.620550939, 50.436040721], [-104.620608283, 50.436038968], [-104.620634014, 50.436037416], [-104.620676208, 50.436033134], [-104.620713868, 50.436028225], [-104.620744218, 50.436023368], [-104.620769304, 50.436018754], [-104.620804859, 50.436011767], [-104.620870809, 50.435997197], [-104.62089953, 50.435993027], [-104.620933045, 50.435988407], [-104.620973278, 50.435980222], [-104.620998682, 50.43597369], [-104.621033208, 50.435963499], [-104.621057744, 50.435956021], [-104.621112367, 50.435939058], [-104.621179113, 50.435918252], [-104.621248429, 50.435899261], [-104.621270849, 50.4358917], [-104.621302997, 50.43588047], [-104.621328804, 50.4358729], [-104.621362399, 50.435864719], [-104.621397988, 50.435861783], [-104.621425448, 50.43585844], [-104.621453122, 50.435849465], [-104.621487468, 50.435838243], [-104.621550116, 50.435818459], [-104.621565548, 50.435813869], [-104.621610817, 50.435801252], [-104.621647321, 50.435792332], [-104.621685831, 50.435785077], [-104.621722068, 50.435782885], [-104.621754465, 50.435780547], [-104.621820115, 50.435767508], [-104.621884327, 50.435755703], [-104.621943074, 50.435744527], [-104.622009412, 50.4357327], [-104.622069715, 50.435720582], [-104.622124081, 50.435712345], [-104.622189512, 50.435698026], [-104.622259681, 50.435683107], [-104.622294387, 50.435679051], [-104.622319371, 50.435675279], [-104.622360008, 50.43566318], [-104.622642797, 50.435556143], [-104.622660161, 50.435547872], [-104.622679153, 50.435539152], [-104.622701561, 50.435532154], [-104.62273298, 50.435523389], [-104.622765517, 50.435508669], [-104.622800114, 50.435492826], [-104.62282981, 50.435483028], [-104.622860713, 50.435472889], [-104.622889295, 50.435458892], [-104.622915063, 50.435446659], [-104.622943739, 50.435438279], [-104.622982607, 50.435430648], [-104.623022775, 50.43542605], [-104.62304966, 50.43542242], [-104.623073151, 50.435417392], [-104.623105434, 50.435410356], [-104.623148964, 50.435401742], [-104.623166892, 50.435398781], [-104.623194631, 50.435397979], [-104.623238114, 50.43539848], [-104.623276827, 50.435395452], [-104.623308685, 50.435393089], [-104.623341292, 50.435392436], [-104.623369941, 50.435391739], [-104.623398024, 50.435389191], [-104.623436395, 50.435383645], [-104.623468124, 50.435377189], [-104.623503121, 50.435369948], [-104.623546666, 50.435363443], [-104.623575763, 50.435360879], [-104.623611608, 50.435360735], [-104.62365325, 50.435360847], [-104.623680863, 50.435359593], [-104.62371539, 50.435357598], [-104.623758364, 50.4353524], [-104.623785724, 50.435350022], [-104.623810426, 50.435351602], [-104.623847949, 50.435354797], [-104.623891327, 50.435356533], [-104.6239097, 50.435356958], [-104.62393552, 50.435356803], [-104.623979366, 50.435355328], [-104.624023389, 50.435351405], [-104.624050018, 50.435349834], [-104.62411297, 50.435350888], [-104.624174292, 50.43535187], [-104.624236837, 50.435353707], [-104.624265549, 50.435353948], [-104.624296247, 50.435353419], [-104.624366578, 50.435349695], [-104.624491328, 50.435346471], [-104.624534145, 50.43534475], [-104.624560765, 50.435342692], [-104.62462158, 50.435333974], [-104.624683975, 50.435326911], [-104.624715277, 50.435323136], [-104.624747048, 50.435319072], [-104.624817892, 50.435306011], [-104.62488017, 50.435298892], [-104.624941949, 50.435292159], [-104.624986259, 50.435287123], [-104.625005481, 50.435284684], [-104.625021087, 50.435282198], [-104.625065238, 50.435273766], [-104.625128176, 50.435260798], [-104.625152804, 50.435256219], [-104.625187768, 50.43525003], [-104.62526974, 50.435236649], [-104.625297365, 50.435231528], [-104.625338417, 50.435223704], [-104.625379564, 50.435217298], [-104.625402415, 50.435215273], [-104.625431589, 50.435215613], [-104.625473566, 50.435216848], [-104.625520634, 50.435215819], [-104.625542742, 50.435215613], [-104.625614558, 50.435216733], [-104.625684596, 50.435217721], [-104.625710654, 50.435218263], [-104.625755715, 50.435219639], [-104.625788624, 50.4352213], [-104.625826596, 50.435224382], [-104.625897403, 50.435233359], [-104.62596739, 50.435239184], [-104.626037625, 50.435245839], [-104.62610027, 50.435249369], [-104.626170026, 50.435256056], [-104.626194338, 50.435257173], [-104.626231494, 50.435258347], [-104.626301762, 50.435259638], [-104.626338213, 50.435261192], [-104.626364431, 50.435262935], [-104.626426202, 50.435268015], [-104.62648857, 50.435273287], [-104.62655051, 50.435278615], [-104.626612003, 50.435282406], [-104.62667509, 50.435286969], [-104.626683967, 50.43528743], [-104.626684024, 50.435040088], [-104.626686742, 50.43489046], [-104.625358016, 50.434886168], [-104.625361895, 50.434397465], [-104.624653559, 50.434395175], [-104.624671204, 50.432173628], [-104.625387436, 50.432175943], [-104.625395472, 50.431161494], [-104.624632787, 50.431159027], [-104.62465094, 50.42887238], [-104.625380427, 50.428874739], [-104.625388421, 50.42786551], [-104.624643208, 50.427859487], [-104.624653793, 50.426525989], [-104.623944596, 50.426524521], [-104.623946769, 50.426719031], [-104.623926701, 50.426719008], [-104.62178227, 50.426712031], [-104.620334694, 50.426707299], [-104.620334025, 50.425565097], [-104.619611292, 50.425562727], [-104.619611273, 50.425043812], [-104.619002916, 50.425045107], [-104.619015976, 50.423417309], [-104.618076896, 50.423419407], [-104.618104918, 50.425047012], [-104.618091152, 50.426717514], [-104.61809214, 50.428366052], [-104.618078822, 50.430012262], [-104.618093516, 50.431676135], [-104.618080269, 50.433312935], [-104.618081607, 50.434896112], [-104.618078861, 50.436003701], [-104.618078796, 50.436030048], [-104.618321533, 50.436030836]]]}, "properties": {"name": "Old Lakeview", "replaced": 0, "renter_pct": 30.4, "indigenous_pct": 10.3, "lead_share_pct": 6.6, "replacement_rate_pct": 0.0, "median_after_tax_income": 71889, "total_water_connections": 1032, "current_lead_connections": 68, "baseline_lead_connections": 136, "estimated_children_affected": 96}}, {"type": "Feature", "geometry": {"type": "Polygon", "coordinates": [[[-104.678515723, 50.462371731], [-104.679628331, 50.461888182], [-104.679686794, 50.46185898], [-104.679738747, 50.461828104], [-104.67979067, 50.461791399], [-104.679898553, 50.461703425], [-104.680073874, 50.461538462], [-104.680103979, 50.461506785], [-104.680236711, 50.461342599], [-104.680304081, 50.461264312], [-104.680419754, 50.461082448], [-104.680506953, 50.460903266], [-104.680617684, 50.460607794], [-104.680644576, 50.460516981], [-104.680677007, 50.460344068], [-104.680683388, 50.460251107], [-104.680682403, 50.460144205], [-104.680679669, 50.460083544], [-104.680668267, 50.460015915], [-104.680647685, 50.459949215], [-104.680616946, 50.459886138], [-104.680579659, 50.459820512], [-104.680538293, 50.459765535], [-104.680473921, 50.459697428], [-104.680410268, 50.459638076], [-104.680333697, 50.459580167], [-104.680254413, 50.459527063], [-104.680034071, 50.459396974], [-104.679921947, 50.459340456], [-104.679782228, 50.459281042], [-104.679280379, 50.459097226], [-104.678664764, 50.458893356], [-104.677905069, 50.458663409], [-104.677486953, 50.458551947], [-104.677381471, 50.458527228], [-104.677023291, 50.458457721], [-104.676336231, 50.45836304], [-104.675575414, 50.458294602], [-104.674811894, 50.4582616], [-104.673811642, 50.458248255], [-104.673062302, 50.458269492], [-104.672472455, 50.458300026], [-104.671720121, 50.458350836], [-104.671102042, 50.458409604], [-104.670364808, 50.458482281], [-104.670101641, 50.458498068], [-104.669669491, 50.458505285], [-104.66953375, 50.458501777], [-104.669427403, 50.458490037], [-104.669399244, 50.458486433], [-104.669332196, 50.458475968], [-104.669217313, 50.458451537], [-104.669025912, 50.458401969], [-104.668865291, 50.458351945], [-104.668676826, 50.458286672], [-104.667963379, 50.458015578], [-104.667247074, 50.457727727], [-104.666731402, 50.457508755], [-104.666013479, 50.457167019], [-104.66592117, 50.457113159], [-104.665826623, 50.457052244], [-104.665779762, 50.457013604], [-104.665688088, 50.456938416], [-104.665563207, 50.456812176], [-104.665350493, 50.456549872], [-104.664356521, 50.455194367], [-104.663960247, 50.455194551], [-104.661136317, 50.455199391], [-104.65967122, 50.455206416], [-104.658234385, 50.455202201], [-104.656811572, 50.455207002], [-104.655346499, 50.455211661], [-104.653923752, 50.455207434], [-104.652472699, 50.455221091], [-104.651078125, 50.455216914], [-104.649613113, 50.455212508], [-104.648176204, 50.455217164], [-104.647296831, 50.4552145], [-104.646725275, 50.455212766], [-104.64530252, 50.455208435], [-104.643447906, 50.45519957], [-104.643448009, 50.458389999], [-104.643567088, 50.462941018], [-104.643567885, 50.466118368], [-104.643567749, 50.466126213], [-104.643567513, 50.466139767], [-104.64356732, 50.466150866], [-104.643566257, 50.46616329], [-104.643564964, 50.46617682], [-104.643563301, 50.466190333], [-104.643561269, 50.466203825], [-104.643558868, 50.466217293], [-104.643556099, 50.466230732], [-104.643552964, 50.466244138], [-104.643549462, 50.466257508], [-104.643545596, 50.466270836], [-104.643541365, 50.466284119], [-104.643536772, 50.466297353], [-104.643531818, 50.466310534], [-104.643526504, 50.466323657], [-104.643520832, 50.46633672], [-104.643514803, 50.466349717], [-104.643508421, 50.466362645], [-104.643501685, 50.4663755], [-104.643494599, 50.466388278], [-104.643487165, 50.466400975], [-104.643479385, 50.466413587], [-104.643471262, 50.466426111], [-104.643462796, 50.466438542], [-104.643451892, 50.466453738], [-104.643096201, 50.467116562], [-104.64306237, 50.46717927], [-104.642284724, 50.46833673], [-104.642250121, 50.468389499], [-104.642216966, 50.468442645], [-104.642185269, 50.468496153], [-104.64215504, 50.468550005], [-104.642126289, 50.468604186], [-104.642099023, 50.468658679], [-104.642073251, 50.468713468], [-104.642048981, 50.468768535], [-104.642026221, 50.468823864], [-104.642004978, 50.468879438], [-104.641977692, 50.468957938], [-104.641842129, 50.469342799], [-104.641814299, 50.469422444], [-104.641788696, 50.469509525], [-104.641765407, 50.469593309], [-104.641744412, 50.46967734], [-104.641741675, 50.469689679], [-104.641725719, 50.469761591], [-104.64170702, 50.469859024], [-104.641689017, 50.469943529], [-104.6524925, 50.469961609], [-104.663960328, 50.469979704], [-104.663961416, 50.469414329], [-104.668909271, 50.469453948], [-104.671005395, 50.469472181], [-104.687048508, 50.469566388], [-104.687037442, 50.462514738], [-104.687010257, 50.462503121], [-104.686955367, 50.462482877], [-104.686897924, 50.462465766], [-104.686838361, 50.462451916], [-104.686777111, 50.462441429], [-104.686714737, 50.462434398], [-104.686651562, 50.462430857], [-104.686588171, 50.462430843], [-104.686525023, 50.462434358], [-104.686462587, 50.462441375], [-104.686401655, 50.462450625], [-104.68633842, 50.462465655], [-104.68628096, 50.462482745], [-104.68622697, 50.462500525], [-104.686142764, 50.462524049], [-104.686045648, 50.462554513], [-104.685893397, 50.462611312], [-104.685742181, 50.462679665], [-104.685579946, 50.46276707], [-104.685478126, 50.462820647], [-104.685386292, 50.462869913], [-104.685345409, 50.462898332], [-104.685301981, 50.462932751], [-104.685271026, 50.462964635], [-104.685244982, 50.462995685], [-104.68522314, 50.463029286], [-104.685206943, 50.463059599], [-104.685199736, 50.463081952], [-104.685195793, 50.463101017], [-104.685194589, 50.463122758], [-104.685195844, 50.46314056], [-104.685199589, 50.463154837], [-104.685207457, 50.463176338], [-104.685216154, 50.463192687], [-104.685227056, 50.463208491], [-104.685240071, 50.463223627], [-104.685255105, 50.463237985], [-104.685272042, 50.463251451], [-104.685290751, 50.463263922], [-104.685311092, 50.463275305], [-104.685332908, 50.463285512], [-104.685356936, 50.463294888], [-104.685403401, 50.463318627], [-104.685446453, 50.46334486], [-104.685517657, 50.463398794], [-104.685551957, 50.463436444], [-104.68562054, 50.46352491], [-104.685694067, 50.463632538], [-104.68570248, 50.463650323], [-104.685704847, 50.463660039], [-104.685700559, 50.463672854], [-104.685689009, 50.463684361], [-104.684982587, 50.464253679], [-104.684944054, 50.464284668], [-104.684932301, 50.464295249], [-104.684926737, 50.464303076], [-104.684923836, 50.464310034], [-104.684922969, 50.464317741], [-104.684922722, 50.464324307], [-104.684923833, 50.464334692], [-104.684936423, 50.464364317], [-104.684960991, 50.464396014], [-104.684994084, 50.464432894], [-104.685033634, 50.464472129], [-104.685061336, 50.464492652], [-104.685091732, 50.464511558], [-104.685128027, 50.464530349], [-104.685158281, 50.464546438], [-104.685186224, 50.464564149], [-104.685240554, 50.464610119], [-104.685285582, 50.464671928], [-104.685319034, 50.464714787], [-104.68539688, 50.464821684], [-104.685426977, 50.464880295], [-104.685451838, 50.464940883], [-104.685478973, 50.465027108], [-104.685518679, 50.465355046], [-104.685516397, 50.465478745], [-104.685496492, 50.465621724], [-104.685441595, 50.465735353], [-104.68535515, 50.465831683], [-104.685254348, 50.465858262], [-104.685132245, 50.465855262], [-104.685023802, 50.46583863], [-104.684852682, 50.465793572], [-104.684672202, 50.465742527], [-104.684412071, 50.465678466], [-104.684094627, 50.46563339], [-104.683946255, 50.465606199], [-104.683857111, 50.465580301], [-104.683785973, 50.465534545], [-104.683710277, 50.465462647], [-104.683658334, 50.465394561], [-104.683612085, 50.465341396], [-104.683585249, 50.465297353], [-104.683561452, 50.465245208], [-104.683536177, 50.465162452], [-104.683498074, 50.465078898], [-104.683457189, 50.465017526], [-104.683416345, 50.464970032], [-104.683365322, 50.46492231], [-104.683307794, 50.464876111], [-104.683236811, 50.464837168], [-104.683162244, 50.464811909], [-104.683077758, 50.464796677], [-104.683014303, 50.464792383], [-104.682960371, 50.464799283], [-104.682902165, 50.464814985], [-104.682820748, 50.464836581], [-104.682725528, 50.464865386], [-104.682388172, 50.464959013], [-104.681710014, 50.465127546], [-104.681466996, 50.465168644], [-104.681240923, 50.46519388], [-104.680949357, 50.465226426], [-104.680723437, 50.465240246], [-104.680568565, 50.465242422], [-104.680407877, 50.465237164], [-104.680314444, 50.465228831], [-104.680248113, 50.465222862], [-104.680185103, 50.465213606], [-104.680119603, 50.465198288], [-104.680063924, 50.465182514], [-104.68001828, 50.465166907], [-104.679982195, 50.465152313], [-104.679948301, 50.465135018], [-104.679921662, 50.465118997], [-104.679895272, 50.465100439], [-104.679871065, 50.465080105], [-104.679849723, 50.465058502], [-104.679835891, 50.465041812], [-104.679820022, 50.465018555], [-104.679807389, 50.464994503], [-104.679798209, 50.464971318], [-104.679792281, 50.464951727], [-104.679789137, 50.464917519], [-104.679791296, 50.464863896], [-104.679805016, 50.464776125], [-104.679848359, 50.464666121], [-104.679872233, 50.464624563], [-104.679884308, 50.464609615], [-104.679901858, 50.464586718], [-104.679923881, 50.464561487], [-104.679936514, 50.464546213], [-104.679975918, 50.464510438], [-104.680016761, 50.46447221], [-104.680041656, 50.464444774], [-104.680067953, 50.464411266], [-104.680088696, 50.464375044], [-104.680104591, 50.464337386], [-104.680113591, 50.464303576], [-104.680127611, 50.464222769], [-104.680118439, 50.464133965], [-104.680101621, 50.464096946], [-104.680074741, 50.46406162], [-104.680027415, 50.46401579], [-104.679995169, 50.463992249], [-104.679948887, 50.463955962], [-104.679851259, 50.463912052], [-104.679773764, 50.463882374], [-104.679624157, 50.463835878], [-104.679263823, 50.463722589], [-104.678785121, 50.463541139], [-104.678693411, 50.463499461], [-104.678567408, 50.46343408], [-104.678501148, 50.463384673], [-104.678440784, 50.463324075], [-104.678400132, 50.463256263], [-104.67841873, 50.46328687], [-104.678382984, 50.463220652], [-104.678367884, 50.463184936], [-104.678352535, 50.463128375], [-104.678343761, 50.463073398], [-104.678338405, 50.46291658], [-104.678339569, 50.462913072], [-104.67833843, 50.462913011], [-104.678339011, 50.462886336], [-104.678348298, 50.462762739], [-104.678366827, 50.462652672], [-104.678385719, 50.462568062], [-104.678397917, 50.462528565], [-104.678421316, 50.462474517], [-104.678443885, 50.462435872], [-104.678451606, 50.462422652], [-104.678455237, 50.462417429], [-104.678462597, 50.462408571], [-104.678471139, 50.462400154], [-104.67848077, 50.46239223], [-104.6784915, 50.462384903], [-104.678503162, 50.462378184], [-104.678515723, 50.462371731]]]}, "properties": {"name": "Rosemont/Mount Royal", "replaced": 5, "renter_pct": 30.4, "indigenous_pct": 10.3, "lead_share_pct": 0.7, "replacement_rate_pct": 14.3, "median_after_tax_income": 71889, "total_water_connections": 4108, "current_lead_connections": 30, "baseline_lead_connections": 70, "estimated_children_affected": 42}}, {"type": "Feature", "geometry": {"type": "Polygon", "coordinates": [[[-104.65097134, 50.447215583], [-104.643553085, 50.447846456], [-104.642881202, 50.447919243], [-104.642866963, 50.448018027], [-104.642789138, 50.448472241], [-104.642759808, 50.448865911], [-104.642737763, 50.449161806], [-104.642743226, 50.449662903], [-104.64280338, 50.450122439], [-104.642887571, 50.450556762], [-104.642983975, 50.450861632], [-104.643090938, 50.451257473], [-104.643255693, 50.451947062], [-104.643350662, 50.452610904], [-104.643377143, 50.453076752], [-104.643394253, 50.453459635], [-104.643447906, 50.45519957], [-104.64530252, 50.455208435], [-104.646725275, 50.455212765], [-104.647296831, 50.4552145], [-104.648176204, 50.455217164], [-104.649613112, 50.455212508], [-104.651078125, 50.455216913], [-104.652472699, 50.455221091], [-104.653923752, 50.455207433], [-104.655346499, 50.455211661], [-104.656811572, 50.455207002], [-104.658234385, 50.4552022], [-104.65967122, 50.455206415], [-104.661136317, 50.455199391], [-104.663960247, 50.455194551], [-104.664356521, 50.455194367], [-104.65097134, 50.447215583]]]}, "properties": {"name": "Mcnab", "replaced": 0, "renter_pct": 30.4, "indigenous_pct": 10.3, "lead_share_pct": 3.2, "replacement_rate_pct": 0.0, "median_after_tax_income": 71889, "total_water_connections": 715, "current_lead_connections": 23, "baseline_lead_connections": 46, "estimated_children_affected": 33}}, {"type": "Feature", "geometry": {"type": "Polygon", "coordinates": [[[-104.583679131, 50.465624936], [-104.586203015, 50.465625026], [-104.588854819, 50.465598538], [-104.590542932, 50.465604545], [-104.591312141, 50.465576154], [-104.592592216, 50.465494877], [-104.593799066, 50.465346209], [-104.594282287, 50.465271451], [-104.595207829, 50.465270179], [-104.595199343, 50.462967808], [-104.595199339, 50.462952678], [-104.59519887, 50.461375953], [-104.595198011, 50.459829063], [-104.595211241, 50.458282223], [-104.595196383, 50.45672629], [-104.595203297, 50.455609862], [-104.583635842, 50.457721228], [-104.58363072, 50.458304085], [-104.583631379, 50.459832977], [-104.583631802, 50.461388848], [-104.583646235, 50.462955601], [-104.583646658, 50.464509633], [-104.583679131, 50.465624936]]]}, "properties": {"name": "Eastview", "replaced": 3, "renter_pct": 30.4, "indigenous_pct": 10.3, "lead_share_pct": 2.0, "replacement_rate_pct": 12.0, "median_after_tax_income": 71889, "total_water_connections": 1112, "current_lead_connections": 22, "baseline_lead_connections": 50, "estimated_children_affected": 31}}, {"type": "Feature", "geometry": {"type": "Polygon", "coordinates": [[[-104.60643315, 50.447177374], [-104.606433194, 50.447177374], [-104.60794028, 50.447174043], [-104.609376878, 50.447178884], [-104.610855802, 50.447174851], [-104.612278355, 50.447174839], [-104.613700904, 50.447175349], [-104.615151586, 50.447180161], [-104.616588257, 50.447175916], [-104.618080078, 50.447172022], [-104.618102235, 50.440777588], [-104.618102218, 50.440774444], [-104.606444048, 50.440785516], [-104.60643315, 50.447177374]]]}, "properties": {"name": "Centre Square", "replaced": 2, "renter_pct": 30.4, "indigenous_pct": 10.3, "lead_share_pct": 1.8, "replacement_rate_pct": 9.5, "median_after_tax_income": 71889, "total_water_connections": 1032, "current_lead_connections": 19, "baseline_lead_connections": 42, "estimated_children_affected": 27}}, {"type": "Feature", "geometry": {"type": "Polygon", "coordinates": [[[-104.631012934, 50.439320839], [-104.631164398, 50.439321905], [-104.631161189, 50.438697402], [-104.631152419, 50.437078561], [-104.631145229, 50.436852521], [-104.631145222, 50.436839928], [-104.631144885, 50.436828348], [-104.631144232, 50.436816775], [-104.631143263, 50.436805211], [-104.631141978, 50.436793659], [-104.631140377, 50.436782123], [-104.631138462, 50.436770607], [-104.631136232, 50.436759114], [-104.631133688, 50.436747647], [-104.631130831, 50.43673621], [-104.631127662, 50.436724808], [-104.631124182, 50.436713442], [-104.631120392, 50.436702116], [-104.631116294, 50.436690835], [-104.631111888, 50.436679601], [-104.631107174, 50.436668418], [-104.631102157, 50.436657289], [-104.631096836, 50.436646218], [-104.631091213, 50.436635208], [-104.631085291, 50.436624262], [-104.63107907, 50.436613384], [-104.631072553, 50.436602577], [-104.631065741, 50.436591844], [-104.631058638, 50.436581189], [-104.631051244, 50.436570614], [-104.631043562, 50.436560123], [-104.631035595, 50.43654972], [-104.631027345, 50.436539407], [-104.631018814, 50.436529188], [-104.631010006, 50.436519065], [-104.631000922, 50.436509042], [-104.630991565, 50.436499122], [-104.630981939, 50.436489307], [-104.630972046, 50.436479602], [-104.63096189, 50.436470008], [-104.630951473, 50.436460529], [-104.630940798, 50.436451167], [-104.630929869, 50.436441926], [-104.63091869, 50.436432808], [-104.630907263, 50.436423816], [-104.630895591, 50.436414952], [-104.630883681, 50.436406221], [-104.630871532, 50.436397623], [-104.630859151, 50.436389161], [-104.630680179, 50.436274937], [-104.630051976, 50.435924163], [-104.630038253, 50.435915724], [-104.630024763, 50.435907133], [-104.63001151, 50.435898393], [-104.629998498, 50.435889506], [-104.62998573, 50.435880476], [-104.629973212, 50.435871305], [-104.629960946, 50.435861995], [-104.629948936, 50.435852551], [-104.629937186, 50.435842974], [-104.6299257, 50.435833267], [-104.629914481, 50.435823434], [-104.629903531, 50.435813477], [-104.629892856, 50.4358034], [-104.629882458, 50.435793205], [-104.629872339, 50.435782896], [-104.629862504, 50.435772476], [-104.629852956, 50.435761948], [-104.629843696, 50.435751315], [-104.629834729, 50.43574058], [-104.629826056, 50.435729747], [-104.629817681, 50.435718819], [-104.629809604, 50.435707799], [-104.629801831, 50.435696691], [-104.629790575, 50.435679606], [-104.629783578, 50.435668289], [-104.629776891, 50.435656895], [-104.629770516, 50.435645429], [-104.629764455, 50.435633893], [-104.629758711, 50.435622291], [-104.629753284, 50.435610628], [-104.629748177, 50.435598905], [-104.629743391, 50.435587127], [-104.629738928, 50.435575298], [-104.629734788, 50.435563421], [-104.629730974, 50.4355515], [-104.629727486, 50.435539538], [-104.629724325, 50.435527538], [-104.629721493, 50.435515505], [-104.62971899, 50.435503443], [-104.629716817, 50.435491355], [-104.629714975, 50.435479244], [-104.629713464, 50.435467114], [-104.629712284, 50.43545497], [-104.629711437, 50.435442814], [-104.629710922, 50.435430651], [-104.629710739, 50.435418483], [-104.629710889, 50.435406316], [-104.629711756, 50.435387787], [-104.629708061, 50.434901125], [-104.629708055, 50.434900167], [-104.629698461, 50.43331304], [-104.629697655, 50.433179763], [-104.629697702, 50.433173737], [-104.629709413, 50.431677865], [-104.629722367, 50.430023079], [-104.629714413, 50.429240609], [-104.629721171, 50.428377242], [-104.629723531, 50.427870654], [-104.628265845, 50.427865979], [-104.625388421, 50.42786551], [-104.625380427, 50.428874739], [-104.62465094, 50.42887238], [-104.624632787, 50.431159027], [-104.625395472, 50.431161494], [-104.625387436, 50.432175943], [-104.624671204, 50.432173628], [-104.624653559, 50.434395175], [-104.625361895, 50.434397465], [-104.625358016, 50.434886168], [-104.626686742, 50.43489046], [-104.626684024, 50.435040088], [-104.626683967, 50.43528743], [-104.626735036, 50.435290082], [-104.626797988, 50.435293478], [-104.626817938, 50.435295537], [-104.626859778, 50.435302785], [-104.626920092, 50.435315779], [-104.626958993, 50.435322311], [-104.626985239, 50.43532708], [-104.627000644, 50.435330791], [-104.627045853, 50.435342625], [-104.627093336, 50.435355685], [-104.627104589, 50.435359252], [-104.627125784, 50.435367988], [-104.627163683, 50.435384701], [-104.627219624, 50.43540713], [-104.627241254, 50.435416519], [-104.627276318, 50.435432059], [-104.627313369, 50.435444638], [-104.627333519, 50.435452832], [-104.627348397, 50.435462405], [-104.627378109, 50.435482341], [-104.627416566, 50.435506737], [-104.627441722, 50.435517446], [-104.627469471, 50.435528882], [-104.627496538, 50.435544741], [-104.627520317, 50.435559246], [-104.627569273, 50.43558984], [-104.627617645, 50.435620834], [-104.627631803, 50.435630684], [-104.627658901, 50.43565106], [-104.627687941, 50.43567393], [-104.627700455, 50.435684454], [-104.62773907, 50.435718766], [-104.627779127, 50.435754691], [-104.627797855, 50.435773182], [-104.627814618, 50.435793081], [-104.627843498, 50.435832079], [-104.627869293, 50.435868152], [-104.627881469, 50.435886266], [-104.627895872, 50.435909773], [-104.62790639, 50.435929648], [-104.62791539, 50.435951062], [-104.627928883, 50.435994757], [-104.627945304, 50.436036117], [-104.627958943, 50.436072702], [-104.62796278, 50.436084152], [-104.627974172, 50.436125747], [-104.62798411, 50.436165167], [-104.627996182, 50.436204444], [-104.628006013, 50.436244518], [-104.628016598, 50.436289554], [-104.628023268, 50.436307772], [-104.62803145, 50.436329044], [-104.628033948, 50.436343435], [-104.628037221, 50.436368765], [-104.628042052, 50.436387079], [-104.628049074, 50.436403543], [-104.628060954, 50.43641111], [-104.628074761, 50.436419079], [-104.628075855, 50.436428452], [-104.628066157, 50.43643915], [-104.628067819, 50.436464477], [-104.628071865, 50.436483146], [-104.628076476, 50.436498248], [-104.628088131, 50.436535242], [-104.628096574, 50.436560725], [-104.628102622, 50.436577315], [-104.628119518, 50.436617995], [-104.628137332, 50.436658628], [-104.628142362, 50.436671615], [-104.628151007, 50.436696994], [-104.628166315, 50.436751476], [-104.628177013, 50.436783366], [-104.628181922, 50.436794672], [-104.628203818, 50.43683564], [-104.628226712, 50.436879702], [-104.628246444, 50.436918023], [-104.628260673, 50.436964458], [-104.628274823, 50.437007245], [-104.628293551, 50.437053913], [-104.628300811, 50.437078815], [-104.628306072, 50.437094174], [-104.628311944, 50.437105899], [-104.628325599, 50.437131633], [-104.628346063, 50.437169224], [-104.628372743, 50.437213916], [-104.628397329, 50.437255902], [-104.628408048, 50.437271831], [-104.628426865, 50.437298463], [-104.62844653, 50.437331541], [-104.628452252, 50.437346096], [-104.628456229, 50.43736316], [-104.628462108, 50.437393656], [-104.628471569, 50.437446846], [-104.628480541, 50.437498647], [-104.628484156, 50.43751265], [-104.628492074, 50.437533016], [-104.628511232, 50.43757454], [-104.62852896, 50.437615029], [-104.628550533, 50.437659044], [-104.628570317, 50.437701286], [-104.628584364, 50.437732398], [-104.628590079, 50.437746419], [-104.62859393, 50.437758348], [-104.628601438, 50.437788681], [-104.628610278, 50.437830692], [-104.628618309, 50.437862369], [-104.62862377, 50.437880101], [-104.628638728, 50.437922205], [-104.628653394, 50.437962052], [-104.628660402, 50.437998495], [-104.628670497, 50.438043363], [-104.628679664, 50.438093163], [-104.628684376, 50.438112214], [-104.628690818, 50.438134594], [-104.628703845, 50.438175152], [-104.628716484, 50.438210693], [-104.628726588, 50.438247868], [-104.628734895, 50.438296464], [-104.628742134, 50.438332485], [-104.628749506, 50.438353473], [-104.628759908, 50.438378809], [-104.628772893, 50.43840772], [-104.628778917, 50.438420069], [-104.628788813, 50.438438468], [-104.628801294, 50.438459973], [-104.628830157, 50.438505827], [-104.628844987, 50.438533304], [-104.628853215, 50.438546676], [-104.628882468, 50.438582437], [-104.628914285, 50.438620582], [-104.62893165, 50.438640761], [-104.628949872, 50.438660921], [-104.628962817, 50.438674256], [-104.628985051, 50.438695511], [-104.629007198, 50.438715507], [-104.629030717, 50.438735555], [-104.629053438, 50.438753833], [-104.629066994, 50.438763883], [-104.629115404, 50.43879619], [-104.62916083, 50.438828], [-104.62919108, 50.438848443], [-104.629214405, 50.438863374], [-104.629250515, 50.438883658], [-104.629297529, 50.438914361], [-104.629328461, 50.438933786], [-104.629350994, 50.438947491], [-104.629377246, 50.438962368], [-104.629410929, 50.438979724], [-104.629458783, 50.439002032], [-104.629510028, 50.439029107], [-104.629575778, 50.439057345], [-104.629628238, 50.439081606], [-104.629649877, 50.439090718], [-104.629686527, 50.439105026], [-104.629729017, 50.439120484], [-104.629749051, 50.439126826], [-104.629829895, 50.439149343], [-104.629898439, 50.439168122], [-104.629959717, 50.439184252], [-104.630028668, 50.43920557], [-104.630059762, 50.439213876], [-104.630093474, 50.439221821], [-104.630134421, 50.439230174], [-104.630161779, 50.439234624], [-104.63019723, 50.439239361], [-104.630234332, 50.43924398], [-104.630306592, 50.439252506], [-104.630372329, 50.439259392], [-104.63039929, 50.439262837], [-104.63044305, 50.439269568], [-104.630510526, 50.439283079], [-104.630552202, 50.439289136], [-104.630589009, 50.439292987], [-104.630620879, 50.439295483], [-104.630656935, 50.439297974], [-104.630713145, 50.439301324], [-104.630729286, 50.439301915], [-104.630798065, 50.439301681], [-104.630875322, 50.43930237], [-104.630885676, 50.43930282], [-104.630944332, 50.439307335], [-104.630972583, 50.439311334], [-104.631012934, 50.439320839]]]}, "properties": {"name": "Lakeview", "replaced": 0, "renter_pct": 30.4, "indigenous_pct": 10.3, "lead_share_pct": 2.9, "replacement_rate_pct": 0.0, "median_after_tax_income": 71889, "total_water_connections": 413, "current_lead_connections": 12, "baseline_lead_connections": 24, "estimated_children_affected": 17}}, {"type": "Feature", "geometry": {"type": "Polygon", "coordinates": [[[-104.60643315, 50.447177374], [-104.606433103, 50.447231015], [-104.606427493, 50.453651377], [-104.606427481, 50.453664336], [-104.618107308, 50.451611702], [-104.618106507, 50.451483817], [-104.618079871, 50.447231581], [-104.618080078, 50.447172022], [-104.616588257, 50.447175916], [-104.615151586, 50.447180161], [-104.613700904, 50.447175349], [-104.612278355, 50.447174839], [-104.610855802, 50.447174851], [-104.609376878, 50.447178884], [-104.60794028, 50.447174043], [-104.60643315, 50.447177374]]]}, "properties": {"name": "Downtown", "replaced": 0, "renter_pct": 30.4, "indigenous_pct": 10.3, "lead_share_pct": 0.5, "replacement_rate_pct": 0.0, "median_after_tax_income": 71889, "total_water_connections": 991, "current_lead_connections": 5, "baseline_lead_connections": 10, "estimated_children_affected": 7}}, {"type": "Feature", "geometry": {"type": "Polygon", "coordinates": [[[-104.595225541, 50.463007077], [-104.595203321, 50.469746411], [-104.606376235, 50.469776982], [-104.618115249, 50.469758003], [-104.618114256, 50.469129476], [-104.618155757, 50.462900386], [-104.618108609, 50.462945947], [-104.618103967, 50.458296702], [-104.618102853, 50.454068238], [-104.618109374, 50.453440275], [-104.618107799, 50.45204629], [-104.618107308, 50.451611702], [-104.606427481, 50.453664336], [-104.605360286, 50.45384937], [-104.604685954, 50.453966283], [-104.602736553, 50.454304235], [-104.601449461, 50.454527347], [-104.600990284, 50.45460694], [-104.59763676, 50.455188167], [-104.596648542, 50.455359423], [-104.596279352, 50.4554234], [-104.595744058, 50.455516159], [-104.595203297, 50.455609862], [-104.595225541, 50.463007077]]]}, "properties": {"name": "Warehouse District", "replaced": 1, "renter_pct": 30.4, "indigenous_pct": 10.3, "lead_share_pct": 0.2, "replacement_rate_pct": 25.0, "median_after_tax_income": 71889, "total_water_connections": 1639, "current_lead_connections": 3, "baseline_lead_connections": 8, "estimated_children_affected": 4}}, {"type": "Feature", "geometry": {"type": "Polygon", "coordinates": [[[-104.58220744, 50.44718257], [-104.572257398, 50.44718659], [-104.572066939, 50.459502669], [-104.564168696, 50.460899164], [-104.565167654, 50.462509738], [-104.566705892, 50.464471352], [-104.569183958, 50.46755958], [-104.571336963, 50.470044246], [-104.572821624, 50.471118549], [-104.574517171, 50.471974062], [-104.576223784, 50.472739781], [-104.577236758, 50.473078255], [-104.580220639, 50.474116543], [-104.583248388, 50.475894297], [-104.58535261, 50.476837982], [-104.586171814, 50.477205562], [-104.587194461, 50.477637774], [-104.587877696, 50.478014918], [-104.588626098, 50.478420972], [-104.589263477, 50.478867817], [-104.591845893, 50.480636431], [-104.5951206, 50.480711916], [-104.595172615, 50.480701426], [-104.595172995, 50.480691547], [-104.595217558, 50.479534539], [-104.595218075, 50.478886088], [-104.595219676, 50.477051457], [-104.595227113, 50.476182047], [-104.595232831, 50.475513646], [-104.595232062, 50.473957805], [-104.595203115, 50.472401869], [-104.595216444, 50.470846079], [-104.595203321, 50.469746411], [-104.595225541, 50.463007077], [-104.595203297, 50.455609862], [-104.595195145, 50.451932732], [-104.586477303, 50.447783911], [-104.586409208, 50.44775389], [-104.586393298, 50.447747877], [-104.586385975, 50.447744394], [-104.586373636, 50.447740445], [-104.586290553, 50.447709041], [-104.5861915, 50.447678025], [-104.586123624, 50.447660421], [-104.586115119, 50.447657699], [-104.586112119, 50.447657438], [-104.586088321, 50.447651266], [-104.58508613, 50.447567684], [-104.585005289, 50.447560942], [-104.584970065, 50.447557871], [-104.584830813, 50.4475435], [-104.584711542, 50.447525373], [-104.584686953, 50.447521636], [-104.584545994, 50.447493091], [-104.584408695, 50.447458018], [-104.584275796, 50.447416607], [-104.584148015, 50.447369081], [-104.584026039, 50.447315697], [-104.583765716, 50.447190939], [-104.583746395, 50.447181679], [-104.58220744, 50.44718257]]]}, "properties": {"name": "Ross Industrial", "replaced": 0, "renter_pct": 30.4, "indigenous_pct": 10.3, "lead_share_pct": 0.2, "replacement_rate_pct": 0.0, "median_after_tax_income": 71889, "total_water_connections": 982, "current_lead_connections": 2, "baseline_lead_connections": 4, "estimated_children_affected": 3}}, {"type": "Feature", "geometry": {"type": "Polygon", "coordinates": [[[-104.595172995, 50.480691547], [-104.606407587, 50.48073008], [-104.618164693, 50.480774541], [-104.618106545, 50.478864279], [-104.618115249, 50.469758003], [-104.606376235, 50.469776982], [-104.595203321, 50.469746411], [-104.595216444, 50.470846079], [-104.595203115, 50.472401869], [-104.595232062, 50.473957805], [-104.595232831, 50.475513646], [-104.595227113, 50.476182047], [-104.595219676, 50.477051457], [-104.595218075, 50.478886088], [-104.595217558, 50.479534539], [-104.595172995, 50.480691547]]]}, "properties": {"name": "Northeast", "replaced": 0, "renter_pct": 30.4, "indigenous_pct": 10.3, "lead_share_pct": 0.0, "replacement_rate_pct": 0.0, "median_after_tax_income": 71889, "total_water_connections": 2910, "current_lead_connections": 1, "baseline_lead_connections": 2, "estimated_children_affected": 1}}]}
