{"type": "FeatureCollection", "features": [{"type": "Feature", "id": 15, "geometry": {"type": "Polygon", "coordinates": [[[-104.61811524866862, 50.46975800238974], [-104.63117262891498, 50.469733474010354], [-104.63548368972116, 50.46971798228532], [-104.63552073136033, 50.469717979573076], [-104.6382708377992, 50.469742737966484], [-104.64174167504554, 50.469689678597234], [-104.64174441180141, 50.4696773391422], [-104.64176540713757, 50.46959330868293], [-104.64178869598888, 50.46950952450064], [-104.64181429946986, 50.46942244417547], [-104.64184212803833, 50.469342799203524], [-104.64197771925703, 50.468954368762276], [-104.64200500457886, 50.468875868727594], [-104.64202624782729, 50.46882029485713], [-104.64204900818149, 50.46876496577067], [-104.64207327846214, 50.46870989853264], [-104.64209905008107, 50.46865511020306], [-104.64212631586602, 50.468600616946965], [-104.64215506722913, 50.468546435824244], [-104.6421852955826, 50.46849258389486], [-104.6422169923523, 50.468439076419976], [-104.64225014754854, 50.46838592955573], [-104.64228475117486, 50.46833316035764], [-104.64306239648519, 50.46717570116169], [-104.64309622770577, 50.46711299258039], [-104.64345189231005, 50.46645373793699], [-104.64346279689386, 50.46643854198316], [-104.64347126138975, 50.46642611030778], [-104.64347938558801, 50.46641358675646], [-104.6434871652349, 50.46640097491351], [-104.6434945989013, 50.466388277472696], [-104.64350168513795, 50.466375499825624], [-104.6435084211068, 50.466362644661714], [-104.64351480395631, 50.46634971646897], [-104.64352083083499, 50.46633671973533], [-104.64352650313178, 50.46632365716319], [-104.64353181799511, 50.46631053324048], [-104.64353677257361, 50.46629735245523], [-104.64354136542467, 50.46628411929979], [-104.64354559512608, 50.466270835568466], [-104.64354946163084, 50.4662575075565], [-104.64355296491215, 50.4662441388612], [-104.64355609931413, 50.4662307321633], [-104.64355886902348, 50.4662172928717], [-104.64356126977971, 50.466203825469975], [-104.64356330015387, 50.46619033265187], [-104.6435649643327, 50.46617681982616], [-104.64356625665349, 50.46616329057292], [-104.64356734628605, 50.466147296517754], [-104.64356753962151, 50.4661361975026], [-104.643567775365, 50.466122643429514], [-104.6435679118352, 50.46611479803852], [-104.64356711393852, 50.46293744895948], [-104.64344803585774, 50.45838642982821], [-104.64344790515612, 50.4551995707581], [-104.64339425294045, 50.45345963518027], [-104.6433771427275, 50.45307675247335], [-104.64335066237601, 50.45261090404764], [-104.64325569212795, 50.451947061357764], [-104.64309093875076, 50.45125747320132], [-104.6429839741447, 50.4508616313157], [-104.64288757099888, 50.450556761933754], [-104.64280337968314, 50.450122439558044], [-104.64274322612661, 50.4496629032746], [-104.64273776233385, 50.44916180550484], [-104.64275980805189, 50.448865910656956], [-104.64278913769853, 50.44847224133492], [-104.64286696300815, 50.44801802622212], [-104.64288120256094, 50.44791924245484], [-104.63110930465237, 50.44926021786583], [-104.61810730865247, 50.45161170243303], [-104.61810779938894, 50.452046289774486], [-104.61810937346816, 50.45344027538946], [-104.6180921049435, 50.455103178363814], [-104.61811524866862, 50.46975800238974]]]}, "properties": {"NAME": "NORTH CENTRAL", "WC_Total": 7134, "Lead_Total": 702, "Lead_Per": 9.84020185029, "OBJECTID_1": 15}}, {"type": "Feature", "id": 16, "geometry": {"type": "Polygon", "coordinates": [[[-104.58374639492592, 50.44718167939378], [-104.5850805633138, 50.44718095788317], [-104.58651725075457, 50.44718017887378], [-104.58795394564216, 50.44718096409334], [-104.58939060688799, 50.44718173055778], [-104.59084133685694, 50.44718237226554], [-104.59229206556284, 50.4471829958835], [-104.59374283149657, 50.44717910574504], [-104.59519359729775, 50.44717519752017], [-104.59517966291645, 50.44551137417793], [-104.59517873543054, 50.44397350328507], [-104.59516395514495, 50.442408603570456], [-104.59516908043435, 50.4408626354609], [-104.59524666037355, 50.43932416047138], [-104.59523217954563, 50.4377232859964], [-104.5952265541139, 50.43673399245971], [-104.59525946750422, 50.43453072569707], [-104.5952164389465, 50.434107886159154], [-104.59232026617086, 50.43409771885897], [-104.59085597756062, 50.434083567231134], [-104.58943376677027, 50.434087514503496], [-104.58802571553694, 50.434082501102054], [-104.58654727045477, 50.43407723765475], [-104.58598793339962, 50.43376010589657], [-104.5858784438368, 50.43369817879124], [-104.58577882480985, 50.433648377477255], [-104.58567799802113, 50.43360098021585], [-104.58545779534408, 50.43350216134418], [-104.58519305032819, 50.433397346547096], [-104.58497466188699, 50.433320898969605], [-104.58482231058724, 50.43327963056612], [-104.58475089613435, 50.433266423412114], [-104.58464358407521, 50.43325236771081], [-104.58450247952649, 50.43323810041935], [-104.58435528603825, 50.43322776741487], [-104.58421104940071, 50.433217445688875], [-104.58404843953737, 50.43321497142305], [-104.58362604584106, 50.43321237346708], [-104.58362809962003, 50.43457937941531], [-104.58362010700777, 50.43548768463078], [-104.58362848964613, 50.436135240017144], [-104.583614482524, 50.437727022358814], [-104.58217810354036, 50.43773085105871], [-104.5807559496995, 50.437745516173514], [-104.57972095687506, 50.437746403543315], [-104.57928523842261, 50.437792725306245], [-104.57879046260564, 50.437930167045565], [-104.57558416289663, 50.43921171762846], [-104.57232824302211, 50.44051293853386], [-104.57231372551725, 50.4415583615893], [-104.56877600289867, 50.4398607274617], [-104.56549470316746, 50.43816048656195], [-104.56464888397466, 50.43771258528382], [-104.56352248259405, 50.43716354779893], [-104.56301027103831, 50.437719160971696], [-104.56257852673757, 50.43834600726688], [-104.56232563289846, 50.4388438980557], [-104.56214164539101, 50.43935397192845], [-104.5620279639036, 50.43987234482059], [-104.56198545795539, 50.440395072095406], [-104.56195462949012, 50.44068271665477], [-104.56203974425995, 50.44117386896944], [-104.56231973236346, 50.44223391962681], [-104.5625691316087, 50.44286717628289], [-104.56271735119938, 50.44311154929242], [-104.56298948725367, 50.44372580365452], [-104.56322615865051, 50.444421197668326], [-104.56340562160855, 50.44494246910992], [-104.5635247077702, 50.44583836091004], [-104.56354214869106, 50.4464590470987], [-104.56355918227042, 50.447124061995396], [-104.57227238990264, 50.44717712672158], [-104.58220743978319, 50.447182569716], [-104.58374639492592, 50.44718167939378]]]}, "properties": {"NAME": "AL RITCHIE", "WC_Total": 4381, "Lead_Total": 388, "Lead_Per": 8.85642547364, "OBJECTID_1": 16}}, {"type": "Feature", "id": 17, "geometry": {"type": "Polygon", "coordinates": [[[-104.59517299461268, 50.48069154689144], [-104.60640758708368, 50.48073007968456], [-104.61816469313456, 50.480774540385454], [-104.61810654531556, 50.47886427904448], [-104.61811524866862, 50.46975800238974], [-104.60637623457488, 50.469776981930934], [-104.59520332070679, 50.46974641091861], [-104.5952164439387, 50.470846078887696], [-104.59520311593477, 50.47240186902801], [-104.59523206161224, 50.473957804867084], [-104.59523283081231, 50.475513645898765], [-104.59522711313818, 50.476182047334376], [-104.59521967580687, 50.4770514576795], [-104.59521807570756, 50.47888608804993], [-104.5952175577391, 50.47953453924367], [-104.59517299461268, 50.48069154689144]]]}, "properties": {"NAME": "NORTHEAST", "WC_Total": 2910, "Lead_Total": 2, "Lead_Per": 0.0687285223368, "OBJECTID_1": 17}}, {"type": "Feature", "id": 18, "geometry": {"type": "Polygon", "coordinates": [[[-104.60643310300634, 50.447231014823466], [-104.60644404803543, 50.440785510281465], [-104.60492326673055, 50.4407694904071], [-104.60348679585258, 50.44077358731613], [-104.60203624194725, 50.44077299212287], [-104.60057168400279, 50.44077259338867], [-104.59914935575527, 50.440767681995425], [-104.59771286947257, 50.440771694086585], [-104.59626230150748, 50.44077572412868], [-104.59516908043435, 50.4408626354609], [-104.59516395509128, 50.44240860986564], [-104.59517873543054, 50.44397350328507], [-104.59517966291645, 50.44551137417793], [-104.59519359729775, 50.44717519752017], [-104.59374283149657, 50.44717910574504], [-104.59229206556284, 50.4471829958835], [-104.59084133685694, 50.44718237226554], [-104.58939060688799, 50.44718173055778], [-104.58795394564216, 50.44718096409334], [-104.58651725075457, 50.44718017887378], [-104.58508053373714, 50.44718095777772], [-104.58374639492592, 50.44718167939378], [-104.58402603922941, 50.44731569712761], [-104.58414801434456, 50.44736908171504], [-104.58427579604832, 50.44741660703016], [-104.58440869499034, 50.447458017877615], [-104.5845459933672, 50.44749309043985], [-104.58468695334201, 50.447521635904806], [-104.58483081282058, 50.44754350045147], [-104.58497679812868, 50.44755856529513], [-104.58508612946915, 50.44756768414426], [-104.58608832018068, 50.44765126546041], [-104.58619150083575, 50.447678024435184], [-104.58629055287247, 50.447709041406426], [-104.58640920870405, 50.4477538905681], [-104.58647730303947, 50.447783910604045], [-104.59519514513774, 50.45193273241118], [-104.59520329760734, 50.455609862259735], [-104.60642748136472, 50.453664336090156], [-104.60643310300634, 50.447231014823466]]]}, "properties": {"NAME": "HERITAGE", "WC_Total": 3380, "Lead_Total": 518, "Lead_Per": 15.325443787, "OBJECTID_1": 18}}, {"type": "Feature", "id": 19, "geometry": {"type": "Polygon", "coordinates": [[[-104.67851572275174, 50.462371730681745], [-104.6796283319093, 50.46188818218668], [-104.679686793757, 50.46185898066833], [-104.67973874650978, 50.461828104632346], [-104.6797906695213, 50.461791398993824], [-104.67989855283771, 50.46170342500701], [-104.68007387416144, 50.461538461571465], [-104.68010397860404, 50.46150678515842], [-104.68023671147024, 50.46134259834863], [-104.68030408037039, 50.46126431183166], [-104.68041975408693, 50.46108244825727], [-104.68050695269562, 50.4609032664625], [-104.68061768396521, 50.460607794834026], [-104.68064457619599, 50.460516980791404], [-104.68067700700315, 50.460344068024554], [-104.68068338802705, 50.46025110673416], [-104.68068240308637, 50.46014420530303], [-104.68067966980848, 50.46008354385426], [-104.68066826699646, 50.460015914841094], [-104.68064768505891, 50.45994921483568], [-104.68061694647558, 50.45988613826075], [-104.68057966000757, 50.45982051207411], [-104.68053829379961, 50.45976553541165], [-104.68047392129634, 50.459697427315106], [-104.6804102676384, 50.45963807619726], [-104.68033369680546, 50.459580167175844], [-104.68025441278368, 50.45952706299942], [-104.68003407060314, 50.4593969745596], [-104.6799219468703, 50.459340455918735], [-104.67978222741783, 50.45928104272541], [-104.67928037952967, 50.459097225941775], [-104.67866476420247, 50.45889335608834], [-104.6779050693128, 50.45866340915011], [-104.6774869521006, 50.458551946703516], [-104.67738147083831, 50.458527228369604], [-104.67702329032605, 50.45845772076439], [-104.6763362312596, 50.458363039199426], [-104.67557541474119, 50.458294601989735], [-104.67481189350195, 50.458261599608775], [-104.67381164187002, 50.45824825488955], [-104.67306230140235, 50.4582694919002], [-104.67247245475788, 50.45830002611497], [-104.67172012159392, 50.45835083604543], [-104.67110204244833, 50.458409603797236], [-104.6703648070248, 50.458482280835085], [-104.67010164123118, 50.458498067683195], [-104.66966949151131, 50.4585052849008], [-104.6695337509607, 50.45850177705496], [-104.6694274030128, 50.45849003727079], [-104.66939924391453, 50.45848643278423], [-104.66933219655618, 50.45847596828546], [-104.6692173126309, 50.45845153689614], [-104.66902591129585, 50.45840196899006], [-104.6688652912566, 50.458351945151534], [-104.66867682641946, 50.45828667180933], [-104.66796337970567, 50.458015577634015], [-104.66724707351024, 50.457727727032044], [-104.66673140200385, 50.45750875494906], [-104.66601348004994, 50.45716701909436], [-104.66592116933725, 50.457113159052376], [-104.66582662214726, 50.45705224350988], [-104.6657797619973, 50.45701360472697], [-104.66568808819453, 50.45693841584706], [-104.66556320717103, 50.45681217592623], [-104.66535049280463, 50.45654987172384], [-104.66435652148971, 50.45519436636279], [-104.66396024702215, 50.45519455025824], [-104.66113631702352, 50.455199390895565], [-104.65967121950978, 50.45520641598303], [-104.65823438478661, 50.455202200952876], [-104.65681157195836, 50.455207002009175], [-104.65534649909208, 50.455211660529315], [-104.6539237514704, 50.455207433996314], [-104.65247269921, 50.455221091407715], [-104.65107812495988, 50.45521691331261], [-104.64961311237248, 50.455212508259166], [-104.64817620382527, 50.455217164003365], [-104.64729683080681, 50.45521450051832], [-104.64672527546836, 50.45521276517296], [-104.64530251924981, 50.45520843501669], [-104.64344790515612, 50.4551995707581], [-104.64344800903157, 50.45838999831676], [-104.6435670871102, 50.4629410183446], [-104.64356788500392, 50.4661183674217], [-104.64356774853368, 50.46612621281267], [-104.64356751279018, 50.466139766885746], [-104.6435673194547, 50.46615086590091], [-104.64356625666026, 50.466163289673574], [-104.6435649643327, 50.46617681982616], [-104.64356330015387, 50.46619033265187], [-104.64356126977971, 50.466203825469975], [-104.64355886902348, 50.4662172928717], [-104.64355609931413, 50.4662307321633], [-104.64355296491215, 50.4662441388612], [-104.64354946163084, 50.4662575075565], [-104.64354559512608, 50.466270835568466], [-104.64354136542467, 50.46628411929979], [-104.64353677256685, 50.466297353354584], [-104.64353181798836, 50.466310534139815], [-104.64352650313178, 50.46632365716319], [-104.64352083083499, 50.46633671973533], [-104.64351480395631, 50.46634971646897], [-104.6435084211068, 50.466362644661714], [-104.64350168513795, 50.466375499825624], [-104.6434945989013, 50.466388277472696], [-104.6434871652349, 50.46640097491351], [-104.64347938558126, 50.46641358765574], [-104.64347126138298, 50.466426111207134], [-104.64346279689386, 50.46643854198316], [-104.64345189231005, 50.46645373793699], [-104.64309620083803, 50.46711656196277], [-104.64306236961485, 50.46717927054402], [-104.64228472424486, 50.46833672973893], [-104.64225012061587, 50.46838949893699], [-104.64221696542388, 50.46844264490187], [-104.64218526865176, 50.46849615237668], [-104.64215504028918, 50.46855000520536], [-104.64212628892383, 50.46860418632803], [-104.6420990231368, 50.468658679584095], [-104.64207325151588, 50.46871346791363], [-104.64204898123334, 50.468768535151625], [-104.64202622087738, 50.468823864238054], [-104.64200497762728, 50.46887943810845], [-104.64197769230333, 50.46895793814304], [-104.64184212803833, 50.469342799203524], [-104.64181429946986, 50.46942244417547], [-104.64178869598888, 50.46950952450064], [-104.64176540713757, 50.46959330868293], [-104.64174441180141, 50.4696773391422], [-104.64174167504554, 50.469689678597234], [-104.64172571863702, 50.46976159072483], [-104.64170702019985, 50.46985902384964], [-104.6416890168592, 50.46994352936134], [-104.65249250082003, 50.4699616097289], [-104.66396032777241, 50.469979704295945], [-104.66396141538505, 50.46941432862664], [-104.66890927203622, 50.46945394793293], [-104.67100539461292, 50.46947218108901], [-104.68704850872435, 50.46956638785159], [-104.6870374417802, 50.46251473807918], [-104.68701025749897, 50.46250312110149], [-104.68695536766977, 50.46248287691641], [-104.68689792398509, 50.4624657663164], [-104.6868383609551, 50.46245191547455], [-104.68677711041254, 50.4624414289734], [-104.68671473671239, 50.46243439826306], [-104.6866515622611, 50.46243085658583], [-104.68658817007166, 50.46243084328249], [-104.68652502366335, 50.462434357802486], [-104.68646258671623, 50.46244137531456], [-104.68640165519611, 50.46245062540404], [-104.68633841990683, 50.46246565468172], [-104.68628096014282, 50.462482744582935], [-104.68622697013622, 50.46250052460744], [-104.68614276467606, 50.462524049028836], [-104.68604564844591, 50.462554512914025], [-104.68589339750076, 50.46261131158038], [-104.68574218125228, 50.46267966481199], [-104.68557994593432, 50.46276706929081], [-104.68547812615141, 50.462820647319205], [-104.68538629157366, 50.462869912954126], [-104.68534540922258, 50.46289833207072], [-104.6853019805387, 50.46293275095281], [-104.68527102629479, 50.462964635048365], [-104.68524498200145, 50.46299568523942], [-104.68522313905532, 50.46302928651203], [-104.68520694374365, 50.46305959889536], [-104.68519973664696, 50.463081952182414], [-104.68519579331424, 50.46310101643182], [-104.68519458806222, 50.463122758215434], [-104.68519584359268, 50.46314055946941], [-104.68519958954282, 50.46315483756587], [-104.68520745656338, 50.463176338583104], [-104.68521615383928, 50.46319268685179], [-104.68522705547504, 50.463208491587295], [-104.68524007072338, 50.46322362753579], [-104.68525510450861, 50.463237984720585], [-104.68527204204175, 50.46325145131284], [-104.68529075158474, 50.46326392173314], [-104.6853110914412, 50.46327530476466], [-104.68533290862503, 50.46328551185802], [-104.6853569363108, 50.46329488764135], [-104.68540340034251, 50.463318627105345], [-104.6854464537623, 50.46334486018491], [-104.68551765717008, 50.46339879421379], [-104.68555195739849, 50.46343644315466], [-104.6856205397523, 50.46352490993138], [-104.68569406613726, 50.46363253777705], [-104.6857024794004, 50.46365032237957], [-104.68570484683403, 50.463660038901715], [-104.68570055902617, 50.463672853650614], [-104.68568900973904, 50.46368436094071], [-104.68498258672926, 50.464253679503365], [-104.68494405433063, 50.46428466794072], [-104.68493230092781, 50.46429524918581], [-104.68492673707362, 50.464303075432646], [-104.68492383627844, 50.46431003473404], [-104.68492296928885, 50.46431774059374], [-104.68492272276904, 50.464324306876044], [-104.68492383306771, 50.464334691813626], [-104.68493642256234, 50.46436431673796], [-104.68496099140344, 50.46439601378021], [-104.68499408389414, 50.46443289427502], [-104.6850336335836, 50.46447212960802], [-104.6850613356242, 50.46449265276693], [-104.68509173251478, 50.46451155811083], [-104.68512802671871, 50.464530348997414], [-104.68515828173601, 50.464546438119875], [-104.68518622375396, 50.46456414877576], [-104.68524055418173, 50.46461011957016], [-104.68528558183978, 50.46467192766751], [-104.68531903383735, 50.46471478692414], [-104.68539688050609, 50.46482168376388], [-104.68542697629286, 50.46488029477371], [-104.68545183736084, 50.46494088275718], [-104.68547897302625, 50.46502710794698], [-104.6855186801192, 50.46535504555308], [-104.68551639718886, 50.465478744791206], [-104.68549649223695, 50.465621723131356], [-104.68544159479214, 50.46573535331273], [-104.68535515009896, 50.465831682207295], [-104.6852543480794, 50.46585826201899], [-104.6851322451392, 50.46585526163372], [-104.6850238029072, 50.46583862998878], [-104.68485268124279, 50.46579357232097], [-104.6846722016639, 50.46574252735339], [-104.68441207085958, 50.465678465917854], [-104.68409462719173, 50.46563339071283], [-104.6839462547067, 50.46560619939788], [-104.68385711089583, 50.46558030105114], [-104.68378597274899, 50.46553454476297], [-104.68371027770358, 50.465462646751206], [-104.68365833420896, 50.46539456167789], [-104.6836120850888, 50.465341395849705], [-104.68358524884438, 50.46529735347869], [-104.68356145237092, 50.465245208257585], [-104.68353617791435, 50.46516245192262], [-104.68349807444011, 50.465078897159316], [-104.68345718962651, 50.46501752592548], [-104.68341634470947, 50.46497003243385], [-104.68336532293804, 50.46492230979087], [-104.68330779429587, 50.46487611088156], [-104.68323681088268, 50.46483716803907], [-104.68316224330651, 50.46481190868152], [-104.68307775723626, 50.46479667684211], [-104.6830143031372, 50.46479238328638], [-104.68296037074447, 50.464799282684716], [-104.68290216522396, 50.46481498480535], [-104.68282074821292, 50.46483658084406], [-104.6827255284608, 50.46486538514844], [-104.68238817260601, 50.46495901309808], [-104.68171001360624, 50.465127545956825], [-104.68146699611518, 50.46516864447505], [-104.68124092224463, 50.46519387964296], [-104.68094935708105, 50.465226425430565], [-104.68072343700518, 50.465240246546074], [-104.68056856462596, 50.46524242158152], [-104.68040787670893, 50.46523716362091], [-104.68031444367004, 50.46522883099309], [-104.68024811352367, 50.46522286156124], [-104.68018510258929, 50.465213606046085], [-104.68011960203224, 50.46519828842723], [-104.68006392383089, 50.465182513929314], [-104.6800182807513, 50.46516690639102], [-104.67998219505805, 50.46515231258407], [-104.67994830168234, 50.465135017794], [-104.67992166163761, 50.46511899751458], [-104.67989527263644, 50.465100439094705], [-104.6798710640697, 50.46508010508208], [-104.67984972292001, 50.46505850189492], [-104.67983589090191, 50.46504181174647], [-104.67982002216345, 50.4650185553393], [-104.6798073896101, 50.46499450292734], [-104.6797982088506, 50.46497131797651], [-104.67979228112019, 50.46495172672681], [-104.67978913761262, 50.46491751903826], [-104.67979129616889, 50.46486389578762], [-104.67980501628558, 50.464776125088], [-104.6798483593473, 50.46466612065432], [-104.67987223313457, 50.46462456326273], [-104.67988430747593, 50.46460961533699], [-104.67990185718672, 50.464586717950844], [-104.67992388061218, 50.464561486497885], [-104.67993651366275, 50.46454621274482], [-104.67997591877581, 50.46451043850087], [-104.68001676063221, 50.46447220940927], [-104.6800416561991, 50.46444477346382], [-104.68006795376395, 50.46441126545395], [-104.6800886957444, 50.464375043261064], [-104.68010459068284, 50.4643373858923], [-104.68011359095854, 50.46430357581665], [-104.6801276113521, 50.464222768554635], [-104.68011843926813, 50.46413396540795], [-104.68010162091441, 50.464096945687444], [-104.68007474109355, 50.46406161963692], [-104.68002741501904, 50.464015789786636], [-104.67999516938232, 50.46399224915161], [-104.67994888648039, 50.463955962292005], [-104.67985125945802, 50.46391205171874], [-104.67977376335692, 50.46388237448264], [-104.67962415692378, 50.46383587809636], [-104.67926382272266, 50.463722589188414], [-104.67878512051202, 50.46354113832915], [-104.67869341191151, 50.463499460876214], [-104.67856740720391, 50.463434080170025], [-104.67850114744006, 50.46338467290332], [-104.678440784, 50.46332407436359], [-104.6784001326594, 50.463256262726865], [-104.6784187300815, 50.46328687085311], [-104.6783829837541, 50.46322065199649], [-104.67836788417331, 50.463184935408904], [-104.67835253571967, 50.4631283751192], [-104.67834376046245, 50.46307339873722], [-104.67833840510335, 50.46291658019721], [-104.6783395701215, 50.46291307240894], [-104.67833842931446, 50.462913010799234], [-104.67833901037964, 50.462886336298354], [-104.67834829799423, 50.462762739227145], [-104.67836682642447, 50.4626526721208], [-104.67838571891109, 50.46256806262401], [-104.67839791741362, 50.46252856511251], [-104.67842131674854, 50.46247451761098], [-104.67844388460284, 50.462435871636686], [-104.6784516062789, 50.462422652043806], [-104.67845523721397, 50.46241742973738], [-104.67846259681528, 50.462408570923735], [-104.67847113831077, 50.462400153351425], [-104.67848076975727, 50.46239223072632], [-104.67849150033977, 50.46238490289989], [-104.67850316229821, 50.462378184697094], [-104.67851572275174, 50.462371730681745]]]}, "properties": {"NAME": "ROSEMONT/MOUNT ROYAL", "WC_Total": 4108, "Lead_Total": 57, "Lead_Per": 1.38753651412, "OBJECTID_1": 19}}, {"type": "Feature", "id": 20, "geometry": {"type": "Polygon", "coordinates": [[[-104.64288120256094, 50.44791924245484], [-104.64355308505752, 50.44784645571313], [-104.65097133929157, 50.44721558260911], [-104.6524838467032, 50.44597144062665], [-104.65285561313061, 50.44564639316085], [-104.65322537996104, 50.44501533115843], [-104.65319916971026, 50.44469449109848], [-104.65286735030244, 50.44415132424122], [-104.6524275970534, 50.44383448110399], [-104.65170211945099, 50.44357074274161], [-104.65079820770636, 50.443487304641], [-104.64918455997567, 50.44349111826312], [-104.64887240381702, 50.44346536673724], [-104.64867328194948, 50.44341026488043], [-104.64844671511753, 50.44323478500549], [-104.64831057802033, 50.44281921868246], [-104.64824956777147, 50.44252626952445], [-104.64803660569869, 50.44228542095739], [-104.64763544036434, 50.44225417259364], [-104.64704277519233, 50.4423935719824], [-104.64630289073307, 50.44272386631961], [-104.64575131715318, 50.44300012232662], [-104.6455261732569, 50.4431023023238], [-104.64523336166188, 50.44319248437239], [-104.64513263544924, 50.44320105104383], [-104.64473208129552, 50.4430115701089], [-104.6445961187815, 50.442775321985984], [-104.64449532811811, 50.44245909043716], [-104.6445510194697, 50.4420334519082], [-104.64474874007887, 50.441682474013135], [-104.6450111028179, 50.44128676824182], [-104.64514549476085, 50.44092327277459], [-104.64509581255255, 50.44055566529348], [-104.6448476992738, 50.44015194278968], [-104.64456613215943, 50.43989487009128], [-104.64425902677311, 50.439774419249176], [-104.64387284837841, 50.4396229529038], [-104.64361486598989, 50.43951874077216], [-104.63956963891081, 50.440922722017], [-104.63809329880594, 50.44096309263637], [-104.6371311276551, 50.44075323909727], [-104.6333552098647, 50.439167524602674], [-104.63120827965129, 50.43951704476546], [-104.62944744937288, 50.439388923127844], [-104.62890328938737, 50.439066925797796], [-104.62853732381267, 50.43883741017187], [-104.6279867691194, 50.437176889208416], [-104.62770051709342, 50.43635703379588], [-104.6270081777042, 50.435653316187576], [-104.62587490697065, 50.43549214144345], [-104.62280774009672, 50.435639725280325], [-104.62055623655007, 50.43629175385976], [-104.61807811906057, 50.436302586122274], [-104.6181022340521, 50.440777587938626], [-104.61807987190909, 50.44723158108949], [-104.61810730865247, 50.45161170243303], [-104.63110930465237, 50.44926021786583], [-104.64288120256094, 50.44791924245484]]]}, "properties": {"NAME": "CATHEDRAL", "WC_Total": 4406, "Lead_Total": 659, "Lead_Per": 14.9568769859, "OBJECTID_1": 20}}, {"type": "Feature", "id": 21, "geometry": {"type": "Polygon", "coordinates": [[[-104.5836791314614, 50.46562493677915], [-104.58620301440803, 50.46562502573491], [-104.58885481854237, 50.465598538086084], [-104.59054293152481, 50.465604544863815], [-104.59131214200933, 50.465576153814595], [-104.59259221637825, 50.46549487721235], [-104.59379906603104, 50.46534620896379], [-104.59428228628056, 50.46527145074254], [-104.59520782888555, 50.46527017940049], [-104.59519934331644, 50.46296780824414], [-104.59519933861797, 50.46295267867087], [-104.59519886913, 50.46137595269496], [-104.59519801086246, 50.45982906317938], [-104.59521124119264, 50.45828222225422], [-104.5951963830416, 50.45672628983649], [-104.59520329760734, 50.455609862259735], [-104.58363584272031, 50.45772122806759], [-104.58363071902853, 50.458304084599284], [-104.58363137940923, 50.45983297676011], [-104.58363180266007, 50.46138884871373], [-104.58364623483291, 50.462955601092524], [-104.58364665863412, 50.464509633067], [-104.5836791314614, 50.46562493677915]]]}, "properties": {"NAME": "EASTVIEW", "WC_Total": 1112, "Lead_Total": 53, "Lead_Per": 4.76618705036, "OBJECTID_1": 21}}, {"type": "Feature", "id": 22, "geometry": {"type": "Polygon", "coordinates": [[[-104.60643310300634, 50.447231014823466], [-104.61807987190909, 50.44723158108949], [-104.61810221710478, 50.44077444378829], [-104.60644404794594, 50.4407855210733], [-104.60643310300634, 50.447231014823466]]]}, "properties": {"NAME": "CENTRE SQUARE", "WC_Total": 1032, "Lead_Total": 53, "Lead_Per": 5.13565891473, "OBJECTID_1": 22}}, {"type": "Feature", "id": 23, "geometry": {"type": "Polygon", "coordinates": [[[-104.57206693859347, 50.4595026688886], [-104.56416869504224, 50.4608991642577], [-104.56516765421755, 50.46250973806121], [-104.56670589145482, 50.46447135195092], [-104.56918395717584, 50.46755957937367], [-104.57133696216144, 50.4700442459357], [-104.57282162456087, 50.47111854919342], [-104.57451717084611, 50.471974062749894], [-104.57622378362358, 50.47273978125886], [-104.57723675819055, 50.473078254634366], [-104.5802206388165, 50.47411654328377], [-104.5832483880046, 50.47589429672667], [-104.58535260973322, 50.47683798156245], [-104.58617181438909, 50.47720556226295], [-104.5871944607178, 50.47763777371612], [-104.587877696152, 50.47801491820644], [-104.58862609813383, 50.47842097147981], [-104.58926347675427, 50.47886781684398], [-104.59184589301651, 50.480636430930524], [-104.59512059903741, 50.480711916256304], [-104.59517261423414, 50.48070142656093], [-104.59520256104084, 50.47954400475469], [-104.59520307780595, 50.4788955535577], [-104.59520467989758, 50.4770609231967], [-104.59521211750643, 50.476191512854626], [-104.59521783398468, 50.47552311141643], [-104.59521706667998, 50.47396727129257], [-104.59518812008929, 50.4724113345493], [-104.59520144999891, 50.47085554441926], [-104.59519136434827, 50.46972115283709], [-104.59519289745043, 50.465296131806284], [-104.59426729392432, 50.46528091616661], [-104.59378407214602, 50.46535567432029], [-104.59310463691337, 50.465439373877786], [-104.59257722361502, 50.46550434241741], [-104.5912971475568, 50.465585618849005], [-104.59052793831925, 50.46561400980362], [-104.58993818461407, 50.46561191459585], [-104.58963622636904, 50.465610839555], [-104.58366413547566, 50.465634400826325], [-104.58363166298805, 50.46451909801198], [-104.58363124109684, 50.46296506514693], [-104.58361680941834, 50.46139831276999], [-104.58361638524448, 50.45984244171432], [-104.58363584272031, 50.45772122806759], [-104.59520329760734, 50.455609862259735], [-104.59519514513774, 50.45193273241118], [-104.58638597422643, 50.44774439459814], [-104.58611511933945, 50.44765769932378], [-104.58478359502661, 50.44754161245308], [-104.58464325068815, 50.44750998096827], [-104.58435229507978, 50.44736968020659], [-104.58397864495008, 50.4471909996568], [-104.58064374498868, 50.44718999576558], [-104.57802425444777, 50.44718899692038], [-104.57225739749602, 50.447186590237315], [-104.57206693859347, 50.4595026688886]]]}, "properties": {"NAME": "ROSS INDUSTRIAL", "WC_Total": 982, "Lead_Total": 12, "Lead_Per": 1.22199592668, "OBJECTID_1": 23}}, {"type": "Feature", "id": 24, "geometry": {"type": "Polygon", "coordinates": [[[-104.6064331493467, 50.44717737385575], [-104.60642748136472, 50.453664336090156], [-104.61750808702433, 50.45160394101813], [-104.61823423219424, 50.45145817811644], [-104.61824792379612, 50.4510322628161], [-104.61810884071552, 50.44717194651637], [-104.61658825727275, 50.44717591580805], [-104.61515158557663, 50.44718016164156], [-104.61370090419199, 50.44717534893924], [-104.61227835556957, 50.44717483878158], [-104.61085580264259, 50.44717485172334], [-104.60937687840912, 50.44717888407113], [-104.60794028082991, 50.44717404323239], [-104.6064331493467, 50.44717737385575]]]}, "properties": {"NAME": "DOWNTOWN", "WC_Total": 991, "Lead_Total": 25, "Lead_Per": 2.52270433905, "OBJECTID_1": 24}}, {"type": "Feature", "id": 25, "geometry": {"type": "Polygon", "coordinates": [[[-104.61832153258042, 50.43603083578785], [-104.61833933146534, 50.43602660700644], [-104.61836371898453, 50.43603043094877], [-104.61839706644471, 50.43603985388972], [-104.6184205954681, 50.43605062871191], [-104.61843009705744, 50.43605295948424], [-104.61843533656614, 50.43605262412293], [-104.61845291841347, 50.436050345283796], [-104.61849279929332, 50.4360422866385], [-104.61851235608341, 50.43603956279592], [-104.61853664055528, 50.436039741333715], [-104.61857940916914, 50.43604065765871], [-104.61863551857874, 50.43604066888518], [-104.61874791495342, 50.436035415403275], [-104.61883302662777, 50.4360325510272], [-104.61887316473366, 50.43602997637815], [-104.61890333303009, 50.43602831517178], [-104.61892958098504, 50.436029300471745], [-104.61897365632028, 50.43603197284788], [-104.61901418265397, 50.43603208035784], [-104.61904394905049, 50.436032421531614], [-104.61907347247987, 50.43603513976087], [-104.61911422570644, 50.43603943621119], [-104.61915478922566, 50.43604157900327], [-104.61918486702574, 50.43604189507928], [-104.61922170379633, 50.43603870335005], [-104.61925567130453, 50.43603597617403], [-104.61929578908139, 50.43603610922936], [-104.61932671788435, 50.43603653867185], [-104.61939699522797, 50.43603802942855], [-104.61953678356775, 50.436042458946524], [-104.6195604860415, 50.4360414635261], [-104.61960721590876, 50.436037788695785], [-104.61967822243746, 50.43603596939221], [-104.61971955973827, 50.43603187308774], [-104.61974856854467, 50.43602975640381], [-104.61977658457799, 50.43603116098724], [-104.6198184495495, 50.436033790746684], [-104.61988866904183, 50.4360358251189], [-104.61992795649994, 50.43603959218023], [-104.61995939926142, 50.43604213388721], [-104.61998511107042, 50.436040089115934], [-104.62001626139782, 50.43603712138712], [-104.62006349000616, 50.436036575011855], [-104.62008581844485, 50.436037124563235], [-104.6201557772566, 50.43604076684476], [-104.62022678045803, 50.43604481719626], [-104.62025023215101, 50.436045597015955], [-104.62029708912188, 50.43604591809677], [-104.62033321948671, 50.43604565106665], [-104.62036754901209, 50.43604501301774], [-104.62043772751933, 50.43604231638974], [-104.6204944989683, 50.436042123829445], [-104.62055093932204, 50.436040721447135], [-104.62060828368023, 50.4360389676444], [-104.62063401405098, 50.43603741562932], [-104.620676207483, 50.43603313381384], [-104.62071386894654, 50.4360282247601], [-104.62074421759931, 50.436023368304845], [-104.62076930355947, 50.43601875460057], [-104.62080485956896, 50.43601176657353], [-104.62087080848688, 50.43599719718751], [-104.62089953087434, 50.43599302698667], [-104.62093304586796, 50.43598840743148], [-104.620973277905, 50.43598022227324], [-104.62099868188196, 50.43597369036106], [-104.621033208715, 50.43596349905596], [-104.6210577443704, 50.43595602179341], [-104.62111236701618, 50.435939058212725], [-104.6211791132197, 50.4359182525174], [-104.62124842878755, 50.43589926102398], [-104.62127084863789, 50.43589170038581], [-104.62130299687617, 50.43588047061404], [-104.62132880472639, 50.43587289940627], [-104.6213623986855, 50.43586471949229], [-104.62139798835872, 50.435861782926125], [-104.62142544797528, 50.435858440377686], [-104.62145312149, 50.43584946414543], [-104.62148746907206, 50.43583824237662], [-104.621550116237, 50.43581845917627], [-104.62156554777593, 50.43581386876128], [-104.62161081792279, 50.435801251624916], [-104.6216473212143, 50.435792331937705], [-104.62168583046827, 50.43578507624654], [-104.62172206889933, 50.43578288454638], [-104.62175446433129, 50.435780547240846], [-104.62182011459714, 50.43576750792431], [-104.62188432716383, 50.435755703191376], [-104.62194307402149, 50.43574452729226], [-104.62200941295366, 50.435732700619646], [-104.62206971477065, 50.43572058270121], [-104.62212408144704, 50.43571234502221], [-104.62218951218013, 50.43569802592106], [-104.62225968172217, 50.435683107016686], [-104.62229438736527, 50.43567905122418], [-104.62231937054773, 50.43567527863562], [-104.62236000918335, 50.43566317948497], [-104.62264279654993, 50.43555614353398], [-104.62266016091647, 50.435547872841624], [-104.62267915240149, 50.43553915235596], [-104.62270156174804, 50.43553215439571], [-104.62273298012484, 50.43552338965486], [-104.62276551738843, 50.43550866949717], [-104.62280011375897, 50.43549282643233], [-104.62282980974756, 50.435483027235755], [-104.62286071235349, 50.4354728883938], [-104.6228892954635, 50.435458891946595], [-104.62291506241726, 50.4354466589683], [-104.62294373887457, 50.435438279196774], [-104.62298260687237, 50.435430648314295], [-104.62302277438792, 50.435426050610324], [-104.62304966001078, 50.43542241982872], [-104.62307315192383, 50.43541739216318], [-104.62310543508852, 50.435410355958965], [-104.62314896462853, 50.43540174185014], [-104.62316689217629, 50.43539878171785], [-104.62319463116107, 50.43539797939664], [-104.62323811367528, 50.43539847992659], [-104.62327682678028, 50.435395452172635], [-104.62330868558514, 50.43539308931443], [-104.62334129119223, 50.43539243671398], [-104.62336994179232, 50.43539173892738], [-104.62339802411377, 50.43538919114812], [-104.62343639529662, 50.4353836449781], [-104.6234681246161, 50.43537718965422], [-104.62350312133096, 50.43536994807686], [-104.62354666501508, 50.43536344282055], [-104.62357576268386, 50.43536087849764], [-104.62361160849454, 50.4353607354374], [-104.62365324944933, 50.43536084673622], [-104.62368086244122, 50.43535959242235], [-104.62371539086216, 50.43535759782274], [-104.62375836371712, 50.435352400082294], [-104.62378572511145, 50.435350021652745], [-104.62381042619745, 50.43535160251034], [-104.6238479493583, 50.43535479685954], [-104.62389132630203, 50.43535653249919], [-104.62390970007804, 50.43535695881547], [-104.62393552029103, 50.43535680303806], [-104.62397936622786, 50.43535532771331], [-104.62402338925465, 50.43535140493719], [-104.62405001765552, 50.4353498343837], [-104.62411296981337, 50.43535088852743], [-104.6241742919667, 50.43535186992205], [-104.62423683803154, 50.435353706912814], [-104.62426554875172, 50.43535394801217], [-104.62429624676537, 50.4353534193892], [-104.62436657718337, 50.43534969563403], [-104.62449132822064, 50.43534647122604], [-104.62453414534038, 50.4353447504495], [-104.62456076491097, 50.43534269140835], [-104.62462158080373, 50.43533397423589], [-104.62468397475551, 50.43532691061399], [-104.62471527713706, 50.43532313630831], [-104.62474704788698, 50.435319072118], [-104.62481789134678, 50.4353060109844], [-104.62488017020526, 50.43529889202648], [-104.62494194893566, 50.43529215903936], [-104.62498625941895, 50.43528712344099], [-104.62500548096843, 50.435284683417606], [-104.62502108687485, 50.43528219756503], [-104.62506523829126, 50.435273766410546], [-104.6251281757929, 50.43526079742822], [-104.62515280441755, 50.43525621907817], [-104.62518776853643, 50.43525003001801], [-104.62526973968907, 50.43523664921129], [-104.6252973647887, 50.435231527385234], [-104.62533841771784, 50.435223703997295], [-104.62537956364471, 50.43521729825616], [-104.62540241617738, 50.4352152727615], [-104.6254315893006, 50.43521561309001], [-104.62547356624896, 50.435216848096395], [-104.6255206344435, 50.435215818742506], [-104.62554274181183, 50.43521561288772], [-104.62561455868996, 50.43521673341676], [-104.6256845953717, 50.435217721367955], [-104.6257106536046, 50.43521826295191], [-104.62575571459459, 50.435219639080145], [-104.62578862426452, 50.43522129987781], [-104.62582659610925, 50.435224382614166], [-104.6258974034433, 50.43523335906607], [-104.62596739077486, 50.43523918424525], [-104.62603762504308, 50.43524583936853], [-104.62610027035218, 50.435249369136386], [-104.6261700256506, 50.43525605591634], [-104.62619433755994, 50.43525717275627], [-104.62623149370752, 50.43525834703596], [-104.62630176182535, 50.43525963753764], [-104.62633821234478, 50.43526119173724], [-104.62636443152842, 50.43526293521153], [-104.62642620151864, 50.43526801515572], [-104.62648856986482, 50.435273286748725], [-104.62655050971328, 50.43527861539029], [-104.62661200262909, 50.4352824064899], [-104.6266750890911, 50.4352869689082], [-104.62668396635787, 50.43528742997112], [-104.62668402472013, 50.43504008791859], [-104.62668674190493, 50.43489045972872], [-104.62535801548691, 50.43488616784559], [-104.62536189496423, 50.434397464726594], [-104.62465356000016, 50.43439517577986], [-104.62467120498054, 50.432173627743886], [-104.62538743649587, 50.432175942939125], [-104.62539547219396, 50.43116149409903], [-104.62463278684815, 50.431159027294704], [-104.62465093978219, 50.428872379871464], [-104.62538042731579, 50.42887473882089], [-104.62538842103524, 50.427865509953264], [-104.62464320830104, 50.42785948675393], [-104.62465379337438, 50.426525989225944], [-104.62394459654995, 50.42652452045593], [-104.62394676856178, 50.42671903101336], [-104.6239267012903, 50.42671900842641], [-104.62178226944785, 50.426712030841735], [-104.62033469441305, 50.42670729948121], [-104.62033402435614, 50.425565096842256], [-104.61961129193558, 50.42556272648617], [-104.61961127322132, 50.42504381273153], [-104.61900291556448, 50.42504510673297], [-104.61901597541429, 50.42341730873693], [-104.6180768954913, 50.423419406741004], [-104.6181049183173, 50.425047012147736], [-104.618091152159, 50.42671751438989], [-104.61809214015192, 50.4283660513705], [-104.61807882217732, 50.43001226199593], [-104.61809351652876, 50.43167613454028], [-104.61808026992684, 50.433312934650836], [-104.61808160766442, 50.43489611126543], [-104.61807886090808, 50.436003700566204], [-104.61807879535867, 50.436030048354084], [-104.61832153258042, 50.43603083578785]]]}, "properties": {"NAME": "OLD LAKEVIEW", "WC_Total": 1032, "Lead_Total": 124, "Lead_Per": 12.015503876, "OBJECTID_1": 25}}, {"type": "Feature", "id": 26, "geometry": {"type": "Polygon", "coordinates": [[[-104.59520332070679, 50.46974641091861], [-104.61811524866862, 50.46975800238974], [-104.61811092739197, 50.46962900992162], [-104.61815575643585, 50.462900385822785], [-104.6181086091225, 50.46294594713839], [-104.61810396744524, 50.458296701346484], [-104.61810217137588, 50.45148468722688], [-104.6053602864532, 50.45384937018016], [-104.60468595370135, 50.4539662826599], [-104.60273655235963, 50.45430423447573], [-104.60144946150518, 50.45452734682037], [-104.60099028308677, 50.45460693966338], [-104.59763675999481, 50.455188167830244], [-104.59664854137189, 50.45535942294848], [-104.59627935194082, 50.45542339975457], [-104.59574405710387, 50.455516159246066], [-104.59520329760734, 50.455609862259735], [-104.59522554098156, 50.46300707720293], [-104.59520332070679, 50.46974641091861]]]}, "properties": {"NAME": "WAREHOUSE DISTRICT", "WC_Total": 1639, "Lead_Total": 32, "Lead_Per": 1.9524100061, "OBJECTID_1": 26}}, {"type": "Feature", "id": 27, "geometry": {"type": "Polygon", "coordinates": [[[-104.63101293359848, 50.43932083873269], [-104.63116439914786, 50.439321904378524], [-104.63116118884733, 50.43869740197145], [-104.6311524180514, 50.43707856074748], [-104.63114523001147, 50.436852520995906], [-104.63114522226381, 50.436839927499996], [-104.63114488557652, 50.43682834831735], [-104.63114423200841, 50.436816775324935], [-104.6311432629538, 50.43680521032588], [-104.63114197837102, 50.43679365871612], [-104.63114037683118, 50.43678212318909], [-104.6311384611298, 50.43677060645168], [-104.6311362312252, 50.4367591138998], [-104.63113368851862, 50.436747646437205], [-104.63113083155336, 50.43673621035465], [-104.63112766313183, 50.436724807459626], [-104.63112418181122, 50.43671344224431], [-104.63112039180209, 50.436702116520685], [-104.63111629447077, 50.43669083568909], [-104.63111188698733, 50.436679601539154], [-104.63110717494949, 50.436668418585384], [-104.63110215692828, 50.43665728952115], [-104.63109683571223, 50.43664621795273], [-104.63109121408279, 50.43663520838547], [-104.63108529061803, 50.43662426261358], [-104.63107907092264, 50.43661338425214], [-104.63107255215259, 50.43660257688941], [-104.63106574132064, 50.436591844145006], [-104.63105863699788, 50.43658118871228], [-104.63105124338084, 50.436570614201976], [-104.63104356185673, 50.436560123316326], [-104.63103559521407, 50.436549719661556], [-104.63102734482605, 50.43653940773865], [-104.63101881491716, 50.436529187560915], [-104.63101000543863, 50.43651906542359], [-104.63100092201594, 50.436509042243735], [-104.63099156461428, 50.4364991225179], [-104.63098193885916, 50.43648930716319], [-104.63097204611687, 50.4364796015799], [-104.63096188918966, 50.43647000757557], [-104.630951472274, 50.436460528760804], [-104.63094079817223, 50.43645116694308], [-104.63092986967258, 50.43644192572853], [-104.63091868957036, 50.43643280782401], [-104.63090726347707, 50.436423815945176], [-104.63089559137873, 50.436414951890725], [-104.63088368028093, 50.43640622017945], [-104.63087153157787, 50.43639762261436], [-104.63085915088791, 50.436389161011874], [-104.63068017872261, 50.43627493711075], [-104.63005197592297, 50.43592416367942], [-104.63003825339472, 50.435915723803625], [-104.63002476298179, 50.43590713267548], [-104.63001151029547, 50.43589839301107], [-104.629998498145, 50.43588950571863], [-104.62998573071249, 50.435880476207565], [-104.62997321222211, 50.43587130449149], [-104.62996094545505, 50.435861995075996], [-104.62994893602246, 50.435852550677005], [-104.62993718531146, 50.435842973997026], [-104.62992570034825, 50.4358332668572], [-104.62991448109781, 50.43582343375415], [-104.6299035317632, 50.43581347739948], [-104.62989285513952, 50.43580340049996], [-104.62988245683789, 50.43579320577169], [-104.62987233965336, 50.435782895921605], [-104.62986250495187, 50.4357724763502], [-104.62985295554238, 50.43576194796582], [-104.62984369562105, 50.43575131437918], [-104.62983472937682, 50.4357405801005], [-104.62982605538748, 50.435729746923876], [-104.62981768066521, 50.43571881846911], [-104.62980960376673, 50.43570779922842], [-104.6298018317182, 50.43569669102277], [-104.62979057614585, 50.43567960640428], [-104.62978357738805, 50.43566828841303], [-104.62977689041475, 50.43565689496935], [-104.62977051661284, 50.4356454287756], [-104.62976445455297, 50.43563389252542], [-104.62975871124026, 50.43562229073784], [-104.62975328382329, 50.435610627900466], [-104.62974817651902, 50.435598904926195], [-104.62974339069324, 50.43558712721536], [-104.62973892772575, 50.43557529836984], [-104.62973478900334, 50.43556342109205], [-104.6297309730826, 50.4355514998742], [-104.62972748698269, 50.43553953743662], [-104.62972432503594, 50.43552753825807], [-104.62972149285336, 50.435515505054376], [-104.62971899039266, 50.43550344322151], [-104.62971681763953, 50.43549135455816], [-104.62971497455868, 50.43547924356094], [-104.62971346393785, 50.435467113836026], [-104.62971228433372, 50.43545496987566], [-104.62971143713307, 50.43544281438219], [-104.62971092230754, 50.435430650952924], [-104.62971073982882, 50.43541848318521], [-104.62971088825351, 50.43540631557104], [-104.62971175514458, 50.43538778740408], [-104.62970806038334, 50.434901125012786], [-104.62970805518212, 50.43490016719775], [-104.62969846139097, 50.433313040114164], [-104.62969765506756, 50.43317976322651], [-104.62969770207553, 50.43317373688836], [-104.62970941225011, 50.431677864988494], [-104.62972236784965, 50.43002307933337], [-104.62971441353552, 50.4292406084109], [-104.62972117068075, 50.428377241593516], [-104.62972353038805, 50.427870654065174], [-104.62826584566089, 50.42786597844897], [-104.62538842103524, 50.427865509953264], [-104.62538042731579, 50.42887473882089], [-104.62465093978219, 50.428872379871464], [-104.62463278684815, 50.431159027294704], [-104.62539547219396, 50.43116149409903], [-104.62538743649587, 50.432175942939125], [-104.62467120498054, 50.432173627743886], [-104.62465356000016, 50.43439517577986], [-104.62536189496423, 50.434397464726594], [-104.62535801548691, 50.43488616784559], [-104.62668674190493, 50.43489045972872], [-104.62668402472013, 50.43504008791859], [-104.62668396635787, 50.43528742997112], [-104.6267350356294, 50.4352900822743], [-104.62679798766156, 50.43529347774909], [-104.62681793834388, 50.43529553737058], [-104.62685977801259, 50.435302785331636], [-104.62692009188791, 50.43531577904415], [-104.62695899287819, 50.43532231066547], [-104.62698523902904, 50.43532708036962], [-104.62700064407939, 50.43533079096852], [-104.62704585256948, 50.43534262460996], [-104.62709333679572, 50.43535568503345], [-104.6271045890886, 50.43535925190595], [-104.62712578423215, 50.435367987675264], [-104.62716368301365, 50.43538470105632], [-104.6272196240365, 50.43540712998101], [-104.62724125342724, 50.43541651824343], [-104.62727631853276, 50.43543205876275], [-104.62731336981197, 50.43544463780652], [-104.62733351883374, 50.435452832381294], [-104.62734839776809, 50.435462404953924], [-104.62737810860826, 50.4354823413631], [-104.62741656543093, 50.435506736822326], [-104.62744172170687, 50.43551744578048], [-104.62746947165718, 50.435528881610125], [-104.62749653776991, 50.43554474090225], [-104.62752031673519, 50.43555924605031], [-104.62756927320967, 50.43558984005095], [-104.62761764505845, 50.43562083416544], [-104.6276318037901, 50.43563068409184], [-104.62765890076797, 50.43565105993609], [-104.6276879411177, 50.435673929569525], [-104.62770045413714, 50.43568445412391], [-104.62773907008216, 50.43571876612047], [-104.62777912661181, 50.43575469073402], [-104.62779785458355, 50.435773181736145], [-104.62781461847025, 50.43579308111692], [-104.62784349873775, 50.4358320789834], [-104.62786929285573, 50.43586815220846], [-104.62788146907073, 50.435886266105264], [-104.62789587150355, 50.43590977237444], [-104.62790639065898, 50.43592964727572], [-104.62791538965271, 50.43595106238333], [-104.62792888334866, 50.435994756850505], [-104.62794530454144, 50.436036117892115], [-104.62795894273265, 50.436072701726744], [-104.62796278024085, 50.436084152715665], [-104.62797417124303, 50.43612574768709], [-104.6279841092317, 50.43616516700244], [-104.62799618166746, 50.436204443849526], [-104.6280060131699, 50.43624451844167], [-104.62801659718434, 50.4362895535057], [-104.62802326835745, 50.43630777209872], [-104.62803145047002, 50.43632904428736], [-104.62803394696428, 50.43634343542956], [-104.6280372209283, 50.436368765044364], [-104.62804205234764, 50.436387079380864], [-104.62804907383557, 50.436403543578045], [-104.62806095411567, 50.436411109935484], [-104.62807476038796, 50.4364190790569], [-104.62807585569881, 50.43642845189302], [-104.62806615713413, 50.43643914913423], [-104.62806781881831, 50.43646447719193], [-104.62807186455723, 50.43648314605402], [-104.62807647615503, 50.43649824813915], [-104.62808813152344, 50.436535242013015], [-104.62809657360579, 50.43656072484254], [-104.6281026225317, 50.43657731543283], [-104.62811951832165, 50.43661799536229], [-104.62813733121222, 50.436658627856524], [-104.62814236214402, 50.43667161512913], [-104.62815100786409, 50.43669699428126], [-104.62816631425288, 50.43675147580745], [-104.62817701276846, 50.436783365550916], [-104.62818192170502, 50.4367946724627], [-104.62820381712446, 50.43683563995406], [-104.62822671206983, 50.43687970166935], [-104.62824644425442, 50.43691802267499], [-104.6282606732367, 50.43696445793809], [-104.62827482238794, 50.43700724521704], [-104.62829355146653, 50.43705391339037], [-104.62830081123411, 50.43707881414977], [-104.62830607291383, 50.43709417461277], [-104.62831194464357, 50.43710589829051], [-104.62832559796279, 50.437131633373134], [-104.62834606266063, 50.43716922373682], [-104.62837274371982, 50.43721391625921], [-104.62839732955463, 50.43725590226269], [-104.62840804768322, 50.43727183054155], [-104.6284268648388, 50.437298463455036], [-104.62844652997379, 50.43733154105193], [-104.62845225286789, 50.437346096271405], [-104.62845622831755, 50.43736315956914], [-104.62846210807537, 50.43739365520732], [-104.62847156859056, 50.437446845454026], [-104.6284805415096, 50.43749864645967], [-104.6284841565021, 50.43751264994672], [-104.62849207433786, 50.437533016517534], [-104.62851123275497, 50.4375745399933], [-104.62852896015048, 50.437615029152106], [-104.62855053386107, 50.437659044310365], [-104.62857031762329, 50.437701285646845], [-104.62858436429799, 50.43773239821137], [-104.6285900787889, 50.4377464191877], [-104.62859392973648, 50.43775834864443], [-104.62860143734798, 50.437788681292226], [-104.6286102786695, 50.437830691640144], [-104.62861830947567, 50.43786236957146], [-104.62862376964925, 50.43788010131378], [-104.62863872740733, 50.43792220492468], [-104.62865339445437, 50.437962052058815], [-104.62866040230442, 50.437998495027095], [-104.62867049717339, 50.43804336297737], [-104.62867966490803, 50.43809316355041], [-104.62868437692514, 50.43811221403345], [-104.62869081749828, 50.43813459399537], [-104.62870384559817, 50.43817515176727], [-104.62871648486838, 50.43821069357256], [-104.62872658790783, 50.438247868581314], [-104.62873489490512, 50.43829646398331], [-104.62874213429326, 50.438332484992976], [-104.62874950676778, 50.43835347304634], [-104.62875990805834, 50.43837880918165], [-104.6287728935971, 50.43840772034541], [-104.6287789170272, 50.438420068623074], [-104.62878881214355, 50.4384384674249], [-104.62880129376589, 50.438459972705274], [-104.6288301566269, 50.438505827724185], [-104.62884498693606, 50.43853330401945], [-104.62885321467729, 50.43854667557861], [-104.62888246777062, 50.43858243762802], [-104.62891428492637, 50.438620581206564], [-104.62893165079639, 50.43864076113047], [-104.62894987302181, 50.4386609212987], [-104.62896281717123, 50.43867425572661], [-104.62898504987399, 50.43869551058332], [-104.62900719808368, 50.43871550698871], [-104.62903071609412, 50.43873555452226], [-104.62905343823165, 50.43875383320885], [-104.6290669939226, 50.438763882484054], [-104.62911540336255, 50.43879619001131], [-104.62916082995335, 50.43882799967059], [-104.62919108043862, 50.43884844365097], [-104.6292144048118, 50.43886337328136], [-104.62925051472445, 50.438883658745766], [-104.62929752874074, 50.43891436092412], [-104.62932846041882, 50.43893378628673], [-104.62935099457845, 50.43894749116833], [-104.62937724572264, 50.4389623680333], [-104.62941092836915, 50.43897972375903], [-104.62945878263692, 50.43900203140381], [-104.62951002732275, 50.43902910643578], [-104.62957577743742, 50.43905734460062], [-104.62962823837222, 50.43908160581748], [-104.62964987769945, 50.43909071755809], [-104.62968652606634, 50.43910502668257], [-104.62972901662964, 50.43912048395662], [-104.62974905110508, 50.439126826898466], [-104.62982989431876, 50.43914934277048], [-104.62989843922058, 50.43916812228366], [-104.62995971590246, 50.4391842525698], [-104.63002866781655, 50.43920556944078], [-104.63005976269406, 50.43921387567915], [-104.6300934740503, 50.43922182059732], [-104.63013442047172, 50.43923017431894], [-104.63016177845213, 50.4392346239715], [-104.63019723004408, 50.43923936104633], [-104.63023433299398, 50.439243980147936], [-104.63030659126377, 50.43925250614585], [-104.63037232960846, 50.43925939167706], [-104.63039928987996, 50.43926283724565], [-104.63044304997905, 50.43926956749192], [-104.63051052521898, 50.4392830794063], [-104.63055220220893, 50.43928913568653], [-104.63058900984504, 50.439292987499186], [-104.63062087815246, 50.43929548270499], [-104.63065693453866, 50.43929797410732], [-104.63071314432156, 50.43930132447244], [-104.6307292863815, 50.43930191440187], [-104.63079806425029, 50.439301681164196], [-104.63087532228454, 50.439302370528694], [-104.63088567483344, 50.43930282066084], [-104.63094433152109, 50.43930733522766], [-104.63097258312034, 50.439311334255756], [-104.63101293359848, 50.43932083873269]]]}, "properties": {"NAME": "LAKEVIEW", "WC_Total": 413, "Lead_Total": 18, "Lead_Per": 4.3583535109, "OBJECTID_1": 27}}, {"type": "Feature", "id": 28, "geometry": {"type": "Polygon", "coordinates": [[[-104.65097133929157, 50.44721558260911], [-104.64355308505752, 50.44784645571313], [-104.64288120256094, 50.44791924245484], [-104.64286696300815, 50.44801802622212], [-104.64278913769853, 50.44847224133492], [-104.64275980805189, 50.448865910656956], [-104.64273776233385, 50.44916180550484], [-104.64274322612661, 50.4496629032746], [-104.64280337968314, 50.450122439558044], [-104.64288757099888, 50.450556761933754], [-104.6429839741447, 50.4508616313157], [-104.64309093875076, 50.45125747320132], [-104.64325569212795, 50.451947061357764], [-104.64335066237601, 50.45261090404764], [-104.6433771427275, 50.45307675247335], [-104.64339425294045, 50.45345963518027], [-104.64344790515612, 50.4551995707581], [-104.64530251924981, 50.45520843501669], [-104.64672527405968, 50.455212765168675], [-104.64729683080681, 50.45521450051832], [-104.64817620382527, 50.455217164003365], [-104.64961311237248, 50.455212508259166], [-104.65107812495988, 50.45521691331261], [-104.65247269921, 50.455221091407715], [-104.65392375147695, 50.45520743309696], [-104.65534649909208, 50.455211660529315], [-104.65681157195836, 50.455207002009175], [-104.6582343847931, 50.45520220005358], [-104.65967121951624, 50.45520641508372], [-104.66113631702352, 50.455199390895565], [-104.66396024702215, 50.45519455025824], [-104.66435652148971, 50.45519436636279], [-104.65097133929157, 50.44721558260911]]]}, "properties": {"NAME": "MCNAB", "WC_Total": 715, "Lead_Total": 55, "Lead_Per": 7.69230769231, "OBJECTID_1": 28}}]}